<?xml version="1.0"?>
<gpx xmlns="http://www.topografix.com/GPX/1/1" xmlns:gpxx="http://www.garmin.com/xmlschemas/GpxExtensions/v3" creator="CALTOPO" version="1.1"><metadata><name><![CDATA[Agnew Meadows-Reds]]></name></metadata><wpt lat="37.68111" lon="-119.08058"><name>Agnew Meadows TH</name><desc>Agnew shuttle stop</desc></wpt><wpt lat="37.61466" lon="-119.07489"><name>Reds Meadows TH</name><desc>Reds Meadows shuttle stop</desc></wpt><trk><name>Agnew Meadows-Reds</name><trkseg><trkpt lat="37.68113115845726" lon="-119.08060044794752"><ele>2544.0</ele></trkpt><trkpt lat="37.68112155438638" lon="-119.08059533684269"><ele>2544.0</ele></trkpt><trkpt lat="37.68112" lon="-119.0806"><ele>2544.0</ele></trkpt><trkpt lat="37.68112" lon="-119.0806"><ele>2544.0</ele></trkpt><trkpt lat="37.68127133142214" lon="-119.08073845215216"><ele>2544.0</ele></trkpt><trkpt lat="37.68127616056219" lon="-119.08074286999937"><ele>2544.0</ele></trkpt><trkpt lat="37.68159" lon="-119.08103"><ele>2544.0</ele></trkpt><trkpt lat="37.68165" lon="-119.08116000000001"><ele>2544.0</ele></trkpt><trkpt lat="37.68169" lon="-119.08137999999997"><ele>2544.0500924426633</ele></trkpt><trkpt lat="37.68171" lon="-119.08231999999998"><ele>2544.0</ele></trkpt><trkpt lat="37.68189" lon="-119.08311000000003"><ele>2545.0</ele></trkpt><trkpt lat="37.68198" lon="-119.08341000000001"><ele>2545.0</ele></trkpt><trkpt lat="37.68203" lon="-119.08362999999997"><ele>2544.073330698535</ele></trkpt><trkpt lat="37.68204" lon="-119.08391"><ele>2544.0</ele></trkpt><trkpt lat="37.68245" lon="-119.08442000000002"><ele>2543.0</ele></trkpt><trkpt lat="37.68284869669124" lon="-119.08468255635762"><ele>2542.3202135604524</ele></trkpt><trkpt lat="37.68285" lon="-119.08467999999999"><ele>2542.4692460012093</ele></trkpt><trkpt lat="37.682848059658156" lon="-119.0846945525638"><ele>2542.1210641604976</ele></trkpt><trkpt lat="37.68284638692965" lon="-119.08470709802765"><ele>2542.0</ele></trkpt><trkpt lat="37.68283" lon="-119.08483000000001"><ele>2541.0</ele></trkpt><trkpt lat="37.68255" lon="-119.08521999999999"><ele>2539.0</ele></trkpt><trkpt lat="37.68247744657678" lon="-119.08542153728672"><ele>2538.2582588090304</ele></trkpt><trkpt lat="37.68247632911216" lon="-119.08542464150179"><ele>2538.1664676409196</ele></trkpt><trkpt lat="37.68237" lon="-119.08571999999998"><ele>2537.0</ele></trkpt><trkpt lat="37.68223" lon="-119.08594"><ele>2536.0</ele></trkpt><trkpt lat="37.682" lon="-119.08612"><ele>2534.0</ele></trkpt><trkpt lat="37.681861379487145" lon="-119.08611306823178"><ele>2534.0</ele></trkpt><trkpt lat="37.681861379487145" lon="-119.08611306823178"><ele>2534.0</ele></trkpt><trkpt lat="37.6818" lon="-119.08611000000002"><ele>2533.5295435171574</ele></trkpt><trkpt lat="37.68166" lon="-119.08613000000003"><ele>2534.0</ele></trkpt><trkpt lat="37.68166" lon="-119.08613000000003"><ele>2534.0</ele></trkpt><trkpt lat="37.6816" lon="-119.08609999999999"><ele>2534.0</ele></trkpt><trkpt lat="37.6816" lon="-119.08609999999999"><ele>2534.0</ele></trkpt><trkpt lat="37.68143" lon="-119.08600999999999"><ele>2535.0</ele></trkpt><trkpt lat="37.68134" lon="-119.08600999999999"><ele>2535.0</ele></trkpt><trkpt lat="37.68127" lon="-119.08605999999997"><ele>2534.0</ele></trkpt><trkpt lat="37.68099" lon="-119.08605999999997"><ele>2532.713815581813</ele></trkpt><trkpt lat="37.6809" lon="-119.08613000000003"><ele>2532.0</ele></trkpt><trkpt lat="37.68075" lon="-119.08645999999999"><ele>2531.0649758982217</ele></trkpt><trkpt lat="37.68077768302904" lon="-119.08669991958504"><ele>2531.0</ele></trkpt><trkpt lat="37.68077838577746" lon="-119.08670601006861"><ele>2531.0</ele></trkpt><trkpt lat="37.68078" lon="-119.08672000000001"><ele>2531.0</ele></trkpt><trkpt lat="37.68071" lon="-119.08688999999998"><ele>2531.0</ele></trkpt><trkpt lat="37.68065" lon="-119.0872"><ele>2530.780886559825</ele></trkpt><trkpt lat="37.6805" lon="-119.08765"><ele>2530.0</ele></trkpt><trkpt lat="37.68053" lon="-119.08796000000001"><ele>2529.1755820378817</ele></trkpt><trkpt lat="37.6804" lon="-119.08823999999998"><ele>2529.909994482994</ele></trkpt><trkpt lat="37.68043" lon="-119.08857"><ele>2529.1434492673725</ele></trkpt><trkpt lat="37.68042" lon="-119.08865000000003"><ele>2528.155004443135</ele></trkpt><trkpt lat="37.68035" lon="-119.08879999999999"><ele>2528.0</ele></trkpt><trkpt lat="37.68028" lon="-119.08907999999997"><ele>2528.0</ele></trkpt><trkpt lat="37.68028" lon="-119.08907999999997"><ele>2528.0</ele></trkpt><trkpt lat="37.68028" lon="-119.08907999999997"><ele>2528.0</ele></trkpt><trkpt lat="37.68018" lon="-119.08976999999999"><ele>2526.170621189327</ele></trkpt><trkpt lat="37.68006" lon="-119.08992999999998"><ele>2527.0</ele></trkpt><trkpt lat="37.67993" lon="-119.09003000000001"><ele>2526.506575390386</ele></trkpt><trkpt lat="37.67986" lon="-119.09015"><ele>2526.2923137769103</ele></trkpt><trkpt lat="37.67983" lon="-119.09033999999997"><ele>2526.5257821362466</ele></trkpt><trkpt lat="37.6799" lon="-119.09145999999998"><ele>2526.6476904153824</ele></trkpt><trkpt lat="37.67992" lon="-119.09162000000003"><ele>2526.825379209593</ele></trkpt><trkpt lat="37.67997" lon="-119.09180000000003"><ele>2527.0</ele></trkpt><trkpt lat="37.67997" lon="-119.09180000000003"><ele>2527.0</ele></trkpt><trkpt lat="37.68003" lon="-119.09190000000001"><ele>2527.2100633069567</ele></trkpt><trkpt lat="37.68029" lon="-119.09309999999999"><ele>2530.0</ele></trkpt><trkpt lat="37.68065" lon="-119.09402999999998"><ele>2532.8112374786288</ele></trkpt><trkpt lat="37.68071" lon="-119.09431000000001"><ele>2532.1308102247417</ele></trkpt><trkpt lat="37.68142" lon="-119.09553"><ele>2528.0801065819087</ele></trkpt><trkpt lat="37.68153" lon="-119.09566000000001"><ele>2528.8023678186164</ele></trkpt><trkpt lat="37.68169" lon="-119.09613000000002"><ele>2527.052094925195</ele></trkpt><trkpt lat="37.68189" lon="-119.09658000000002"><ele>2527.0</ele></trkpt><trkpt lat="37.68211" lon="-119.09683999999999"><ele>2526.0</ele></trkpt><trkpt lat="37.68223" lon="-119.09694000000002"><ele>2526.0</ele></trkpt><trkpt lat="37.6823" lon="-119.09694000000002"><ele>2525.9948786509544</ele></trkpt><trkpt lat="37.68238" lon="-119.09699"><ele>2525.33002760835</ele></trkpt><trkpt lat="37.68244" lon="-119.09719999999999"><ele>2524.0</ele></trkpt><trkpt lat="37.68255" lon="-119.09730000000002"><ele>2523.024843881154</ele></trkpt><trkpt lat="37.68259" lon="-119.09743000000003"><ele>2522.978473013465</ele></trkpt><trkpt lat="37.68256" lon="-119.09753"><ele>2521.283087130636</ele></trkpt><trkpt lat="37.6825" lon="-119.09761000000003"><ele>2520.0</ele></trkpt><trkpt lat="37.6825" lon="-119.09761000000003"><ele>2520.0</ele></trkpt><trkpt lat="37.68237" lon="-119.09764000000001"><ele>2519.0</ele></trkpt><trkpt lat="37.68225" lon="-119.09761000000003"><ele>2518.016659485069</ele></trkpt><trkpt lat="37.68202" lon="-119.09749999999997"><ele>2517.0</ele></trkpt><trkpt lat="37.68138" lon="-119.09704999999997"><ele>2512.0</ele></trkpt><trkpt lat="37.68107" lon="-119.09665999999999"><ele>2508.936913043666</ele></trkpt><trkpt lat="37.68075" lon="-119.09641999999997"><ele>2506.746503270231</ele></trkpt><trkpt lat="37.68073" lon="-119.09645"><ele>2505.338626724656</ele></trkpt><trkpt lat="37.68091" lon="-119.09672999999998"><ele>2502.6482954971866</ele></trkpt><trkpt lat="37.68083" lon="-119.09686999999997"><ele>2500.0</ele></trkpt><trkpt lat="37.6806" lon="-119.09656000000001"><ele>2498.452815426513</ele></trkpt><trkpt lat="37.68066" lon="-119.09674000000001"><ele>2496.4000877905637</ele></trkpt><trkpt lat="37.68066" lon="-119.09681"><ele>2494.348653215483</ele></trkpt><trkpt lat="37.68058" lon="-119.09668999999997"><ele>2494.153134640772</ele></trkpt><trkpt lat="37.68051" lon="-119.09663"><ele>2491.8273912467994</ele></trkpt><trkpt lat="37.68055" lon="-119.09676999999999"><ele>2489.6787452919025</ele></trkpt><trkpt lat="37.68074" lon="-119.09712000000002"><ele>2485.110893132165</ele></trkpt><trkpt lat="37.68061" lon="-119.09703000000002"><ele>2483.282025763446</ele></trkpt><trkpt lat="37.68059" lon="-119.09704999999997"><ele>2482.1909777124188</ele></trkpt><trkpt lat="37.68074" lon="-119.09721000000002"><ele>2481.3409837982617</ele></trkpt><trkpt lat="37.68076" lon="-119.09731999999997"><ele>2479.3623815288465</ele></trkpt><trkpt lat="37.68085" lon="-119.09755999999999"><ele>2476.540555954259</ele></trkpt><trkpt lat="37.68094" lon="-119.09771999999998"><ele>2474.9397468889206</ele></trkpt><trkpt lat="37.68105" lon="-119.09780999999998"><ele>2475.268064000644</ele></trkpt><trkpt lat="37.68103" lon="-119.09784000000002"><ele>2473.163209418099</ele></trkpt><trkpt lat="37.68101" lon="-119.09784000000002"><ele>2472.8712498618956</ele></trkpt><trkpt lat="37.68089" lon="-119.09776"><ele>2471.5982328890823</ele></trkpt><trkpt lat="37.68084" lon="-119.09776"><ele>2470.5982328890823</ele></trkpt><trkpt lat="37.68079" lon="-119.0978"><ele>2469.0</ele></trkpt><trkpt lat="37.68077" lon="-119.09785999999997"><ele>2467.875790225342</ele></trkpt><trkpt lat="37.68074" lon="-119.09785999999997"><ele>2467.875790225342</ele></trkpt><trkpt lat="37.68051" lon="-119.09753999999998"><ele>2468.4827939746883</ele></trkpt><trkpt lat="37.68037" lon="-119.09719999999999"><ele>2469.548630131068</ele></trkpt><trkpt lat="37.68021" lon="-119.09692999999999"><ele>2465.929275206841</ele></trkpt><trkpt lat="37.68009" lon="-119.09663"><ele>2463.0957965557463</ele></trkpt><trkpt lat="37.68003" lon="-119.09656999999999"><ele>2462.3418995851293</ele></trkpt><trkpt lat="37.67974" lon="-119.09638999999999"><ele>2459.44486044487</ele></trkpt><trkpt lat="37.67941" lon="-119.09609999999998"><ele>2456.7625104671047</ele></trkpt><trkpt lat="37.67936" lon="-119.09609"><ele>2455.9140033483204</ele></trkpt><trkpt lat="37.6792120532083" lon="-119.09599684831636"><ele>2454.7993247034756</ele></trkpt><trkpt lat="37.679222190049465" lon="-119.09600323069458"><ele>2454.8596705846103</ele></trkpt><trkpt lat="37.67909" lon="-119.09591999999998"><ele>2452.9684395177683</ele></trkpt><trkpt lat="37.67885" lon="-119.09573"><ele>2450.8561374649853</ele></trkpt><trkpt lat="37.67863" lon="-119.09571"><ele>2448.0</ele></trkpt><trkpt lat="37.67849" lon="-119.09564999999998"><ele>2444.974014998588</ele></trkpt><trkpt lat="37.67838" lon="-119.09555"><ele>2444.0</ele></trkpt><trkpt lat="37.67822" lon="-119.09532999999999"><ele>2442.0</ele></trkpt><trkpt lat="37.67803" lon="-119.09523999999999"><ele>2440.0</ele></trkpt><trkpt lat="37.67792" lon="-119.09514000000001"><ele>2437.05807136558</ele></trkpt><trkpt lat="37.67784" lon="-119.09498000000002"><ele>2437.0</ele></trkpt><trkpt lat="37.67768000256105" lon="-119.09483000428565"><ele>2434.937105063978</ele></trkpt><trkpt lat="37.67768000256105" lon="-119.09483000428565"><ele>2434.937105063978</ele></trkpt><trkpt lat="37.67768" lon="-119.09483"><ele>2434.936991008693</ele></trkpt><trkpt lat="37.67755" lon="-119.09465"><ele>2434.0</ele></trkpt><trkpt lat="37.6775" lon="-119.09449999999998"><ele>2434.0</ele></trkpt><trkpt lat="37.67745" lon="-119.09397000000001"><ele>2431.29697812036</ele></trkpt><trkpt lat="37.6774" lon="-119.09370999999999"><ele>2430.150130991212</ele></trkpt><trkpt lat="37.6772" lon="-119.09323999999998"><ele>2424.662617713213</ele></trkpt><trkpt lat="37.67709" lon="-119.09316999999999"><ele>2422.49226311082</ele></trkpt><trkpt lat="37.67705" lon="-119.09309999999999"><ele>2422.0390393618254</ele></trkpt><trkpt lat="37.67704" lon="-119.09294999999997"><ele>2420.0</ele></trkpt><trkpt lat="37.67694" lon="-119.09258"><ele>2417.0</ele></trkpt><trkpt lat="37.676890716061585" lon="-119.09247835187705"><ele>2416.142179071344</ele></trkpt><trkpt lat="37.6768964712055" lon="-119.09249022169405"><ele>2416.170432989714</ele></trkpt><trkpt lat="37.67662" lon="-119.09192000000002"><ele>2410.2380408896133</ele></trkpt><trkpt lat="37.67664" lon="-119.09186"><ele>2409.44183822209</ele></trkpt><trkpt lat="37.67673" lon="-119.09180000000003"><ele>2409.3501225694486</ele></trkpt><trkpt lat="37.67673" lon="-119.09180000000003"><ele>2409.3501225694486</ele></trkpt><trkpt lat="37.67676" lon="-119.09174999999999"><ele>2410.0</ele></trkpt><trkpt lat="37.67675" lon="-119.09136000000001"><ele>2412.0</ele></trkpt><trkpt lat="37.67671" lon="-119.09127000000001"><ele>2412.0</ele></trkpt><trkpt lat="37.67663" lon="-119.09118000000001"><ele>2412.0</ele></trkpt><trkpt lat="37.67652" lon="-119.09118999999998"><ele>2410.0</ele></trkpt><trkpt lat="37.67635" lon="-119.09107"><ele>2409.3832033962817</ele></trkpt><trkpt lat="37.67626" lon="-119.09096999999997"><ele>2408.3377555838824</ele></trkpt><trkpt lat="37.67608" lon="-119.09045000000003"><ele>2409.791608383799</ele></trkpt><trkpt lat="37.67592" lon="-119.09028"><ele>2408.0562887687465</ele></trkpt><trkpt lat="37.67542" lon="-119.08945"><ele>2413.725703104399</ele></trkpt><trkpt lat="37.67522" lon="-119.08918"><ele>2412.4903756581066</ele></trkpt><trkpt lat="37.67498" lon="-119.08893"><ele>2413.0</ele></trkpt><trkpt lat="37.67486" lon="-119.08868000000001"><ele>2414.7277885255057</ele></trkpt><trkpt lat="37.67473" lon="-119.08846"><ele>2417.235431438312</ele></trkpt><trkpt lat="37.67459" lon="-119.08802000000003"><ele>2423.497679426335</ele></trkpt><trkpt lat="37.67429" lon="-119.08744000000002"><ele>2422.318517426029</ele></trkpt><trkpt lat="37.67427" lon="-119.08726999999999"><ele>2423.1409179959446</ele></trkpt><trkpt lat="37.67422" lon="-119.08717000000001"><ele>2422.196920806542</ele></trkpt><trkpt lat="37.67407" lon="-119.08688999999998"><ele>2420.0645760919056</ele></trkpt><trkpt lat="37.67387" lon="-119.08665000000002"><ele>2415.73768082496</ele></trkpt><trkpt lat="37.6735" lon="-119.08589"><ele>2413.0</ele></trkpt><trkpt lat="37.67333" lon="-119.08564999999999"><ele>2411.0</ele></trkpt><trkpt lat="37.67335" lon="-119.08549"><ele>2409.409739363877</ele></trkpt><trkpt lat="37.67321" lon="-119.08512999999999"><ele>2406.8735171496883</ele></trkpt><trkpt lat="37.67306" lon="-119.08488"><ele>2403.1032570991665</ele></trkpt><trkpt lat="37.67303" lon="-119.08467000000002"><ele>2402.2133488867385</ele></trkpt><trkpt lat="37.6729" lon="-119.08443999999997"><ele>2399.0</ele></trkpt><trkpt lat="37.67286" lon="-119.08424000000002"><ele>2398.0</ele></trkpt><trkpt lat="37.67287" lon="-119.08366000000001"><ele>2395.0</ele></trkpt><trkpt lat="37.67283" lon="-119.08348999999998"><ele>2395.3715662215836</ele></trkpt><trkpt lat="37.67243" lon="-119.08272"><ele>2390.0</ele></trkpt><trkpt lat="37.67213" lon="-119.08229"><ele>2390.0771342681046</ele></trkpt><trkpt lat="37.67177" lon="-119.08159"><ele>2391.0</ele></trkpt><trkpt lat="37.67161" lon="-119.08122000000003"><ele>2393.0</ele></trkpt><trkpt lat="37.67051" lon="-119.08050000000003"><ele>2384.0</ele></trkpt><trkpt lat="37.67027" lon="-119.08015"><ele>2382.178006335521</ele></trkpt><trkpt lat="37.67003" lon="-119.07972000000001"><ele>2387.6595565831876</ele></trkpt><trkpt lat="37.66935" lon="-119.07909999999998"><ele>2389.0</ele></trkpt><trkpt lat="37.66914" lon="-119.07895000000002"><ele>2387.0</ele></trkpt><trkpt lat="37.6687" lon="-119.07873999999998"><ele>2386.0</ele></trkpt><trkpt lat="37.66854" lon="-119.07868000000002"><ele>2385.0</ele></trkpt><trkpt lat="37.66839" lon="-119.07866999999999"><ele>2385.0</ele></trkpt><trkpt lat="37.66827" lon="-119.07857000000001"><ele>2385.0</ele></trkpt><trkpt lat="37.66796" lon="-119.07850000000002"><ele>2385.0</ele></trkpt><trkpt lat="37.66765" lon="-119.07846999999998"><ele>2384.0</ele></trkpt><trkpt lat="37.66758" lon="-119.07839000000001"><ele>2384.0</ele></trkpt><trkpt lat="37.66744" lon="-119.07832000000002"><ele>2383.00927282311</ele></trkpt><trkpt lat="37.66732" lon="-119.07823000000002"><ele>2382.0</ele></trkpt><trkpt lat="37.6669" lon="-119.07779"><ele>2381.4266973516587</ele></trkpt><trkpt lat="37.66686" lon="-119.07767999999999"><ele>2381.0</ele></trkpt><trkpt lat="37.66687" lon="-119.07758999999999"><ele>2381.0</ele></trkpt><trkpt lat="37.66695" lon="-119.07738"><ele>2382.160841103643</ele></trkpt><trkpt lat="37.66695" lon="-119.07729999999998"><ele>2380.144219426446</ele></trkpt><trkpt lat="37.66692" lon="-119.07724000000002"><ele>2380.8995448877104</ele></trkpt><trkpt lat="37.66683" lon="-119.07722000000001"><ele>2380.831612444017</ele></trkpt><trkpt lat="37.66674" lon="-119.07722999999999"><ele>2383.074107982012</ele></trkpt><trkpt lat="37.66643" lon="-119.077"><ele>2383.0</ele></trkpt><trkpt lat="37.66643" lon="-119.077"><ele>2383.0</ele></trkpt><trkpt lat="37.66596" lon="-119.07666"><ele>2383.061741473993</ele></trkpt><trkpt lat="37.66589" lon="-119.07668999999999"><ele>2384.0</ele></trkpt><trkpt lat="37.66578" lon="-119.07684"><ele>2383.0</ele></trkpt><trkpt lat="37.66541" lon="-119.07706999999999"><ele>2380.9118455579464</ele></trkpt><trkpt lat="37.66514" lon="-119.07733999999999"><ele>2378.0</ele></trkpt><trkpt lat="37.66473" lon="-119.07749999999999"><ele>2376.782666666899</ele></trkpt><trkpt lat="37.66411" lon="-119.07765"><ele>2376.0</ele></trkpt><trkpt lat="37.66387" lon="-119.07767999999999"><ele>2376.3940586671233</ele></trkpt><trkpt lat="37.6637" lon="-119.07774"><ele>2376.0</ele></trkpt><trkpt lat="37.6627" lon="-119.07772999999997"><ele>2376.0030129747224</ele></trkpt><trkpt lat="37.66254" lon="-119.07776000000001"><ele>2376.0</ele></trkpt><trkpt lat="37.66232" lon="-119.07787000000002"><ele>2373.539416888263</ele></trkpt><trkpt lat="37.66197" lon="-119.07794999999999"><ele>2373.811146667227</ele></trkpt><trkpt lat="37.66127" lon="-119.07817"><ele>2371.2190680203694</ele></trkpt><trkpt lat="37.660804247345666" lon="-119.07841183310899"><ele>2368.2881638179533</ele></trkpt><trkpt lat="37.66081280257219" lon="-119.07840739107257"><ele>2368.4951777192764</ele></trkpt><trkpt lat="37.66075" lon="-119.07844"><ele>2368.7984965620385</ele></trkpt><trkpt lat="37.66055" lon="-119.07861000000003"><ele>2365.67043158412</ele></trkpt><trkpt lat="37.6601" lon="-119.07916"><ele>2366.0456934093245</ele></trkpt><trkpt lat="37.65992" lon="-119.07931000000002"><ele>2365.8319433018924</ele></trkpt><trkpt lat="37.65974" lon="-119.07943"><ele>2366.139356647618</ele></trkpt><trkpt lat="37.65966" lon="-119.07951000000003"><ele>2365.109877331648</ele></trkpt><trkpt lat="37.65943" lon="-119.07965000000002"><ele>2364.5854044440202</ele></trkpt><trkpt lat="37.65879" lon="-119.07993999999997"><ele>2360.0704248906113</ele></trkpt><trkpt lat="37.65855" lon="-119.08001999999999"><ele>2359.3421546667814</ele></trkpt><trkpt lat="37.65798" lon="-119.08010999999999"><ele>2361.0</ele></trkpt><trkpt lat="37.65782" lon="-119.08010999999999"><ele>2360.147850666661</ele></trkpt><trkpt lat="37.6577" lon="-119.08005000000003"><ele>2361.3692877233652</ele></trkpt><trkpt lat="37.65747" lon="-119.08004"><ele>2362.0</ele></trkpt><trkpt lat="37.65725" lon="-119.08013"><ele>2359.2157831112854</ele></trkpt><trkpt lat="37.65716" lon="-119.08015"><ele>2359.0</ele></trkpt><trkpt lat="37.65686" lon="-119.08010999999999"><ele>2361.147850666661</ele></trkpt><trkpt lat="37.65667" lon="-119.08019000000002"><ele>2359.4195804432966</ele></trkpt><trkpt lat="37.65654" lon="-119.08014000000003"><ele>2361.0</ele></trkpt><trkpt lat="37.65643" lon="-119.08015"><ele>2360.0</ele></trkpt><trkpt lat="37.65622" lon="-119.08004"><ele>2358.486801644787</ele></trkpt><trkpt lat="37.65595" lon="-119.08001000000002"><ele>2361.0</ele></trkpt><trkpt lat="37.65578" lon="-119.08005000000003"><ele>2360.0</ele></trkpt><trkpt lat="37.65554" lon="-119.08017000000001"><ele>2356.6488168943633</ele></trkpt><trkpt lat="37.65546" lon="-119.08015999999998"><ele>2356.6125572305855</ele></trkpt><trkpt lat="37.65522" lon="-119.08023000000003"><ele>2353.345237639358</ele></trkpt><trkpt lat="37.65451" lon="-119.08017000000001"><ele>2349.0</ele></trkpt><trkpt lat="37.65419" lon="-119.08006999999998"><ele>2347.0118799657057</ele></trkpt><trkpt lat="37.65389" lon="-119.07988999999998"><ele>2346.0685976226814</ele></trkpt><trkpt lat="37.65389" lon="-119.07988999999998"><ele>2346.0685976226814</ele></trkpt><trkpt lat="37.6538" lon="-119.08010000000002"><ele>2345.9789699271664</ele></trkpt><trkpt lat="37.6538" lon="-119.08010000000002"><ele>2345.9789699271664</ele></trkpt><trkpt lat="37.65375" lon="-119.08014000000003"><ele>2348.2502506677993</ele></trkpt><trkpt lat="37.65364" lon="-119.08013"><ele>2348.867062289128</ele></trkpt><trkpt lat="37.65349" lon="-119.08008000000001"><ele>2348.5705871098776</ele></trkpt><trkpt lat="37.65327" lon="-119.08010000000002"><ele>2351.4864288061012</ele></trkpt><trkpt lat="37.65321" lon="-119.08015"><ele>2352.7162844445556</ele></trkpt><trkpt lat="37.65315" lon="-119.08046000000002"><ele>2354.1262555092053</ele></trkpt><trkpt lat="37.65312" lon="-119.08051"><ele>2354.50060573034</ele></trkpt><trkpt lat="37.65307" lon="-119.08055000000002"><ele>2352.4215823602863</ele></trkpt><trkpt lat="37.65299" lon="-119.08050000000003"><ele>2353.0</ele></trkpt><trkpt lat="37.65293" lon="-119.08041000000003"><ele>2355.0</ele></trkpt><trkpt lat="37.65275" lon="-119.08024"><ele>2357.7722205519676</ele></trkpt><trkpt lat="37.65265" lon="-119.08008000000001"><ele>2359.6585062053055</ele></trkpt><trkpt lat="37.65252" lon="-119.07996000000003"><ele>2360.267682823115</ele></trkpt><trkpt lat="37.6525" lon="-119.07981999999998"><ele>2361.164511816501</ele></trkpt><trkpt lat="37.65243" lon="-119.07961"><ele>2362.6083067376167</ele></trkpt><trkpt lat="37.65233" lon="-119.07947000000001"><ele>2366.0</ele></trkpt><trkpt lat="37.65227" lon="-119.07943999999998"><ele>2366.0165255835927</ele></trkpt><trkpt lat="37.65212" lon="-119.07943"><ele>2368.0</ele></trkpt><trkpt lat="37.65201" lon="-119.07936000000001"><ele>2366.6022509226723</ele></trkpt><trkpt lat="37.65179" lon="-119.07932"><ele>2365.0</ele></trkpt><trkpt lat="37.65171" lon="-119.07927999999998"><ele>2364.0</ele></trkpt><trkpt lat="37.65156" lon="-119.07900999999998"><ele>2362.818505736068</ele></trkpt><trkpt lat="37.65159" lon="-119.07852000000003"><ele>2368.286852714109</ele></trkpt><trkpt lat="37.65155" lon="-119.07843000000003"><ele>2368.558474667836</ele></trkpt><trkpt lat="37.65122" lon="-119.0781"><ele>2365.0</ele></trkpt><trkpt lat="37.65112" lon="-119.07772"><ele>2361.0</ele></trkpt><trkpt lat="37.65098" lon="-119.07740999999999"><ele>2361.0</ele></trkpt><trkpt lat="37.65085" lon="-119.07736"><ele>2359.270012900156</ele></trkpt><trkpt lat="37.65078" lon="-119.07738"><ele>2359.0</ele></trkpt><trkpt lat="37.65069" lon="-119.07742999999999"><ele>2358.998738007259</ele></trkpt><trkpt lat="37.65049" lon="-119.07767000000001"><ele>2357.0</ele></trkpt><trkpt lat="37.65034" lon="-119.07767999999999"><ele>2356.0</ele></trkpt><trkpt lat="37.65029" lon="-119.07763999999997"><ele>2355.0</ele></trkpt><trkpt lat="37.65022" lon="-119.07763999999997"><ele>2354.7418062211946</ele></trkpt><trkpt lat="37.64998" lon="-119.07769000000002"><ele>2353.012998562213</ele></trkpt><trkpt lat="37.64992170305789" lon="-119.07766309371902"><ele>2352.0</ele></trkpt><trkpt lat="37.649903313207666" lon="-119.07765460608312"><ele>2352.0</ele></trkpt><trkpt lat="37.64985" lon="-119.07763"><ele>2352.0</ele></trkpt><trkpt lat="37.64964" lon="-119.07742999999999"><ele>2351.0</ele></trkpt><trkpt lat="37.64914" lon="-119.07727999999997"><ele>2353.964590221178</ele></trkpt><trkpt lat="37.64903" lon="-119.07727"><ele>2353.498556444887</ele></trkpt><trkpt lat="37.64903" lon="-119.07727"><ele>2353.498556444887</ele></trkpt><trkpt lat="37.64894" lon="-119.07726000000002"><ele>2353.0</ele></trkpt><trkpt lat="37.64842" lon="-119.07733999999999"><ele>2350.846637013953</ele></trkpt><trkpt lat="37.6482" lon="-119.07753000000002"><ele>2348.2522091243422</ele></trkpt><trkpt lat="37.64805" lon="-119.07756999999998"><ele>2348.0</ele></trkpt><trkpt lat="37.64773" lon="-119.07776999999999"><ele>2350.5970052438265</ele></trkpt><trkpt lat="37.64745" lon="-119.07790999999997"><ele>2352.0</ele></trkpt><trkpt lat="37.64731" lon="-119.07801999999998"><ele>2352.0</ele></trkpt><trkpt lat="37.64719" lon="-119.07819"><ele>2350.976404614208</ele></trkpt><trkpt lat="37.64698" lon="-119.07841000000002"><ele>2350.626407111995</ele></trkpt><trkpt lat="37.64669" lon="-119.07868000000002"><ele>2352.0</ele></trkpt><trkpt lat="37.6465" lon="-119.07893000000001"><ele>2351.350158803165</ele></trkpt><trkpt lat="37.64619" lon="-119.07945999999998"><ele>2345.058366580174</ele></trkpt><trkpt lat="37.64593" lon="-119.07954000000001"><ele>2343.0</ele></trkpt><trkpt lat="37.64573" lon="-119.07968"><ele>2340.818274369327</ele></trkpt><trkpt lat="37.64568" lon="-119.07974000000002"><ele>2340.0</ele></trkpt><trkpt lat="37.64566" lon="-119.07987000000003"><ele>2338.0</ele></trkpt><trkpt lat="37.6457" lon="-119.07999999999998"><ele>2336.465869805037</ele></trkpt><trkpt lat="37.64568" lon="-119.08013"><ele>2336.0</ele></trkpt><trkpt lat="37.64564" lon="-119.08020999999997"><ele>2335.0</ele></trkpt><trkpt lat="37.64554" lon="-119.08028000000002"><ele>2334.0</ele></trkpt><trkpt lat="37.64519" lon="-119.08033"><ele>2331.1048924452625</ele></trkpt><trkpt lat="37.64475" lon="-119.08055999999999"><ele>2332.823669333011</ele></trkpt><trkpt lat="37.6442" lon="-119.08074999999997"><ele>2334.678311109543</ele></trkpt><trkpt lat="37.64362" lon="-119.08089000000001"><ele>2333.1708597189117</ele></trkpt><trkpt lat="37.64343" lon="-119.08098000000001"><ele>2331.262081571803</ele></trkpt><trkpt lat="37.64333" lon="-119.08105999999998"><ele>2329.222443367019</ele></trkpt><trkpt lat="37.64329" lon="-119.08113000000003"><ele>2329.6449550322095</ele></trkpt><trkpt lat="37.64328" lon="-119.08122000000003"><ele>2330.8316911850125</ele></trkpt><trkpt lat="37.64336" lon="-119.08152999999999"><ele>2330.9710542229004</ele></trkpt><trkpt lat="37.64335" lon="-119.08161000000001"><ele>2331.0</ele></trkpt><trkpt lat="37.64331" lon="-119.08168"><ele>2332.0</ele></trkpt><trkpt lat="37.64331" lon="-119.08182"><ele>2332.8163630311924</ele></trkpt><trkpt lat="37.64317" lon="-119.08209"><ele>2331.0</ele></trkpt><trkpt lat="37.64311" lon="-119.08233999999999"><ele>2329.0</ele></trkpt><trkpt lat="37.64309" lon="-119.08254"><ele>2329.7475384757854</ele></trkpt><trkpt lat="37.64289" lon="-119.08299"><ele>2334.0</ele></trkpt><trkpt lat="37.64279" lon="-119.08343000000002"><ele>2331.0</ele></trkpt><trkpt lat="37.64259" lon="-119.08375000000001"><ele>2327.0</ele></trkpt><trkpt lat="37.64238" lon="-119.08395000000002"><ele>2326.0</ele></trkpt><trkpt lat="37.64227" lon="-119.08398999999997"><ele>2325.0</ele></trkpt><trkpt lat="37.64218" lon="-119.08406000000002"><ele>2324.064508442767</ele></trkpt><trkpt lat="37.64172" lon="-119.08463"><ele>2320.0</ele></trkpt><trkpt lat="37.64165" lon="-119.08474999999999"><ele>2320.0</ele></trkpt><trkpt lat="37.64157" lon="-119.08562"><ele>2320.0</ele></trkpt><trkpt lat="37.64151" lon="-119.08600000000001"><ele>2320.0</ele></trkpt><trkpt lat="37.64111" lon="-119.08647000000002"><ele>2319.882642535493</ele></trkpt><trkpt lat="37.64082" lon="-119.08659"><ele>2318.9921293725056</ele></trkpt><trkpt lat="37.6407" lon="-119.08670999999998"><ele>2318.0054659417124</ele></trkpt><trkpt lat="37.64042" lon="-119.08679000000001"><ele>2318.0</ele></trkpt><trkpt lat="37.64026" lon="-119.08675"><ele>2317.2711019397766</ele></trkpt><trkpt lat="37.63979" lon="-119.08699999999999"><ele>2314.0</ele></trkpt><trkpt lat="37.63973" lon="-119.08717000000001"><ele>2316.0</ele></trkpt><trkpt lat="37.63959" lon="-119.08738"><ele>2316.0</ele></trkpt><trkpt lat="37.63945" lon="-119.08748000000003"><ele>2315.6059667984055</ele></trkpt><trkpt lat="37.63922" lon="-119.08778000000001"><ele>2317.3000568891875</ele></trkpt><trkpt lat="37.63895" lon="-119.08781999999997"><ele>2318.0</ele></trkpt><trkpt lat="37.63884" lon="-119.08787000000001"><ele>2316.5215628724545</ele></trkpt><trkpt lat="37.63879" lon="-119.08785999999998"><ele>2317.4210298303515</ele></trkpt><trkpt lat="37.63876" lon="-119.08781999999997"><ele>2317.164191999007</ele></trkpt><trkpt lat="37.63828" lon="-119.08789000000002"><ele>2317.0</ele></trkpt><trkpt lat="37.63808" lon="-119.08803"><ele>2319.7553651269</ele></trkpt><trkpt lat="37.63761" lon="-119.08819"><ele>2322.352699027194</ele></trkpt><trkpt lat="37.63735" lon="-119.08834000000002"><ele>2322.0</ele></trkpt><trkpt lat="37.63724" lon="-119.08837"><ele>2321.7960497783497</ele></trkpt><trkpt lat="37.63705" lon="-119.08837"><ele>2321.0</ele></trkpt><trkpt lat="37.63666" lon="-119.08843999999999"><ele>2318.013193673417</ele></trkpt><trkpt lat="37.63624" lon="-119.08834999999999"><ele>2316.0</ele></trkpt><trkpt lat="37.63601767868498" lon="-119.08815891295149"><ele>2316.0</ele></trkpt><trkpt lat="37.63599346445198" lon="-119.08821554393813"><ele>2316.999669870843</ele></trkpt><trkpt lat="37.63578" lon="-119.08807000000002"><ele>2318.4576125635267</ele></trkpt><trkpt lat="37.63577" lon="-119.08801"><ele>2317.1659666812243</ele></trkpt><trkpt lat="37.63567" lon="-119.08789999999999"><ele>2319.034897422418</ele></trkpt><trkpt lat="37.63537" lon="-119.08767"><ele>2324.1197856825324</ele></trkpt><trkpt lat="37.63505" lon="-119.08751999999998"><ele>2326.1831786660478</ele></trkpt><trkpt lat="37.63479" lon="-119.08742999999998"><ele>2328.8109048660845</ele></trkpt><trkpt lat="37.63463" lon="-119.08740999999998"><ele>2330.0568071105517</ele></trkpt><trkpt lat="37.63442" lon="-119.08740999999998"><ele>2331.0</ele></trkpt><trkpt lat="37.63416" lon="-119.08749"><ele>2332.0812298748583</ele></trkpt><trkpt lat="37.6341" lon="-119.08757000000003"><ele>2333.0</ele></trkpt><trkpt lat="37.63417" lon="-119.08780000000002"><ele>2332.0</ele></trkpt><trkpt lat="37.63414" lon="-119.08794"><ele>2333.0</ele></trkpt><trkpt lat="37.63403" lon="-119.08790999999997"><ele>2332.358495998662</ele></trkpt><trkpt lat="37.63391" lon="-119.08794"><ele>2332.7565973335877</ele></trkpt><trkpt lat="37.63368" lon="-119.0881"><ele>2335.213137777522</ele></trkpt><trkpt lat="37.63336" lon="-119.08814999999998"><ele>2336.0729290239865</ele></trkpt><trkpt lat="37.63328" lon="-119.08817999999997"><ele>2337.2987905935474</ele></trkpt><trkpt lat="37.63323" lon="-119.08823000000001"><ele>2337.544746050919</ele></trkpt><trkpt lat="37.63317" lon="-119.08861000000002"><ele>2340.0</ele></trkpt><trkpt lat="37.63291" lon="-119.08893"><ele>2338.0</ele></trkpt><trkpt lat="37.63291" lon="-119.08893"><ele>2338.0</ele></trkpt><trkpt lat="37.63272" lon="-119.08919000000003"><ele>2340.0</ele></trkpt><trkpt lat="37.63259" lon="-119.08945"><ele>2338.414876789786</ele></trkpt><trkpt lat="37.63255" lon="-119.08947"><ele>2341.0383128856924</ele></trkpt><trkpt lat="37.63249" lon="-119.08940000000001"><ele>2340.137069240756</ele></trkpt><trkpt lat="37.63238" lon="-119.08937000000003"><ele>2340.0</ele></trkpt><trkpt lat="37.63225" lon="-119.08938"><ele>2340.0</ele></trkpt><trkpt lat="37.63212" lon="-119.08936"><ele>2341.0</ele></trkpt><trkpt lat="37.63163" lon="-119.08904000000001"><ele>2340.0</ele></trkpt><trkpt lat="37.63163" lon="-119.08904000000001"><ele>2340.0</ele></trkpt><trkpt lat="37.63145518607035" lon="-119.08890825616896"><ele>2338.0589811679156</ele></trkpt><trkpt lat="37.63146437165798" lon="-119.08891517820041"><ele>2338.203195407521</ele></trkpt><trkpt lat="37.63094" lon="-119.08852000000002"><ele>2337.0</ele></trkpt><trkpt lat="37.63084" lon="-119.08850000000001"><ele>2337.0</ele></trkpt><trkpt lat="37.63049" lon="-119.08857"><ele>2337.1167253335007</ele></trkpt><trkpt lat="37.63008" lon="-119.08857"><ele>2336.1071887374856</ele></trkpt><trkpt lat="37.62929" lon="-119.08843000000002"><ele>2345.5922524449416</ele></trkpt><trkpt lat="37.62921" lon="-119.08838000000003"><ele>2344.2620835569687</ele></trkpt><trkpt lat="37.62881" lon="-119.08821"><ele>2348.062403324526</ele></trkpt><trkpt lat="37.62837" lon="-119.08811000000003"><ele>2351.679171557538</ele></trkpt><trkpt lat="37.6279" lon="-119.08805999999998"><ele>2355.0944202913124</ele></trkpt><trkpt lat="37.62774" lon="-119.08794999999998"><ele>2352.2226311098784</ele></trkpt><trkpt lat="37.62715" lon="-119.08774"><ele>2350.435921777971</ele></trkpt><trkpt lat="37.62679" lon="-119.08766000000003"><ele>2351.707651556935</ele></trkpt><trkpt lat="37.62666" lon="-119.08767"><ele>2353.1736853336915</ele></trkpt><trkpt lat="37.6259" lon="-119.08762000000002"><ele>2355.798896893859</ele></trkpt><trkpt lat="37.62569" lon="-119.08748000000003"><ele>2355.0</ele></trkpt><trkpt lat="37.62547" lon="-119.08744999999999"><ele>2356.920942221768</ele></trkpt><trkpt lat="37.62537" lon="-119.08737000000002"><ele>2354.1926720007323</ele></trkpt><trkpt lat="37.62519" lon="-119.08733000000001"><ele>2353.328536889516</ele></trkpt><trkpt lat="37.62479" lon="-119.0874"><ele>2352.0</ele></trkpt><trkpt lat="37.62474" lon="-119.08742999999998"><ele>2351.997651050886</ele></trkpt><trkpt lat="37.62446" lon="-119.08742000000001"><ele>2350.5228408896364</ele></trkpt><trkpt lat="37.62427" lon="-119.08744000000002"><ele>2350.454908445012</ele></trkpt><trkpt lat="37.6241" lon="-119.08754999999996"><ele>2350.636121164317</ele></trkpt><trkpt lat="37.62389" lon="-119.08754999999996"><ele>2349.162559996359</ele></trkpt><trkpt lat="37.62380746847819" lon="-119.08750656534698"><ele>2347.081606645137</ele></trkpt><trkpt lat="37.62380746847819" lon="-119.08750656534698"><ele>2347.081606645137</ele></trkpt><trkpt lat="37.6237" lon="-119.08744999999999"><ele>2348.0</ele></trkpt><trkpt lat="37.62356" lon="-119.08726000000001"><ele>2346.0426060176233</ele></trkpt><trkpt lat="37.62343" lon="-119.0872"><ele>2345.0</ele></trkpt><trkpt lat="37.6232" lon="-119.08729"><ele>2341.0</ele></trkpt><trkpt lat="37.62286" lon="-119.08735000000001"><ele>2344.260604445357</ele></trkpt><trkpt lat="37.62261" lon="-119.08744000000002"><ele>2346.245672932033</ele></trkpt><trkpt lat="37.62253" lon="-119.08751999999998"><ele>2347.1831786660478</ele></trkpt><trkpt lat="37.62238" lon="-119.08754999999996"><ele>2348.5812799981795</ele></trkpt><trkpt lat="37.6221" lon="-119.08765"><ele>2351.2416177778505</ele></trkpt><trkpt lat="37.62193" lon="-119.08767"><ele>2353.0</ele></trkpt><trkpt lat="37.6216" lon="-119.08784000000003"><ele>2355.0962595567107</ele></trkpt><trkpt lat="37.62151" lon="-119.08785"><ele>2356.562293333467</ele></trkpt><trkpt lat="37.62138" lon="-119.08783"><ele>2357.055807456109</ele></trkpt><trkpt lat="37.62134" lon="-119.08769999999998"><ele>2358.264969808981</ele></trkpt><trkpt lat="37.62093" lon="-119.08769999999998"><ele>2356.5717866658233</ele></trkpt><trkpt lat="37.62089" lon="-119.08766000000003"><ele>2355.707651556935</ele></trkpt><trkpt lat="37.62075" lon="-119.08763999999996"><ele>2355.7755839983</ele></trkpt><trkpt lat="37.62055" lon="-119.08747"><ele>2352.9627757182498</ele></trkpt><trkpt lat="37.62051" lon="-119.08739000000003"><ele>2353.012505366682</ele></trkpt><trkpt lat="37.62049" lon="-119.08729"><ele>2353.664236989359</ele></trkpt><trkpt lat="37.62025" lon="-119.08710000000002"><ele>2354.6097600013018</ele></trkpt><trkpt lat="37.61967" lon="-119.08710000000002"><ele>2351.6097600013018</ele></trkpt><trkpt lat="37.619554505382425" lon="-119.08712566547058"><ele>2351.805857621599</ele></trkpt><trkpt lat="37.619528012435424" lon="-119.0871315528002"><ele>2351.202800268773</ele></trkpt><trkpt lat="37.61949" lon="-119.08713999999998"><ele>2350.8937907909526</ele></trkpt><trkpt lat="37.61935" lon="-119.08713999999998"><ele>2349.47389511019</ele></trkpt><trkpt lat="37.61881" lon="-119.08692000000002"><ele>2343.2211520010605</ele></trkpt><trkpt lat="37.61861" lon="-119.08688000000001"><ele>2339.3570168893784</ele></trkpt><trkpt lat="37.61843" lon="-119.08690000000001"><ele>2338.8088342547417</ele></trkpt><trkpt lat="37.61763" lon="-119.08677999999998"><ele>2333.3933582203463</ele></trkpt><trkpt lat="37.6173" lon="-119.08668"><ele>2327.036341333762</ele></trkpt><trkpt lat="37.61712" lon="-119.08668"><ele>2325.0525365792055</ele></trkpt><trkpt lat="37.61697" lon="-119.08672999999999"><ele>2324.126069026125</ele></trkpt><trkpt lat="37.61656" lon="-119.08694000000003"><ele>2320.1532195569016</ele></trkpt><trkpt lat="37.61623" lon="-119.08706000000001"><ele>2314.807580704069</ele></trkpt><trkpt lat="37.61554" lon="-119.08715000000001"><ele>2311.8798577794805</ele></trkpt><trkpt lat="37.61505" lon="-119.08713999999998"><ele>2305.294784902385</ele></trkpt><trkpt lat="37.61502" lon="-119.08708999999999"><ele>2302.143726222217</ele></trkpt><trkpt lat="37.61502" lon="-119.08704"><ele>2299.7938994404963</ele></trkpt><trkpt lat="37.61564" lon="-119.08675"><ele>2292.0</ele></trkpt><trkpt lat="37.61568" lon="-119.08663999999999"><ele>2291.724526528269</ele></trkpt><trkpt lat="37.61556" lon="-119.08623"><ele>2290.0</ele></trkpt><trkpt lat="37.6154" lon="-119.08607999999998"><ele>2291.0556492950827</ele></trkpt><trkpt lat="37.61529" lon="-119.08605"><ele>2291.149100562206</ele></trkpt><trkpt lat="37.61476" lon="-119.08609000000001"><ele>2287.540348445531</ele></trkpt><trkpt lat="37.61445" lon="-119.08614999999998"><ele>2285.6731022205204</ele></trkpt><trkpt lat="37.61423" lon="-119.08611000000002"><ele>2280.4167272094637</ele></trkpt><trkpt lat="37.61423" lon="-119.08611000000002"><ele>2280.4167272094637</ele></trkpt><trkpt lat="37.614" lon="-119.08603"><ele>2280.226507257875</ele></trkpt><trkpt lat="37.61386" lon="-119.08589999999998"><ele>2280.7591774411694</ele></trkpt><trkpt lat="37.61378" lon="-119.08575000000002"><ele>2283.0</ele></trkpt><trkpt lat="37.61378" lon="-119.08521999999999"><ele>2279.0</ele></trkpt><trkpt lat="37.61381" lon="-119.08512000000002"><ele>2278.0</ele></trkpt><trkpt lat="37.61391" lon="-119.08494999999999"><ele>2278.0</ele></trkpt><trkpt lat="37.6139" lon="-119.08487000000002"><ele>2278.6828036021016</ele></trkpt><trkpt lat="37.61389" lon="-119.08483000000001"><ele>2278.0</ele></trkpt><trkpt lat="37.61374" lon="-119.08479999999997"><ele>2275.762409666818</ele></trkpt><trkpt lat="37.61371" lon="-119.08472"><ele>2274.823990624398</ele></trkpt><trkpt lat="37.61372" lon="-119.08456000000001"><ele>2273.2371804453433</ele></trkpt><trkpt lat="37.61376" lon="-119.08447000000001"><ele>2271.0428764452226</ele></trkpt><trkpt lat="37.61391" lon="-119.08440000000002"><ele>2268.780640000943</ele></trkpt><trkpt lat="37.61396" lon="-119.08429999999998"><ele>2268.588310551313</ele></trkpt><trkpt lat="37.61409" lon="-119.08392000000003"><ele>2266.0</ele></trkpt><trkpt lat="37.61423" lon="-119.08375000000001"><ele>2266.0</ele></trkpt><trkpt lat="37.61423" lon="-119.08375000000001"><ele>2266.0</ele></trkpt><trkpt lat="37.61457" lon="-119.08361000000002"><ele>2265.943067350485</ele></trkpt><trkpt lat="37.61456" lon="-119.08350999999999"><ele>2262.0</ele></trkpt><trkpt lat="37.61456" lon="-119.08350999999999"><ele>2262.0</ele></trkpt><trkpt lat="37.61455" lon="-119.08337"><ele>2264.0</ele></trkpt><trkpt lat="37.61455" lon="-119.08337"><ele>2264.0</ele></trkpt><trkpt lat="37.61454" lon="-119.08328"><ele>2267.143304673132</ele></trkpt><trkpt lat="37.61423" lon="-119.08311000000003"><ele>2269.0</ele></trkpt><trkpt lat="37.61423" lon="-119.08311000000003"><ele>2269.0</ele></trkpt><trkpt lat="37.61405" lon="-119.08299999999997"><ele>2271.0</ele></trkpt><trkpt lat="37.61387615211159" lon="-119.08282615204917"><ele>2269.825987956804</ele></trkpt><trkpt lat="37.61386806050247" lon="-119.08281224200988"><ele>2270.0</ele></trkpt><trkpt lat="37.61385" lon="-119.08274"><ele>2271.5809671110474</ele></trkpt><trkpt lat="37.61363" lon="-119.08258999999998"><ele>2272.0</ele></trkpt><trkpt lat="37.61362" lon="-119.08256"><ele>2272.969575110823</ele></trkpt><trkpt lat="37.61365" lon="-119.08244000000002"><ele>2273.0</ele></trkpt><trkpt lat="37.61378" lon="-119.08227999999997"><ele>2272.9814791097306</ele></trkpt><trkpt lat="37.61376" lon="-119.08217000000002"><ele>2271.0</ele></trkpt><trkpt lat="37.61365" lon="-119.08209"><ele>2272.0</ele></trkpt><trkpt lat="37.61355" lon="-119.08197000000001"><ele>2274.0</ele></trkpt><trkpt lat="37.61311" lon="-119.08168"><ele>2279.514733542056</ele></trkpt><trkpt lat="37.6131" lon="-119.08163000000002"><ele>2280.3107164432295</ele></trkpt><trkpt lat="37.6132" lon="-119.08152999999999"><ele>2282.8250001942265</ele></trkpt><trkpt lat="37.61321" lon="-119.08148"><ele>2281.2851704967843</ele></trkpt><trkpt lat="37.61309" lon="-119.08131000000003"><ele>2283.077951980169</ele></trkpt><trkpt lat="37.61309" lon="-119.08122000000003"><ele>2284.145630988932</ele></trkpt><trkpt lat="37.61313" lon="-119.08103"><ele>2286.70157526806</ele></trkpt><trkpt lat="37.61305" lon="-119.08091000000002"><ele>2286.999333308168</ele></trkpt><trkpt lat="37.61301" lon="-119.08080999999999"><ele>2287.641798423603</ele></trkpt><trkpt lat="37.613072185891916" lon="-119.08065108049846"><ele>2291.0</ele></trkpt><trkpt lat="37.613070443745116" lon="-119.08065553268204"><ele>2291.0</ele></trkpt><trkpt lat="37.6131" lon="-119.08058"><ele>2290.9366299901158</ele></trkpt><trkpt lat="37.61321" lon="-119.08041000000003"><ele>2291.901248899321</ele></trkpt><trkpt lat="37.61322" lon="-119.08033999999998"><ele>2292.4275357121655</ele></trkpt><trkpt lat="37.6132" lon="-119.08026000000001"><ele>2293.157343999017</ele></trkpt><trkpt lat="37.61312" lon="-119.08017999999998"><ele>2293.1003047534414</ele></trkpt><trkpt lat="37.61286" lon="-119.08001000000002"><ele>2294.9649163975632</ele></trkpt><trkpt lat="37.61272" lon="-119.07979"><ele>2297.606265575476</ele></trkpt><trkpt lat="37.6126" lon="-119.07933000000003"><ele>2302.0</ele></trkpt><trkpt lat="37.6124" lon="-119.07898"><ele>2303.953325839444</ele></trkpt><trkpt lat="37.61244" lon="-119.07887"><ele>2305.1080139763653</ele></trkpt><trkpt lat="37.61251" lon="-119.07882000000001"><ele>2306.1659721473843</ele></trkpt><trkpt lat="37.61252" lon="-119.07873000000001"><ele>2305.4394100275176</ele></trkpt><trkpt lat="37.61245" lon="-119.07866999999999"><ele>2304.0</ele></trkpt><trkpt lat="37.61231" lon="-119.07862"><ele>2305.586883555632</ele></trkpt><trkpt lat="37.61209" lon="-119.07843000000003"><ele>2306.441525332164</ele></trkpt><trkpt lat="37.61182" lon="-119.07830999999999"><ele>2310.0</ele></trkpt><trkpt lat="37.61183" lon="-119.07821999999999"><ele>2311.17076559023</ele></trkpt><trkpt lat="37.61174" lon="-119.07808999999997"><ele>2308.0</ele></trkpt><trkpt lat="37.6117" lon="-119.07781999999997"><ele>2309.498541211359</ele></trkpt><trkpt lat="37.61171137675347" lon="-119.07778586973961"><ele>2310.0</ele></trkpt><trkpt lat="37.61170977452719" lon="-119.07779067642235"><ele>2310.0</ele></trkpt><trkpt lat="37.61173" lon="-119.07772999999997"><ele>2310.0</ele></trkpt><trkpt lat="37.61181" lon="-119.07763"><ele>2311.0</ele></trkpt><trkpt lat="37.61183" lon="-119.07747999999998"><ele>2313.0</ele></trkpt><trkpt lat="37.61189" lon="-119.07738999999998"><ele>2314.0</ele></trkpt><trkpt lat="37.61197" lon="-119.07735000000002"><ele>2314.7731733322144</ele></trkpt><trkpt lat="37.61203" lon="-119.07727999999997"><ele>2317.0</ele></trkpt><trkpt lat="37.61207" lon="-119.07715000000002"><ele>2318.4024905344622</ele></trkpt><trkpt lat="37.61204" lon="-119.07695000000001"><ele>2320.0</ele></trkpt><trkpt lat="37.61202623941679" lon="-119.0769362401387"><ele>2320.0557804577984</ele></trkpt><trkpt lat="37.61202623941679" lon="-119.0769362401387"><ele>2320.0557804577984</ele></trkpt><trkpt lat="37.61187" lon="-119.07677999999999"><ele>2321.3370986669324</ele></trkpt><trkpt lat="37.61173" lon="-119.07670999999999"><ele>2323.0</ele></trkpt><trkpt lat="37.61126" lon="-119.07661000000002"><ele>2328.0</ele></trkpt><trkpt lat="37.61126" lon="-119.07661000000002"><ele>2328.0</ele></trkpt><trkpt lat="37.61098" lon="-119.07650000000001"><ele>2330.0</ele></trkpt><trkpt lat="37.61074" lon="-119.07634999999999"><ele>2333.3765511116944</ele></trkpt><trkpt lat="37.61066" lon="-119.07623000000001"><ele>2336.35908755986</ele></trkpt><trkpt lat="37.61035" lon="-119.07614999999998"><ele>2338.697226667311</ele></trkpt><trkpt lat="37.61022" lon="-119.07601"><ele>2341.0</ele></trkpt><trkpt lat="37.61023" lon="-119.07578999999998"><ele>2343.0</ele></trkpt><trkpt lat="37.61005" lon="-119.07560000000001"><ele>2345.0</ele></trkpt><trkpt lat="37.61004275667699" lon="-119.07558460788789"><ele>2345.046408860013</ele></trkpt><trkpt lat="37.610035922043174" lon="-119.07557008423134"><ele>2345.4889594348956</ele></trkpt><trkpt lat="37.60997687202087" lon="-119.07544460253229"><ele>2347.657845281512</ele></trkpt><trkpt lat="37.60997687202087" lon="-119.07544460253229"><ele>2347.657845281512</ele></trkpt><trkpt lat="37.61046" lon="-119.07569000000001"><ele>2348.0</ele></trkpt><trkpt lat="37.61063" lon="-119.07571999999999"><ele>2348.0</ele></trkpt><trkpt lat="37.61097" lon="-119.07564000000002"><ele>2349.0</ele></trkpt><trkpt lat="37.6111" lon="-119.07564000000002"><ele>2349.852744815634</ele></trkpt><trkpt lat="37.61121524974577" lon="-119.07568939274819"><ele>2349.0</ele></trkpt><trkpt lat="37.611238500567715" lon="-119.0756993573018"><ele>2349.0</ele></trkpt><trkpt lat="37.61145" lon="-119.07578999999998"><ele>2349.0</ele></trkpt><trkpt lat="37.61181" lon="-119.07583999999997"><ele>2348.0</ele></trkpt><trkpt lat="37.61287" lon="-119.07587000000001"><ele>2346.0</ele></trkpt><trkpt lat="37.61304" lon="-119.07592"><ele>2345.7624643699896</ele></trkpt><trkpt lat="37.61304" lon="-119.07592"><ele>2345.7624643699896</ele></trkpt><trkpt lat="37.61304" lon="-119.07592"><ele>2345.7624643699896</ele></trkpt><trkpt lat="37.61313" lon="-119.07576"><ele>2346.9619639773437</ele></trkpt><trkpt lat="37.61333" lon="-119.07559000000003"><ele>2347.0</ele></trkpt><trkpt lat="37.61333" lon="-119.07559000000003"><ele>2347.0</ele></trkpt><trkpt lat="37.61352" lon="-119.07542000000001"><ele>2349.0</ele></trkpt><trkpt lat="37.61381" lon="-119.07538999999997"><ele>2348.0</ele></trkpt><trkpt lat="37.61423" lon="-119.07517000000001"><ele>2348.0</ele></trkpt><trkpt lat="37.61423" lon="-119.07517000000001"><ele>2348.0</ele></trkpt><trkpt lat="37.61447415378929" lon="-119.07508861540356"><ele>2347.0</ele></trkpt><trkpt lat="37.614476656490524" lon="-119.07508778119933"><ele>2347.0</ele></trkpt><trkpt lat="37.61453" lon="-119.07506999999998"><ele>2346.0</ele></trkpt><trkpt lat="37.61453" lon="-119.07506999999998"><ele>2346.0</ele></trkpt><trkpt lat="37.61461" lon="-119.07502"><ele>2346.0</ele></trkpt><trkpt lat="37.61464116035412" lon="-119.07492132554529"><ele>2346.0</ele></trkpt></trkseg></trk></gpx>