<?xml version="1.0"?>
<gpx xmlns="http://www.topografix.com/GPX/1/1" xmlns:gpxx="http://www.garmin.com/xmlschemas/GpxExtensions/v3" creator="CALTOPO" version="1.1"><metadata><name><![CDATA[Aloha-Echo Connector]]></name></metadata><wpt lat="38.876922119794465" lon="-120.07988306175916"><name>Glen Alpine Trailhead</name></wpt><trk><name>Aloha-Echo Connector</name><trkseg><trkpt lat="38.87712013930365" lon="-120.0804470921554"><ele>1996.0</ele></trkpt><trkpt lat="38.87712" lon="-120.08046000000002"><ele>1996.0</ele></trkpt><trkpt lat="38.87712" lon="-120.08046000000002"><ele>1996.0</ele></trkpt><trkpt lat="38.87712" lon="-120.08046000000002"><ele>1996.0</ele></trkpt><trkpt lat="38.87717" lon="-120.08056999999997"><ele>1996.0</ele></trkpt><trkpt lat="38.87717" lon="-120.08056999999997"><ele>1996.0</ele></trkpt><trkpt lat="38.87723" lon="-120.08076"><ele>1995.0</ele></trkpt><trkpt lat="38.87723" lon="-120.08076"><ele>1995.0</ele></trkpt><trkpt lat="38.87723" lon="-120.08076"><ele>1995.0</ele></trkpt><trkpt lat="38.87722999999999" lon="-120.08076"><ele>1995.0</ele></trkpt><trkpt lat="38.87731" lon="-120.08128999999997"><ele>1995.9391925222938</ele></trkpt><trkpt lat="38.8773" lon="-120.08199000000002"><ele>1995.0</ele></trkpt><trkpt lat="38.87722" lon="-120.08222"><ele>1996.0</ele></trkpt><trkpt lat="38.87701" lon="-120.08248000000003"><ele>1995.6546292072853</ele></trkpt><trkpt lat="38.87695" lon="-120.08262000000002"><ele>1995.499556540217</ele></trkpt><trkpt lat="38.87685" lon="-120.08294999999998"><ele>1996.0</ele></trkpt><trkpt lat="38.87684" lon="-120.08314000000001"><ele>1996.0</ele></trkpt><trkpt lat="38.87683" lon="-120.08347000000003"><ele>1996.0</ele></trkpt><trkpt lat="38.87686" lon="-120.08395999999999"><ele>1997.0</ele></trkpt><trkpt lat="38.87708" lon="-120.08483999999999"><ele>1999.0</ele></trkpt><trkpt lat="38.87707" lon="-120.08494999999999"><ele>1999.0</ele></trkpt><trkpt lat="38.87698" lon="-120.08550000000002"><ele>1999.0</ele></trkpt><trkpt lat="38.87695" lon="-120.08587999999997"><ele>2000.0</ele></trkpt><trkpt lat="38.87676" lon="-120.08663000000001"><ele>2001.0</ele></trkpt><trkpt lat="38.876755434250505" lon="-120.08673044648879"><ele>2002.0</ele></trkpt><trkpt lat="38.876755434250505" lon="-120.08673044648879"><ele>2002.0</ele></trkpt><trkpt lat="38.87675" lon="-120.08685000000003"><ele>2002.0</ele></trkpt><trkpt lat="38.87678" lon="-120.08708000000001"><ele>2003.194220976904</ele></trkpt><trkpt lat="38.87679" lon="-120.08726999999999"><ele>2005.0</ele></trkpt><trkpt lat="38.87665" lon="-120.08771000000002"><ele>2013.0</ele></trkpt><trkpt lat="38.87661" lon="-120.08803999999998"><ele>2017.0174844190478</ele></trkpt><trkpt lat="38.87668" lon="-120.08821"><ele>2018.0</ele></trkpt><trkpt lat="38.87694" lon="-120.08859000000001"><ele>2019.4265706674196</ele></trkpt><trkpt lat="38.8772587851351" lon="-120.08864071581695"><ele>2023.96976191004</ele></trkpt><trkpt lat="38.8772587851351" lon="-120.08864071581695"><ele>2023.96976191004</ele></trkpt><trkpt lat="38.87738" lon="-120.08866"><ele>2026.6888071116991</ele></trkpt><trkpt lat="38.87754" lon="-120.08880999999997"><ele>2028.0</ele></trkpt><trkpt lat="38.87783" lon="-120.08875"><ele>2033.0451045104685</ele></trkpt><trkpt lat="38.87791" lon="-120.08875999999998"><ele>2034.3491448885761</ele></trkpt><trkpt lat="38.87791" lon="-120.08875999999998"><ele>2034.3491448885761</ele></trkpt><trkpt lat="38.87791" lon="-120.08875999999998"><ele>2034.3491448885761</ele></trkpt><trkpt lat="38.878" lon="-120.08879999999999"><ele>2035.3926410083905</ele></trkpt><trkpt lat="38.87807" lon="-120.08888000000002"><ele>2037.9415502231568</ele></trkpt><trkpt lat="38.87816" lon="-120.08913000000001"><ele>2041.0</ele></trkpt><trkpt lat="38.87816585397884" lon="-120.0893202543125"><ele>2044.0</ele></trkpt><trkpt lat="38.87816585397884" lon="-120.0893202543125"><ele>2044.0</ele></trkpt><trkpt lat="38.87818" lon="-120.08978000000002"><ele>2051.8850017128207</ele></trkpt><trkpt lat="38.87806" lon="-120.09044"><ele>2054.5270109043545</ele></trkpt><trkpt lat="38.87805" lon="-120.09081000000003"><ele>2057.2211996559054</ele></trkpt><trkpt lat="38.878" lon="-120.09116"><ele>2061.380266822207</ele></trkpt><trkpt lat="38.87794" lon="-120.09156000000002"><ele>2064.0</ele></trkpt><trkpt lat="38.87779" lon="-120.09212000000002"><ele>2064.614818514291</ele></trkpt><trkpt lat="38.877764933265944" lon="-120.09226100037904"><ele>2065.0</ele></trkpt><trkpt lat="38.87776105107599" lon="-120.09228283775599"><ele>2064.9235104266554</ele></trkpt><trkpt lat="38.87771" lon="-120.09257000000002"><ele>2064.0</ele></trkpt><trkpt lat="38.87771" lon="-120.09273000000002"><ele>2064.0</ele></trkpt><trkpt lat="38.87774" lon="-120.09318000000002"><ele>2065.0</ele></trkpt><trkpt lat="38.87773" lon="-120.09348999999997"><ele>2065.0</ele></trkpt><trkpt lat="38.87774" lon="-120.09370000000001"><ele>2065.0</ele></trkpt><trkpt lat="38.87783" lon="-120.09415999999999"><ele>2063.0</ele></trkpt><trkpt lat="38.87783" lon="-120.09451999999999"><ele>2063.0</ele></trkpt><trkpt lat="38.87777" lon="-120.09472"><ele>2063.4108833019213</ele></trkpt><trkpt lat="38.87754" lon="-120.09507000000002"><ele>2064.0</ele></trkpt><trkpt lat="38.87732" lon="-120.09527000000003"><ele>2063.0</ele></trkpt><trkpt lat="38.87699" lon="-120.09541000000002"><ele>2066.261607112363</ele></trkpt><trkpt lat="38.87673" lon="-120.09559999999999"><ele>2068.116248888895</ele></trkpt><trkpt lat="38.87661" lon="-120.09559000000002"><ele>2070.0</ele></trkpt><trkpt lat="38.87652" lon="-120.09555"><ele>2071.0</ele></trkpt><trkpt lat="38.87642" lon="-120.09555999999998"><ele>2071.252113776747</ele></trkpt><trkpt lat="38.8762" lon="-120.09568999999999"><ele>2074.0</ele></trkpt><trkpt lat="38.87604" lon="-120.09587999999997"><ele>2075.060857682489</ele></trkpt><trkpt lat="38.87597" lon="-120.09604000000002"><ele>2074.705282766372</ele></trkpt><trkpt lat="38.87598" lon="-120.09672999999998"><ele>2075.0</ele></trkpt><trkpt lat="38.87598" lon="-120.09672999999998"><ele>2075.0</ele></trkpt><trkpt lat="38.87598" lon="-120.09672999999998"><ele>2075.0</ele></trkpt><trkpt lat="38.87593" lon="-120.0969"><ele>2075.2177460333673</ele></trkpt><trkpt lat="38.87582" lon="-120.09710000000001"><ele>2074.731752785935</ele></trkpt><trkpt lat="38.87582" lon="-120.09710000000001"><ele>2074.731752785935</ele></trkpt><trkpt lat="38.87569" lon="-120.09722999999997"><ele>2074.0</ele></trkpt><trkpt lat="38.87535" lon="-120.09717999999998"><ele>2073.8974970519703</ele></trkpt><trkpt lat="38.87518" lon="-120.09731999999997"><ele>2073.5746961176183</ele></trkpt><trkpt lat="38.87489" lon="-120.09740999999997"><ele>2074.0</ele></trkpt><trkpt lat="38.87476" lon="-120.09748000000002"><ele>2074.0</ele></trkpt><trkpt lat="38.87456" lon="-120.09767999999997"><ele>2076.700069146231</ele></trkpt><trkpt lat="38.8743" lon="-120.09752000000003"><ele>2082.594734224025</ele></trkpt><trkpt lat="38.87393" lon="-120.09722999999997"><ele>2084.0</ele></trkpt><trkpt lat="38.87393" lon="-120.09722999999997"><ele>2084.0</ele></trkpt><trkpt lat="38.87387" lon="-120.09717"><ele>2085.0</ele></trkpt><trkpt lat="38.87367" lon="-120.09707000000003"><ele>2088.0</ele></trkpt><trkpt lat="38.87357" lon="-120.09707000000003"><ele>2088.9858331273103</ele></trkpt><trkpt lat="38.87345" lon="-120.09735"><ele>2089.0</ele></trkpt><trkpt lat="38.87333" lon="-120.09751"><ele>2089.0</ele></trkpt><trkpt lat="38.87313" lon="-120.09789999999998"><ele>2092.0</ele></trkpt><trkpt lat="38.87306" lon="-120.09812"><ele>2093.491158472374</ele></trkpt><trkpt lat="38.87308" lon="-120.09870999999998"><ele>2099.293956413865</ele></trkpt><trkpt lat="38.87313" lon="-120.09888000000001"><ele>2102.0</ele></trkpt><trkpt lat="38.87319" lon="-120.09902999999997"><ele>2104.9757651936093</ele></trkpt><trkpt lat="38.87335" lon="-120.09915000000001"><ele>2106.0</ele></trkpt><trkpt lat="38.87338" lon="-120.09923000000003"><ele>2106.0</ele></trkpt><trkpt lat="38.87341" lon="-120.09953000000002"><ele>2107.0</ele></trkpt><trkpt lat="38.87359" lon="-120.10007999999999"><ele>2111.7651900723577</ele></trkpt><trkpt lat="38.87356" lon="-120.1001"><ele>2113.0</ele></trkpt><trkpt lat="38.87351" lon="-120.10001999999997"><ele>2113.057164143244</ele></trkpt><trkpt lat="38.87338" lon="-120.09992"><ele>2115.148743653717</ele></trkpt><trkpt lat="38.87332" lon="-120.09991000000002"><ele>2116.0</ele></trkpt><trkpt lat="38.87314" lon="-120.10001999999997"><ele>2119.0724673515974</ele></trkpt><trkpt lat="38.87321" lon="-120.10041000000001"><ele>2121.1358685023642</ele></trkpt><trkpt lat="38.87311" lon="-120.10064999999997"><ele>2123.2325092011533</ele></trkpt><trkpt lat="38.87311" lon="-120.10099000000002"><ele>2126.1536577454754</ele></trkpt><trkpt lat="38.87331" lon="-120.10158999999999"><ele>2127.3457124726256</ele></trkpt><trkpt lat="38.87332" lon="-120.10180000000003"><ele>2128.0</ele></trkpt><trkpt lat="38.87337" lon="-120.10194000000001"><ele>2128.0</ele></trkpt><trkpt lat="38.87371" lon="-120.10234000000003"><ele>2132.0</ele></trkpt><trkpt lat="38.87393" lon="-120.10235999999998"><ele>2134.0</ele></trkpt><trkpt lat="38.87393" lon="-120.10235999999998"><ele>2134.0</ele></trkpt><trkpt lat="38.87412" lon="-120.10235"><ele>2135.0</ele></trkpt><trkpt lat="38.87412" lon="-120.10235"><ele>2135.0</ele></trkpt><trkpt lat="38.87412" lon="-120.10235"><ele>2135.0</ele></trkpt><trkpt lat="38.87422" lon="-120.10228999999998"><ele>2135.0</ele></trkpt><trkpt lat="38.87434" lon="-120.10228000000001"><ele>2136.0</ele></trkpt><trkpt lat="38.87438" lon="-120.10224"><ele>2136.7922280356415</ele></trkpt><trkpt lat="38.87448" lon="-120.10194000000001"><ele>2138.2137801199406</ele></trkpt><trkpt lat="38.87452" lon="-120.10199999999998"><ele>2140.0</ele></trkpt><trkpt lat="38.87461" lon="-120.10239000000001"><ele>2143.9018986009432</ele></trkpt><trkpt lat="38.87465" lon="-120.10246999999998"><ele>2144.6874564774334</ele></trkpt><trkpt lat="38.87473" lon="-120.10253999999998"><ele>2148.7153093597885</ele></trkpt><trkpt lat="38.87473" lon="-120.10253999999998"><ele>2148.7153093597885</ele></trkpt><trkpt lat="38.87479" lon="-120.10259000000002"><ele>2149.126140443608</ele></trkpt><trkpt lat="38.87505" lon="-120.10261000000003"><ele>2156.0</ele></trkpt><trkpt lat="38.87511" lon="-120.10264999999998"><ele>2158.7439039775054</ele></trkpt><trkpt lat="38.8754" lon="-120.10307999999998"><ele>2163.0</ele></trkpt><trkpt lat="38.87551" lon="-120.10345999999998"><ele>2163.0</ele></trkpt><trkpt lat="38.87568" lon="-120.10387000000003"><ele>2165.1635521049193</ele></trkpt><trkpt lat="38.87591" lon="-120.10415999999998"><ele>2168.113531552255</ele></trkpt><trkpt lat="38.87593" lon="-120.10424999999998"><ele>2168.31078161858</ele></trkpt><trkpt lat="38.87604" lon="-120.1044"><ele>2169.895663017407</ele></trkpt><trkpt lat="38.87606" lon="-120.10451999999998"><ele>2169.2745366101153</ele></trkpt><trkpt lat="38.87616" lon="-120.10462000000001"><ele>2170.5591891006834</ele></trkpt><trkpt lat="38.8763" lon="-120.10468000000003"><ele>2171.0</ele></trkpt><trkpt lat="38.87644" lon="-120.10471000000001"><ele>2173.0</ele></trkpt><trkpt lat="38.87645" lon="-120.1046"><ele>2175.19920323065</ele></trkpt><trkpt lat="38.8763" lon="-120.10415999999998"><ele>2180.0</ele></trkpt><trkpt lat="38.87632" lon="-120.10411999999997"><ele>2181.0</ele></trkpt><trkpt lat="38.87639" lon="-120.10414000000003"><ele>2182.9833767615273</ele></trkpt><trkpt lat="38.87648" lon="-120.10423000000003"><ele>2184.235290536657</ele></trkpt><trkpt lat="38.87656" lon="-120.10444000000001"><ele>2183.9364152448125</ele></trkpt><trkpt lat="38.87667" lon="-120.10460999999998"><ele>2187.6092710122466</ele></trkpt><trkpt lat="38.87684" lon="-120.10478"><ele>2191.050889131826</ele></trkpt><trkpt lat="38.87696" lon="-120.10489000000001"><ele>2191.909859730677</ele></trkpt><trkpt lat="38.87709" lon="-120.10491999999999"><ele>2192.0</ele></trkpt><trkpt lat="38.87712" lon="-120.10489999999999"><ele>2194.020104907453</ele></trkpt><trkpt lat="38.87694" lon="-120.10476"><ele>2195.0</ele></trkpt><trkpt lat="38.87679" lon="-120.10446999999999"><ele>2197.1011310445497</ele></trkpt><trkpt lat="38.87682" lon="-120.10415999999998"><ele>2202.0</ele></trkpt><trkpt lat="38.87687" lon="-120.10419000000002"><ele>2202.0</ele></trkpt><trkpt lat="38.87716" lon="-120.10460999999998"><ele>2204.999268316369</ele></trkpt><trkpt lat="38.87721" lon="-120.1046"><ele>2205.0</ele></trkpt><trkpt lat="38.87737" lon="-120.10451999999998"><ele>2207.0</ele></trkpt><trkpt lat="38.87747" lon="-120.10451"><ele>2208.0</ele></trkpt><trkpt lat="38.87761" lon="-120.10455999999999"><ele>2209.279702261105</ele></trkpt><trkpt lat="38.87768" lon="-120.10451"><ele>2211.0</ele></trkpt><trkpt lat="38.87775" lon="-120.10437000000002"><ele>2211.0</ele></trkpt><trkpt lat="38.8778" lon="-120.10408999999999"><ele>2213.0</ele></trkpt><trkpt lat="38.87789" lon="-120.10386"><ele>2215.0</ele></trkpt><trkpt lat="38.87788" lon="-120.10379999999998"><ele>2215.0</ele></trkpt><trkpt lat="38.87792" lon="-120.10374000000002"><ele>2215.0</ele></trkpt><trkpt lat="38.87799" lon="-120.10375999999997"><ele>2216.3777245858337</ele></trkpt><trkpt lat="38.87808" lon="-120.10386"><ele>2218.0160986690657</ele></trkpt><trkpt lat="38.87823" lon="-120.10410000000002"><ele>2220.996786881238</ele></trkpt><trkpt lat="38.87855" lon="-120.10429999999997"><ele>2226.066654868635</ele></trkpt><trkpt lat="38.8787" lon="-120.10446999999999"><ele>2228.1331710945815</ele></trkpt><trkpt lat="38.87882" lon="-120.10464999999999"><ele>2230.0390436633306</ele></trkpt><trkpt lat="38.8789" lon="-120.10464999999999"><ele>2230.123182222713</ele></trkpt><trkpt lat="38.87897" lon="-120.1046"><ele>2231.615547309457</ele></trkpt><trkpt lat="38.87903" lon="-120.10462000000001"><ele>2233.463220850728</ele></trkpt><trkpt lat="38.87905" lon="-120.10477000000003"><ele>2234.0</ele></trkpt><trkpt lat="38.8791" lon="-120.10487"><ele>2234.068918392355</ele></trkpt><trkpt lat="38.87944" lon="-120.10505"><ele>2242.224567779065</ele></trkpt><trkpt lat="38.87947" lon="-120.10503"><ele>2243.3242800144435</ele></trkpt><trkpt lat="38.87921" lon="-120.10471000000001"><ele>2242.6643517222255</ele></trkpt><trkpt lat="38.87917" lon="-120.1046"><ele>2243.0</ele></trkpt><trkpt lat="38.87909" lon="-120.10408999999999"><ele>2245.1062314335077</ele></trkpt><trkpt lat="38.87905" lon="-120.10366999999997"><ele>2246.06826161926</ele></trkpt><trkpt lat="38.87893" lon="-120.10320000000002"><ele>2251.0</ele></trkpt><trkpt lat="38.87937" lon="-120.10377"><ele>2257.2428064849228</ele></trkpt><trkpt lat="38.87943" lon="-120.10401999999999"><ele>2258.8347325846553</ele></trkpt><trkpt lat="38.87948" lon="-120.10449"><ele>2257.0</ele></trkpt><trkpt lat="38.8796" lon="-120.1046"><ele>2257.0</ele></trkpt><trkpt lat="38.87988" lon="-120.10474999999997"><ele>2259.0</ele></trkpt><trkpt lat="38.8801" lon="-120.10494"><ele>2259.0</ele></trkpt><trkpt lat="38.88035" lon="-120.10496999999998"><ele>2261.0</ele></trkpt><trkpt lat="38.88064" lon="-120.10495000000003"><ele>2264.038749011009</ele></trkpt><trkpt lat="38.88076" lon="-120.10498999999999"><ele>2266.6076401066202</ele></trkpt><trkpt lat="38.88083" lon="-120.10507000000001"><ele>2269.8060448103065</ele></trkpt><trkpt lat="38.88096" lon="-120.10509000000002"><ele>2272.382304001134</ele></trkpt><trkpt lat="38.88142" lon="-120.10554000000002"><ele>2282.01108650497</ele></trkpt><trkpt lat="38.88152" lon="-120.10582999999997"><ele>2285.9553845059127</ele></trkpt><trkpt lat="38.88163" lon="-120.10594000000003"><ele>2288.0026092215885</ele></trkpt><trkpt lat="38.88181" lon="-120.10595999999998"><ele>2291.0</ele></trkpt><trkpt lat="38.8819" lon="-120.106"><ele>2293.0</ele></trkpt><trkpt lat="38.88194" lon="-120.10597000000001"><ele>2294.0</ele></trkpt><trkpt lat="38.88199" lon="-120.10600999999997"><ele>2294.0930714718997</ele></trkpt><trkpt lat="38.88204" lon="-120.10633000000001"><ele>2298.0</ele></trkpt><trkpt lat="38.88219" lon="-120.10658999999998"><ele>2302.0666117388755</ele></trkpt><trkpt lat="38.88221" lon="-120.10674"><ele>2301.263967618346</ele></trkpt><trkpt lat="38.88234" lon="-120.10705000000002"><ele>2304.3089940864334</ele></trkpt><trkpt lat="38.88252" lon="-120.10730999999998"><ele>2306.823026863858</ele></trkpt><trkpt lat="38.88276" lon="-120.10752000000002"><ele>2309.0</ele></trkpt><trkpt lat="38.88283" lon="-120.10762"><ele>2311.271778206726</ele></trkpt><trkpt lat="38.88306" lon="-120.10762999999997"><ele>2316.0</ele></trkpt><trkpt lat="38.88313" lon="-120.10770000000002"><ele>2316.005867066514</ele></trkpt><trkpt lat="38.88327" lon="-120.10789"><ele>2318.631427154416</ele></trkpt><trkpt lat="38.88337" lon="-120.10811999999999"><ele>2321.170556212068</ele></trkpt><trkpt lat="38.88344" lon="-120.10840999999999"><ele>2324.0951776492666</ele></trkpt><trkpt lat="38.88348" lon="-120.10869000000002"><ele>2327.3425944000896</ele></trkpt><trkpt lat="38.88345" lon="-120.1089"><ele>2331.0</ele></trkpt><trkpt lat="38.88351" lon="-120.10913"><ele>2334.7843373937076</ele></trkpt><trkpt lat="38.88347" lon="-120.10941000000003"><ele>2340.319069819342</ele></trkpt><trkpt lat="38.88343" lon="-120.10949"><ele>2341.3033136688173</ele></trkpt><trkpt lat="38.88338" lon="-120.10968000000003"><ele>2342.821130920229</ele></trkpt><trkpt lat="38.88343" lon="-120.10996999999998"><ele>2347.244709693154</ele></trkpt><trkpt lat="38.88346" lon="-120.11058000000003"><ele>2354.334226962179</ele></trkpt><trkpt lat="38.88341" lon="-120.11079000000001"><ele>2357.105937227607</ele></trkpt><trkpt lat="38.8834" lon="-120.11090999999999"><ele>2358.0</ele></trkpt><trkpt lat="38.88347" lon="-120.11153999999999"><ele>2361.6980675589293</ele></trkpt><trkpt lat="38.88363" lon="-120.11199999999997"><ele>2365.0</ele></trkpt><trkpt lat="38.88389" lon="-120.11259000000001"><ele>2368.8430648185313</ele></trkpt><trkpt lat="38.883903245148986" lon="-120.1126562257449"><ele>2369.0</ele></trkpt><trkpt lat="38.88390964542043" lon="-120.11268822707427"><ele>2369.0</ele></trkpt><trkpt lat="38.88395" lon="-120.11289"><ele>2369.435219416395</ele></trkpt><trkpt lat="38.88397" lon="-120.11327"><ele>2375.0</ele></trkpt><trkpt lat="38.88397" lon="-120.11327"><ele>2375.0</ele></trkpt><trkpt lat="38.88397" lon="-120.11327"><ele>2375.0</ele></trkpt><trkpt lat="38.88419" lon="-120.11352999999997"><ele>2376.0</ele></trkpt><trkpt lat="38.88444" lon="-120.11405000000002"><ele>2380.7712621949613</ele></trkpt><trkpt lat="38.88446" lon="-120.11423000000002"><ele>2382.0</ele></trkpt><trkpt lat="38.88453" lon="-120.11437999999998"><ele>2383.3276835549623</ele></trkpt><trkpt lat="38.88455" lon="-120.11466999999999"><ele>2384.356932260096</ele></trkpt><trkpt lat="38.8846" lon="-120.11482999999998"><ele>2386.0</ele></trkpt><trkpt lat="38.88462" lon="-120.11502999999999"><ele>2388.0</ele></trkpt><trkpt lat="38.88465" lon="-120.11514"><ele>2390.0</ele></trkpt><trkpt lat="38.88474" lon="-120.11529000000002"><ele>2391.7322045713663</ele></trkpt><trkpt lat="38.88478" lon="-120.11552"><ele>2391.6714683948085</ele></trkpt><trkpt lat="38.88484" lon="-120.11572000000001"><ele>2392.160950423297</ele></trkpt><trkpt lat="38.88491" lon="-120.11588"><ele>2390.9790770538048</ele></trkpt><trkpt lat="38.88491759828401" lon="-120.11588890833298"><ele>2391.12851879367</ele></trkpt><trkpt lat="38.88493195501035" lon="-120.11590574030845"><ele>2391.127471300716</ele></trkpt><trkpt lat="38.8852" lon="-120.11622"><ele>2394.1945648486726</ele></trkpt><trkpt lat="38.88535" lon="-120.11626000000001"><ele>2398.087299598678</ele></trkpt><trkpt lat="38.88553" lon="-120.11642999999998"><ele>2401.029715647921</ele></trkpt><trkpt lat="38.88579" lon="-120.11685999999997"><ele>2409.5961001478136</ele></trkpt><trkpt lat="38.88599" lon="-120.11709000000002"><ele>2412.0</ele></trkpt><trkpt lat="38.88606" lon="-120.11711000000003"><ele>2413.0</ele></trkpt><trkpt lat="38.88606" lon="-120.11711000000003"><ele>2413.0</ele></trkpt><trkpt lat="38.88593" lon="-120.11714"><ele>2412.0</ele></trkpt><trkpt lat="38.88584" lon="-120.11712"><ele>2411.0</ele></trkpt><trkpt lat="38.88572" lon="-120.11705"><ele>2409.0</ele></trkpt><trkpt lat="38.88567" lon="-120.11707000000001"><ele>2408.0</ele></trkpt><trkpt lat="38.88565" lon="-120.1171"><ele>2407.214193724096</ele></trkpt><trkpt lat="38.88564" lon="-120.11721999999997"><ele>2405.0</ele></trkpt><trkpt lat="38.88567" lon="-120.11734999999999"><ele>2403.411607917398</ele></trkpt><trkpt lat="38.88564" lon="-120.11741"><ele>2402.0</ele></trkpt><trkpt lat="38.8855" lon="-120.11732"><ele>2400.0</ele></trkpt><trkpt lat="38.88539" lon="-120.11718000000002"><ele>2398.118463139574</ele></trkpt><trkpt lat="38.88535" lon="-120.11716999999999"><ele>2396.90191373555</ele></trkpt><trkpt lat="38.88535" lon="-120.11728"><ele>2395.0</ele></trkpt><trkpt lat="38.88542" lon="-120.11739"><ele>2395.0</ele></trkpt><trkpt lat="38.88551" lon="-120.11761000000001"><ele>2392.0</ele></trkpt><trkpt lat="38.88569" lon="-120.11793"><ele>2390.0</ele></trkpt><trkpt lat="38.88572" lon="-120.11804999999998"><ele>2389.853305145796</ele></trkpt><trkpt lat="38.88579" lon="-120.11820999999998"><ele>2389.0</ele></trkpt><trkpt lat="38.88577" lon="-120.11828000000003"><ele>2389.0</ele></trkpt><trkpt lat="38.88567" lon="-120.11829"><ele>2386.67821386166</ele></trkpt><trkpt lat="38.88553" lon="-120.11822000000001"><ele>2383.7238044613205</ele></trkpt><trkpt lat="38.8853" lon="-120.11804999999998"><ele>2382.165540193145</ele></trkpt><trkpt lat="38.88519" lon="-120.118"><ele>2380.6522598965353</ele></trkpt><trkpt lat="38.88513" lon="-120.11804000000001"><ele>2379.0084767073627</ele></trkpt><trkpt lat="38.88513" lon="-120.11836"><ele>2377.918456956744</ele></trkpt><trkpt lat="38.8851" lon="-120.11851999999999"><ele>2375.5247278717743</ele></trkpt><trkpt lat="38.88505" lon="-120.11856999999998"><ele>2374.4041635561734</ele></trkpt><trkpt lat="38.88498" lon="-120.11858999999998"><ele>2373.0476878698328</ele></trkpt><trkpt lat="38.88476" lon="-120.11855000000003"><ele>2370.0</ele></trkpt><trkpt lat="38.88474" lon="-120.11856999999998"><ele>2369.29593040341</ele></trkpt><trkpt lat="38.88476" lon="-120.11864000000003"><ele>2368.0</ele></trkpt><trkpt lat="38.88488" lon="-120.11879999999996"><ele>2365.0</ele></trkpt><trkpt lat="38.88494" lon="-120.11896999999999"><ele>2363.0</ele></trkpt><trkpt lat="38.884930999310384" lon="-120.11902175396528"><ele>2362.1673361100256</ele></trkpt><trkpt lat="38.88491684217319" lon="-120.11910315751982"><ele>2362.0</ele></trkpt><trkpt lat="38.8849" lon="-120.11919999999998"><ele>2361.0</ele></trkpt><trkpt lat="38.88495" lon="-120.11944"><ele>2358.9021485382486</ele></trkpt><trkpt lat="38.88486" lon="-120.11968000000002"><ele>2356.0</ele></trkpt><trkpt lat="38.88474" lon="-120.11969999999997"><ele>2355.0</ele></trkpt><trkpt lat="38.88465" lon="-120.11975999999999"><ele>2355.035334172905</ele></trkpt><trkpt lat="38.8845" lon="-120.12"><ele>2353.3634446039796</ele></trkpt><trkpt lat="38.88445" lon="-120.12013000000002"><ele>2352.0</ele></trkpt><trkpt lat="38.88447" lon="-120.12031000000002"><ele>2348.703328004145</ele></trkpt><trkpt lat="38.88455" lon="-120.12044000000003"><ele>2346.5214592825514</ele></trkpt><trkpt lat="38.88482" lon="-120.12054"><ele>2345.0</ele></trkpt><trkpt lat="38.88481" lon="-120.12058000000002"><ele>2343.979343225043</ele></trkpt><trkpt lat="38.8847" lon="-120.12065000000001"><ele>2342.4691377775744</ele></trkpt><trkpt lat="38.88465" lon="-120.12074000000001"><ele>2342.0</ele></trkpt><trkpt lat="38.88465" lon="-120.12074000000001"><ele>2342.0</ele></trkpt><trkpt lat="38.8844" lon="-120.12108999999998"><ele>2339.0</ele></trkpt><trkpt lat="38.88434" lon="-120.12124"><ele>2339.0</ele></trkpt><trkpt lat="38.88427" lon="-120.12158"><ele>2339.947960295817</ele></trkpt><trkpt lat="38.88427" lon="-120.12164999999999"><ele>2340.5934285167605</ele></trkpt><trkpt lat="38.88431" lon="-120.12164999999999"><ele>2342.1224507209845</ele></trkpt><trkpt lat="38.88434" lon="-120.12158"><ele>2342.7842982579023</ele></trkpt><trkpt lat="38.88443" lon="-120.12158"><ele>2345.6994381328113</ele></trkpt><trkpt lat="38.88452" lon="-120.12164999999999"><ele>2345.5734005854465</ele></trkpt><trkpt lat="38.88465" lon="-120.12182999999999"><ele>2348.343033308154</ele></trkpt><trkpt lat="38.88472" lon="-120.12207000000001"><ele>2351.0</ele></trkpt><trkpt lat="38.88465" lon="-120.12236999999999"><ele>2352.0</ele></trkpt><trkpt lat="38.88451" lon="-120.12256000000002"><ele>2354.0205687912726</ele></trkpt><trkpt lat="38.88429" lon="-120.12274000000002"><ele>2356.0</ele></trkpt><trkpt lat="38.8842" lon="-120.12284999999997"><ele>2357.620903831435</ele></trkpt><trkpt lat="38.88405" lon="-120.12313"><ele>2363.5778495091945</ele></trkpt><trkpt lat="38.88363" lon="-120.12367"><ele>2369.0</ele></trkpt><trkpt lat="38.88346" lon="-120.12371999999999"><ele>2368.642662390885</ele></trkpt><trkpt lat="38.88332" lon="-120.12398999999999"><ele>2370.0</ele></trkpt><trkpt lat="38.88328" lon="-120.12414000000001"><ele>2370.0</ele></trkpt><trkpt lat="38.88325" lon="-120.12450999999999"><ele>2372.0</ele></trkpt><trkpt lat="38.88325" lon="-120.12450999999999"><ele>2372.0</ele></trkpt><trkpt lat="38.88309" lon="-120.1248"><ele>2375.0</ele></trkpt><trkpt lat="38.8829" lon="-120.12493999999998"><ele>2378.0</ele></trkpt><trkpt lat="38.88263" lon="-120.12527999999998"><ele>2378.4113742721875</ele></trkpt><trkpt lat="38.88257" lon="-120.12531999999999"><ele>2377.96904359308</ele></trkpt><trkpt lat="38.88239" lon="-120.12533000000002"><ele>2377.0</ele></trkpt><trkpt lat="38.88233" lon="-120.12538"><ele>2377.01940494315</ele></trkpt><trkpt lat="38.88227" lon="-120.12547999999998"><ele>2375.4648252760053</ele></trkpt><trkpt lat="38.8822" lon="-120.12567000000001"><ele>2376.334710361436</ele></trkpt><trkpt lat="38.88207" lon="-120.12574000000001"><ele>2377.0</ele></trkpt><trkpt lat="38.882" lon="-120.12572999999998"><ele>2376.72397866752</ele></trkpt><trkpt lat="38.88186" lon="-120.12563999999998"><ele>2376.943638605302</ele></trkpt><trkpt lat="38.88152" lon="-120.12525"><ele>2378.093600000255</ele></trkpt><trkpt lat="38.88135" lon="-120.12513999999999"><ele>2378.0</ele></trkpt><trkpt lat="38.88104" lon="-120.12488000000002"><ele>2377.219215452671</ele></trkpt><trkpt lat="38.88094" lon="-120.12484999999998"><ele>2377.0</ele></trkpt><trkpt lat="38.88079" lon="-120.12493999999998"><ele>2378.0</ele></trkpt><trkpt lat="38.88071" lon="-120.12495000000001"><ele>2378.5032633867204</ele></trkpt><trkpt lat="38.88043" lon="-120.12477000000001"><ele>2378.0</ele></trkpt><trkpt lat="38.88011" lon="-120.12466"><ele>2378.0</ele></trkpt><trkpt lat="38.87995" lon="-120.12450999999999"><ele>2374.4199004443362</ele></trkpt><trkpt lat="38.87995" lon="-120.12450999999999"><ele>2374.4199004443362</ele></trkpt><trkpt lat="38.87956" lon="-120.12416000000002"><ele>2371.108718223404</ele></trkpt><trkpt lat="38.87947" lon="-120.12412"><ele>2370.0</ele></trkpt><trkpt lat="38.8793" lon="-120.12419"><ele>2373.0</ele></trkpt><trkpt lat="38.87904" lon="-120.12443000000002"><ele>2373.6629913009124</ele></trkpt><trkpt lat="38.87884" lon="-120.12448"><ele>2377.475153566457</ele></trkpt><trkpt lat="38.8788" lon="-120.12446999999997"><ele>2378.0</ele></trkpt><trkpt lat="38.8787" lon="-120.12450999999999"><ele>2378.0</ele></trkpt><trkpt lat="38.8787" lon="-120.12450999999999"><ele>2378.0</ele></trkpt><trkpt lat="38.87861" lon="-120.12464"><ele>2378.64347514305</ele></trkpt><trkpt lat="38.87859" lon="-120.12473999999997"><ele>2377.923998828732</ele></trkpt><trkpt lat="38.87842" lon="-120.12490000000003"><ele>2377.4047822207212</ele></trkpt><trkpt lat="38.87835" lon="-120.12506000000002"><ele>2375.0</ele></trkpt><trkpt lat="38.87827" lon="-120.12513999999999"><ele>2375.1338822720754</ele></trkpt><trkpt lat="38.87812" lon="-120.12520999999998"><ele>2376.0</ele></trkpt><trkpt lat="38.87808" lon="-120.12527"><ele>2377.0</ele></trkpt><trkpt lat="38.87803" lon="-120.12529999999998"><ele>2376.0</ele></trkpt><trkpt lat="38.87797" lon="-120.12543"><ele>2374.2950079999864</ele></trkpt><trkpt lat="38.87791" lon="-120.12547999999998"><ele>2374.0</ele></trkpt><trkpt lat="38.87789" lon="-120.12554999999998"><ele>2373.0</ele></trkpt><trkpt lat="38.87791" lon="-120.12562000000003"><ele>2374.0</ele></trkpt><trkpt lat="38.87804" lon="-120.12578000000002"><ele>2375.7711975747443</ele></trkpt><trkpt lat="38.87826" lon="-120.12598000000003"><ele>2375.0</ele></trkpt><trkpt lat="38.87851" lon="-120.12625000000003"><ele>2375.509777779691</ele></trkpt><trkpt lat="38.87897" lon="-120.12666999999999"><ele>2375.0585112260424</ele></trkpt><trkpt lat="38.8791" lon="-120.12684000000002"><ele>2376.9208234194666</ele></trkpt><trkpt lat="38.87934" lon="-120.12732"><ele>2376.0</ele></trkpt><trkpt lat="38.87942" lon="-120.12754000000001"><ele>2373.479846215742</ele></trkpt><trkpt lat="38.87961" lon="-120.12784999999997"><ele>2375.0</ele></trkpt><trkpt lat="38.87963" lon="-120.12790999999999"><ele>2374.1921585220844</ele></trkpt><trkpt lat="38.87957" lon="-120.12804"><ele>2375.0</ele></trkpt><trkpt lat="38.8795" lon="-120.12805000000003"><ele>2375.0</ele></trkpt><trkpt lat="38.87945" lon="-120.12814000000003"><ele>2376.9868679818765</ele></trkpt><trkpt lat="38.87945" lon="-120.12819999999999"><ele>2377.9679580442607</ele></trkpt><trkpt lat="38.87928" lon="-120.12856"><ele>2384.0</ele></trkpt><trkpt lat="38.87924" lon="-120.12871000000001"><ele>2386.539689650759</ele></trkpt><trkpt lat="38.87916" lon="-120.12883999999997"><ele>2389.328910967335</ele></trkpt><trkpt lat="38.87909" lon="-120.12889999999999"><ele>2390.0</ele></trkpt><trkpt lat="38.87895" lon="-120.12891000000002"><ele>2391.525237332564</ele></trkpt><trkpt lat="38.87885" lon="-120.12900000000002"><ele>2394.887092642486</ele></trkpt><trkpt lat="38.87883" lon="-120.12907999999999"><ele>2395.0</ele></trkpt><trkpt lat="38.87884" lon="-120.12916000000001"><ele>2396.0</ele></trkpt><trkpt lat="38.87887" lon="-120.12923999999998"><ele>2396.853877332527</ele></trkpt><trkpt lat="38.87901" lon="-120.12939"><ele>2398.844384000171</ele></trkpt><trkpt lat="38.87903" lon="-120.12946"><ele>2400.0</ele></trkpt><trkpt lat="38.87907" lon="-120.12997999999999"><ele>2405.0</ele></trkpt><trkpt lat="38.87906" lon="-120.13004999999998"><ele>2405.0</ele></trkpt><trkpt lat="38.87888" lon="-120.13030000000003"><ele>2409.0</ele></trkpt><trkpt lat="38.87888" lon="-120.13044000000002"><ele>2410.0</ele></trkpt><trkpt lat="38.87879" lon="-120.13075000000003"><ele>2411.0</ele></trkpt><trkpt lat="38.87875" lon="-120.13103000000001"><ele>2412.0</ele></trkpt><trkpt lat="38.87871" lon="-120.13121000000001"><ele>2412.0</ele></trkpt><trkpt lat="38.8787" lon="-120.13150000000002"><ele>2413.0</ele></trkpt><trkpt lat="38.87864" lon="-120.13161000000002"><ele>2413.0</ele></trkpt><trkpt lat="38.87864" lon="-120.13191999999998"><ele>2412.0</ele></trkpt><trkpt lat="38.87862" lon="-120.13200999999998"><ele>2412.0</ele></trkpt><trkpt lat="38.8786" lon="-120.13207999999997"><ele>2413.030433969445</ele></trkpt><trkpt lat="38.87853" lon="-120.13211000000001"><ele>2412.0</ele></trkpt><trkpt lat="38.87837" lon="-120.13204000000002"><ele>2411.129718198023</ele></trkpt><trkpt lat="38.87829" lon="-120.13207"><ele>2411.0</ele></trkpt><trkpt lat="38.87823" lon="-120.13213000000002"><ele>2410.0</ele></trkpt><trkpt lat="38.87821" lon="-120.13220999999999"><ele>2409.0</ele></trkpt><trkpt lat="38.87823" lon="-120.13231000000002"><ele>2409.0</ele></trkpt><trkpt lat="38.87817" lon="-120.13243"><ele>2409.5186524442397</ele></trkpt><trkpt lat="38.87799" lon="-120.13252999999997"><ele>2409.6293433140963</ele></trkpt><trkpt lat="38.87794" lon="-120.13261999999997"><ele>2409.0</ele></trkpt><trkpt lat="38.87789" lon="-120.13287000000003"><ele>2408.642922813073</ele></trkpt><trkpt lat="38.87783" lon="-120.13299"><ele>2406.6165440003388</ele></trkpt><trkpt lat="38.87782" lon="-120.13308999999998"><ele>2407.452433474362</ele></trkpt><trkpt lat="38.87786" lon="-120.13323000000003"><ele>2408.0</ele></trkpt><trkpt lat="38.87785" lon="-120.13326999999998"><ele>2408.665489777457</ele></trkpt><trkpt lat="38.87776" lon="-120.13333"><ele>2409.3973273266884</ele></trkpt><trkpt lat="38.87778" lon="-120.13344000000001"><ele>2410.0578699931502</ele></trkpt><trkpt lat="38.87777" lon="-120.13357000000002"><ele>2410.459229333326</ele></trkpt><trkpt lat="38.87783" lon="-120.13369999999998"><ele>2412.0</ele></trkpt><trkpt lat="38.8778" lon="-120.13387"><ele>2409.0950397624692</ele></trkpt><trkpt lat="38.87787" lon="-120.13402000000002"><ele>2410.445639723912</ele></trkpt><trkpt lat="38.87789" lon="-120.13436000000002"><ele>2408.642922813073</ele></trkpt><trkpt lat="38.87799" lon="-120.13481999999999"><ele>2408.666140133153</ele></trkpt><trkpt lat="38.87803" lon="-120.13486999999998"><ele>2409.0423061649685</ele></trkpt><trkpt lat="38.87807" lon="-120.13497000000001"><ele>2409.4640036382166</ele></trkpt><trkpt lat="38.87815" lon="-120.13538"><ele>2412.416363196877</ele></trkpt><trkpt lat="38.87814" lon="-120.13549"><ele>2414.6578616050924</ele></trkpt><trkpt lat="38.87804" lon="-120.13549"><ele>2414.45525567455</ele></trkpt><trkpt lat="38.87803" lon="-120.13553000000002"><ele>2415.989123556763</ele></trkpt><trkpt lat="38.87808" lon="-120.13566000000003"><ele>2418.017943664158</ele></trkpt><trkpt lat="38.87806" lon="-120.13575000000003"><ele>2418.018135291756</ele></trkpt><trkpt lat="38.87807" lon="-120.13585"><ele>2417.516281332355</ele></trkpt><trkpt lat="38.87813" lon="-120.13605000000001"><ele>2419.010346164927</ele></trkpt><trkpt lat="38.87811" lon="-120.13616000000002"><ele>2418.8130590319633</ele></trkpt><trkpt lat="38.87813" lon="-120.13635"><ele>2417.7961066663265</ele></trkpt><trkpt lat="38.87821" lon="-120.13650000000001"><ele>2415.7994980644435</ele></trkpt><trkpt lat="38.87826" lon="-120.13673"><ele>2413.8795438501984</ele></trkpt><trkpt lat="38.87838" lon="-120.13770999999997"><ele>2411.9764637500048</ele></trkpt><trkpt lat="38.87841" lon="-120.13778000000002"><ele>2412.118390939804</ele></trkpt><trkpt lat="38.87837" lon="-120.13806999999997"><ele>2411.3778180368245</ele></trkpt><trkpt lat="38.87839" lon="-120.13828000000001"><ele>2412.064865687106</ele></trkpt><trkpt lat="38.87827" lon="-120.13878999999997"><ele>2410.391365526244</ele></trkpt><trkpt lat="38.87824" lon="-120.13941"><ele>2409.0</ele></trkpt><trkpt lat="38.87819" lon="-120.13954999999999"><ele>2410.0</ele></trkpt><trkpt lat="38.87818" lon="-120.1397"><ele>2411.0</ele></trkpt><trkpt lat="38.87805" lon="-120.13986"><ele>2411.0</ele></trkpt><trkpt lat="38.87804" lon="-120.13992999999999"><ele>2411.0</ele></trkpt><trkpt lat="38.87808" lon="-120.14004"><ele>2412.0029180447837</ele></trkpt><trkpt lat="38.87823" lon="-120.14015"><ele>2414.9977403063986</ele></trkpt><trkpt lat="38.87835" lon="-120.14030000000002"><ele>2418.0</ele></trkpt><trkpt lat="38.87835" lon="-120.14035000000001"><ele>2418.6174044450745</ele></trkpt><trkpt lat="38.87815" lon="-120.14046000000002"><ele>2419.946799280094</ele></trkpt><trkpt lat="38.87809" lon="-120.14053000000001"><ele>2421.00601244485</ele></trkpt><trkpt lat="38.87814" lon="-120.14093000000003"><ele>2426.647363556549</ele></trkpt><trkpt lat="38.8784" lon="-120.14084000000003"><ele>2429.5480934306356</ele></trkpt><trkpt lat="38.87845" lon="-120.14078999999998"><ele>2429.1228906656615</ele></trkpt><trkpt lat="38.87849" lon="-120.14078999999998"><ele>2429.507439806255</ele></trkpt><trkpt lat="38.87851" lon="-120.14083"><ele>2430.238005765316</ele></trkpt><trkpt lat="38.87818" lon="-120.14105999999998"><ele>2434.705802666489</ele></trkpt><trkpt lat="38.87808" lon="-120.14116999999999"><ele>2436.0142542830276</ele></trkpt><trkpt lat="38.87808" lon="-120.14132000000001"><ele>2438.034257929772</ele></trkpt><trkpt lat="38.87808" lon="-120.14139999999998"><ele>2439.017128964886</ele></trkpt><trkpt lat="38.87819" lon="-120.14168000000001"><ele>2439.843155510419</ele></trkpt><trkpt lat="38.8782" lon="-120.14195000000001"><ele>2439.237571636378</ele></trkpt><trkpt lat="38.87817" lon="-120.14229999999998"><ele>2439.6049490324094</ele></trkpt><trkpt lat="38.87818" lon="-120.14251000000002"><ele>2440.003565467894</ele></trkpt><trkpt lat="38.87828" lon="-120.14283999999998"><ele>2437.9900103993714</ele></trkpt><trkpt lat="38.87844" lon="-120.14315999999997"><ele>2437.0</ele></trkpt><trkpt lat="38.8785" lon="-120.14341999999999"><ele>2439.1602188963443</ele></trkpt><trkpt lat="38.87849" lon="-120.14359000000002"><ele>2439.905450018261</ele></trkpt><trkpt lat="38.87845" lon="-120.14372000000003"><ele>2438.333972223103</ele></trkpt><trkpt lat="38.87854" lon="-120.14408000000003"><ele>2441.5548066403717</ele></trkpt><trkpt lat="38.8785" lon="-120.14445"><ele>2442.851472229697</ele></trkpt><trkpt lat="38.87844" lon="-120.14459"><ele>2443.1226057995227</ele></trkpt><trkpt lat="38.87835" lon="-120.14468"><ele>2443.410030222032</ele></trkpt><trkpt lat="38.87821" lon="-120.14474999999999"><ele>2442.6722666663118</ele></trkpt><trkpt lat="38.87811" lon="-120.14486"><ele>2442.9623572342593</ele></trkpt><trkpt lat="38.87801" lon="-120.14513999999997"><ele>2446.874008601205</ele></trkpt><trkpt lat="38.87796" lon="-120.14519999999999"><ele>2448.7510310446155</ele></trkpt><trkpt lat="38.87769" lon="-120.14521000000002"><ele>2450.109820445534</ele></trkpt><trkpt lat="38.87765" lon="-120.14525000000003"><ele>2450.9811320506565</ele></trkpt><trkpt lat="38.87763" lon="-120.14546999999999"><ele>2452.0</ele></trkpt><trkpt lat="38.87759" lon="-120.1456"><ele>2452.773897556398</ele></trkpt><trkpt lat="38.87749" lon="-120.14573000000001"><ele>2454.8013171720595</ele></trkpt><trkpt lat="38.87758" lon="-120.14606000000003"><ele>2457.7226915569045</ele></trkpt><trkpt lat="38.87746" lon="-120.14603"><ele>2460.4897677701406</ele></trkpt><trkpt lat="38.87737" lon="-120.14589999999998"><ele>2461.0</ele></trkpt><trkpt lat="38.87735" lon="-120.14593000000002"><ele>2461.6642524455674</ele></trkpt><trkpt lat="38.87742" lon="-120.14602000000002"><ele>2462.9283080181885</ele></trkpt><trkpt lat="38.87745" lon="-120.14614"><ele>2464.83376621774</ele></trkpt><trkpt lat="38.87744" lon="-120.14616000000001"><ele>2465.5655694747547</ele></trkpt><trkpt lat="38.87739" lon="-120.14609999999999"><ele>2465.586826666724</ele></trkpt><trkpt lat="38.87736" lon="-120.14609999999999"><ele>2465.586826666724</ele></trkpt><trkpt lat="38.8773" lon="-120.14618000000002"><ele>2466.315096890088</ele></trkpt><trkpt lat="38.87705" lon="-120.14627000000002"><ele>2468.0</ele></trkpt><trkpt lat="38.87694" lon="-120.14627999999999"><ele>2468.0</ele></trkpt><trkpt lat="38.87665" lon="-120.14623"><ele>2470.0</ele></trkpt><trkpt lat="38.87654" lon="-120.14629000000002"><ele>2473.979523440965</ele></trkpt><trkpt lat="38.8763" lon="-120.14620000000002"><ele>2477.0</ele></trkpt><trkpt lat="38.8763" lon="-120.14620000000002"><ele>2477.0</ele></trkpt><trkpt lat="38.8763" lon="-120.14620000000002"><ele>2477.0</ele></trkpt><trkpt lat="38.87618" lon="-120.14553999999998"><ele>2476.0</ele></trkpt><trkpt lat="38.87611" lon="-120.14543000000003"><ele>2475.0</ele></trkpt><trkpt lat="38.87593" lon="-120.14526999999998"><ele>2474.6244477815844</ele></trkpt><trkpt lat="38.87585" lon="-120.14525000000003"><ele>2474.986410442618</ele></trkpt><trkpt lat="38.8757" lon="-120.14528999999999"><ele>2475.0878238603495</ele></trkpt><trkpt lat="38.87549" lon="-120.14522999999997"><ele>2475.0</ele></trkpt><trkpt lat="38.8753" lon="-120.14525000000003"><ele>2475.0260444432497</ele></trkpt><trkpt lat="38.87498" lon="-120.14519999999999"><ele>2476.0</ele></trkpt><trkpt lat="38.87487" lon="-120.14512000000002"><ele>2478.0</ele></trkpt><trkpt lat="38.87481" lon="-120.14504999999997"><ele>2478.0919836556914</ele></trkpt><trkpt lat="38.87474" lon="-120.14480000000003"><ele>2477.074806280446</ele></trkpt><trkpt lat="38.87469" lon="-120.14472999999998"><ele>2477.9393669617866</ele></trkpt><trkpt lat="38.87438" lon="-120.14456999999999"><ele>2476.0</ele></trkpt><trkpt lat="38.87418" lon="-120.14426000000003"><ele>2477.0903008160894</ele></trkpt><trkpt lat="38.87408" lon="-120.14422000000002"><ele>2479.0</ele></trkpt><trkpt lat="38.87393" lon="-120.14420999999999"><ele>2480.0</ele></trkpt><trkpt lat="38.87393" lon="-120.14420999999999"><ele>2480.0</ele></trkpt><trkpt lat="38.87371" lon="-120.14413000000002"><ele>2479.221827554051</ele></trkpt><trkpt lat="38.87359" lon="-120.14393000000001"><ele>2478.1273851161454</ele></trkpt><trkpt lat="38.87348" lon="-120.14384000000001"><ele>2478.0</ele></trkpt><trkpt lat="38.87289" lon="-120.14362"><ele>2476.0</ele></trkpt><trkpt lat="38.87275" lon="-120.14348000000001"><ele>2476.0</ele></trkpt><trkpt lat="38.87258" lon="-120.14326"><ele>2476.595082020565</ele></trkpt><trkpt lat="38.8725" lon="-120.14294999999998"><ele>2476.990031651204</ele></trkpt><trkpt lat="38.87246" lon="-120.14287999999999"><ele>2477.4760497780517</ele></trkpt><trkpt lat="38.87223" lon="-120.14269000000002"><ele>2478.2729042438514</ele></trkpt><trkpt lat="38.87211" lon="-120.14251000000002"><ele>2478.0</ele></trkpt><trkpt lat="38.87202" lon="-120.14240999999998"><ele>2478.0</ele></trkpt><trkpt lat="38.8718" lon="-120.14229"><ele>2480.0833924301623</ele></trkpt><trkpt lat="38.87149" lon="-120.14186000000001"><ele>2483.994591907278</ele></trkpt><trkpt lat="38.87136" lon="-120.14179999999999"><ele>2483.0</ele></trkpt><trkpt lat="38.87131" lon="-120.14175"><ele>2482.7549656406045</ele></trkpt><trkpt lat="38.87122" lon="-120.14161999999999"><ele>2482.0721802963</ele></trkpt><trkpt lat="38.87111" lon="-120.14134000000001"><ele>2480.0</ele></trkpt><trkpt lat="38.87102" lon="-120.14123999999998"><ele>2479.0944106662646</ele></trkpt><trkpt lat="38.87067" lon="-120.14096999999998"><ele>2480.217686363423</ele></trkpt><trkpt lat="38.87049" lon="-120.14091000000002"><ele>2478.1910875537196</ele></trkpt><trkpt lat="38.87025" lon="-120.14087"><ele>2476.0</ele></trkpt><trkpt lat="38.8701" lon="-120.14069999999998"><ele>2476.374737080988</ele></trkpt><trkpt lat="38.86993" lon="-120.14058999999997"><ele>2477.0</ele></trkpt><trkpt lat="38.86976" lon="-120.14051"><ele>2477.9260551105253</ele></trkpt><trkpt lat="38.86963" lon="-120.14040999999997"><ele>2479.0</ele></trkpt><trkpt lat="38.86958" lon="-120.14033"><ele>2479.4522869006323</ele></trkpt><trkpt lat="38.86932" lon="-120.13981000000001"><ele>2481.637977719307</ele></trkpt><trkpt lat="38.86928" lon="-120.13956999999999"><ele>2483.1786886378136</ele></trkpt><trkpt lat="38.86928" lon="-120.13945999999999"><ele>2482.349883682467</ele></trkpt><trkpt lat="38.86937" lon="-120.13922000000002"><ele>2484.647221939083</ele></trkpt><trkpt lat="38.8694" lon="-120.13899000000004"><ele>2487.0</ele></trkpt><trkpt lat="38.86938" lon="-120.13882000000001"><ele>2486.0</ele></trkpt><trkpt lat="38.86934" lon="-120.13873999999998"><ele>2486.0</ele></trkpt><trkpt lat="38.86903" lon="-120.13845000000003"><ele>2485.2794990725815</ele></trkpt><trkpt lat="38.86887" lon="-120.13794999999999"><ele>2485.0</ele></trkpt><trkpt lat="38.8686" lon="-120.13743"><ele>2487.0</ele></trkpt><trkpt lat="38.86857" lon="-120.13731000000001"><ele>2488.0</ele></trkpt><trkpt lat="38.86846" lon="-120.13713999999999"><ele>2489.0</ele></trkpt><trkpt lat="38.86828" lon="-120.13698"><ele>2488.4359786668792</ele></trkpt><trkpt lat="38.86821" lon="-120.13686999999999"><ele>2489.197287481278</ele></trkpt><trkpt lat="38.86816" lon="-120.13675"><ele>2489.0316456561454</ele></trkpt><trkpt lat="38.86815" lon="-120.13650999999999"><ele>2491.605928376317</ele></trkpt><trkpt lat="38.86827" lon="-120.13630999999998"><ele>2492.5206994280243</ele></trkpt><trkpt lat="38.86828" lon="-120.13625000000002"><ele>2493.0</ele></trkpt><trkpt lat="38.86838" lon="-120.13612999999998"><ele>2493.95115022175</ele></trkpt><trkpt lat="38.86855" lon="-120.13605000000001"><ele>2491.0</ele></trkpt><trkpt lat="38.86855" lon="-120.13593000000003"><ele>2492.0</ele></trkpt><trkpt lat="38.86794" lon="-120.13515999999998"><ele>2486.281123402502</ele></trkpt><trkpt lat="38.86776" lon="-120.13488000000001"><ele>2484.079455800009</ele></trkpt><trkpt lat="38.86762" lon="-120.13459"><ele>2479.0</ele></trkpt><trkpt lat="38.86745" lon="-120.13441999999998"><ele>2478.706962764263</ele></trkpt><trkpt lat="38.86738" lon="-120.13432"><ele>2478.2073338019027</ele></trkpt><trkpt lat="38.8672" lon="-120.13382999999999"><ele>2480.0</ele></trkpt><trkpt lat="38.86668" lon="-120.13344000000001"><ele>2479.6667501779357</ele></trkpt><trkpt lat="38.86659" lon="-120.13308"><ele>2481.2316555194557</ele></trkpt><trkpt lat="38.86659" lon="-120.13252999999997"><ele>2482.2204542931936</ele></trkpt><trkpt lat="38.86653" lon="-120.13224000000002"><ele>2482.6403782535344</ele></trkpt><trkpt lat="38.86652" lon="-120.13161000000002"><ele>2480.0</ele></trkpt><trkpt lat="38.86635" lon="-120.13135999999997"><ele>2477.912861605535</ele></trkpt><trkpt lat="38.86633" lon="-120.13125000000002"><ele>2477.0</ele></trkpt><trkpt lat="38.86638" lon="-120.13094000000001"><ele>2479.9731043817887</ele></trkpt><trkpt lat="38.86638" lon="-120.13066000000003"><ele>2481.0</ele></trkpt><trkpt lat="38.86636" lon="-120.13057000000003"><ele>2481.0</ele></trkpt><trkpt lat="38.865894690836114" lon="-120.129743838688"><ele>2480.0</ele></trkpt><trkpt lat="38.86587" lon="-120.12970000000001"><ele>2481.0</ele></trkpt><trkpt lat="38.86506" lon="-120.12919999999997"><ele>2479.0</ele></trkpt><trkpt lat="38.86469" lon="-120.12886000000003"><ele>2479.0</ele></trkpt><trkpt lat="38.86469" lon="-120.12886000000003"><ele>2479.0</ele></trkpt><trkpt lat="38.86453" lon="-120.12833999999998"><ele>2484.0</ele></trkpt><trkpt lat="38.86435" lon="-120.12811999999997"><ele>2485.3419057792053</ele></trkpt><trkpt lat="38.86427" lon="-120.12805000000003"><ele>2485.7510615119936</ele></trkpt><trkpt lat="38.86397" lon="-120.12797"><ele>2487.0</ele></trkpt><trkpt lat="38.86382" lon="-120.12786"><ele>2490.0</ele></trkpt><trkpt lat="38.86369" lon="-120.1277"><ele>2492.915324444417</ele></trkpt><trkpt lat="38.86337" lon="-120.12716999999998"><ele>2498.6151146679185</ele></trkpt><trkpt lat="38.86337" lon="-120.12711000000002"><ele>2499.0</ele></trkpt><trkpt lat="38.86346" lon="-120.12700000000001"><ele>2500.0</ele></trkpt><trkpt lat="38.86345" lon="-120.12687"><ele>2501.0</ele></trkpt><trkpt lat="38.86304" lon="-120.12639999999999"><ele>2504.499715555925</ele></trkpt><trkpt lat="38.86283" lon="-120.12606"><ele>2509.0</ele></trkpt><trkpt lat="38.86268" lon="-120.12589000000003"><ele>2510.2674382207915</ele></trkpt><trkpt lat="38.86243" lon="-120.12574999999998"><ele>2510.0</ele></trkpt><trkpt lat="38.86198" lon="-120.12507"><ele>2516.0</ele></trkpt><trkpt lat="38.86179" lon="-120.12493999999998"><ele>2517.0</ele></trkpt><trkpt lat="38.86152" lon="-120.1248"><ele>2519.0</ele></trkpt><trkpt lat="38.86136" lon="-120.12475"><ele>2519.0</ele></trkpt><trkpt lat="38.86112" lon="-120.12472000000002"><ele>2519.0</ele></trkpt><trkpt lat="38.86081" lon="-120.12450999999999"><ele>2520.8799665065026</ele></trkpt><trkpt lat="38.86081" lon="-120.12450999999999"><ele>2520.8799665065026</ele></trkpt><trkpt lat="38.86066" lon="-120.12441000000001"><ele>2522.0</ele></trkpt><trkpt lat="38.8605" lon="-120.12421999999998"><ele>2522.7579067003553</ele></trkpt><trkpt lat="38.86035" lon="-120.12396000000001"><ele>2523.244948297739</ele></trkpt><trkpt lat="38.86003" lon="-120.12299999999999"><ele>2526.0</ele></trkpt><trkpt lat="38.86003" lon="-120.12290000000002"><ele>2527.0</ele></trkpt><trkpt lat="38.8601" lon="-120.12272999999999"><ele>2528.0</ele></trkpt><trkpt lat="38.86009" lon="-120.12254999999999"><ele>2528.0</ele></trkpt><trkpt lat="38.85992" lon="-120.12216999999998"><ele>2527.0</ele></trkpt><trkpt lat="38.85988" lon="-120.12182000000001"><ele>2525.625929687172</ele></trkpt><trkpt lat="38.8599" lon="-120.12148000000002"><ele>2526.0</ele></trkpt><trkpt lat="38.85982" lon="-120.12122999999997"><ele>2526.0</ele></trkpt><trkpt lat="38.85972" lon="-120.12112000000002"><ele>2526.0</ele></trkpt><trkpt lat="38.85972" lon="-120.12112000000002"><ele>2526.0</ele></trkpt><trkpt lat="38.85943" lon="-120.12086"><ele>2527.0</ele></trkpt><trkpt lat="38.85932" lon="-120.12068999999997"><ele>2527.0</ele></trkpt><trkpt lat="38.85915" lon="-120.12032999999997"><ele>2526.0</ele></trkpt><trkpt lat="38.85909" lon="-120.12011000000001"><ele>2526.0</ele></trkpt><trkpt lat="38.85898" lon="-120.11995999999999"><ele>2526.0</ele></trkpt><trkpt lat="38.85862" lon="-120.11968000000002"><ele>2528.0</ele></trkpt><trkpt lat="38.85823" lon="-120.11950999999999"><ele>2533.0</ele></trkpt><trkpt lat="38.85802" lon="-120.11912000000001"><ele>2536.0</ele></trkpt><trkpt lat="38.85783" lon="-120.11887000000002"><ele>2537.0</ele></trkpt><trkpt lat="38.857660397674096" lon="-120.11870932411227"><ele>2539.0</ele></trkpt><trkpt lat="38.85764" lon="-120.11869000000002"><ele>2539.0</ele></trkpt><trkpt lat="38.85729" lon="-120.11815000000001"><ele>2540.0224177790806</ele></trkpt><trkpt lat="38.85719" lon="-120.11790000000002"><ele>2540.0</ele></trkpt><trkpt lat="38.85713" lon="-120.11754000000002"><ele>2539.0</ele></trkpt><trkpt lat="38.85717" lon="-120.11714"><ele>2539.0</ele></trkpt><trkpt lat="38.85717" lon="-120.11617000000001"><ele>2534.0</ele></trkpt><trkpt lat="38.85704" lon="-120.11586"><ele>2534.5397307001112</ele></trkpt><trkpt lat="38.85694" lon="-120.11574999999999"><ele>2535.0569103351722</ele></trkpt><trkpt lat="38.85682" lon="-120.11545999999998"><ele>2532.8324129015796</ele></trkpt><trkpt lat="38.85682" lon="-120.11545999999998"><ele>2532.8324129015796</ele></trkpt><trkpt lat="38.85676" lon="-120.11531000000002"><ele>2530.767672663089</ele></trkpt><trkpt lat="38.85661" lon="-120.11466999999999"><ele>2527.0</ele></trkpt><trkpt lat="38.85663" lon="-120.11410000000001"><ele>2526.0</ele></trkpt><trkpt lat="38.85651" lon="-120.11325"><ele>2532.0604145377874</ele></trkpt><trkpt lat="38.85651" lon="-120.11325"><ele>2532.0604145377874</ele></trkpt><trkpt lat="38.85651" lon="-120.11325"><ele>2532.0604145377874</ele></trkpt><trkpt lat="38.85644" lon="-120.11288000000002"><ele>2533.0</ele></trkpt><trkpt lat="38.85636" lon="-120.11270000000002"><ele>2534.0700687120952</ele></trkpt><trkpt lat="38.85628" lon="-120.11259000000001"><ele>2535.983837411977</ele></trkpt><trkpt lat="38.85608" lon="-120.11171999999999"><ele>2540.0</ele></trkpt><trkpt lat="38.85608" lon="-120.11171999999999"><ele>2540.0</ele></trkpt><trkpt lat="38.85589" lon="-120.1112"><ele>2541.0</ele></trkpt><trkpt lat="38.85597" lon="-120.11043000000001"><ele>2537.0</ele></trkpt><trkpt lat="38.85595" lon="-120.11014"><ele>2537.0</ele></trkpt><trkpt lat="38.85588" lon="-120.10985"><ele>2537.0</ele></trkpt><trkpt lat="38.85566" lon="-120.10957000000002"><ele>2537.0</ele></trkpt><trkpt lat="38.85501" lon="-120.10906"><ele>2535.0</ele></trkpt><trkpt lat="38.85497" lon="-120.10899"><ele>2535.0</ele></trkpt><trkpt lat="38.85497" lon="-120.10899"><ele>2535.0</ele></trkpt><trkpt lat="38.85481" lon="-120.10874000000001"><ele>2534.0</ele></trkpt><trkpt lat="38.85472" lon="-120.10838999999999"><ele>2532.8481660365865</ele></trkpt><trkpt lat="38.85468" lon="-120.10804999999999"><ele>2532.0</ele></trkpt><trkpt lat="38.85419" lon="-120.10671000000002"><ele>2530.0</ele></trkpt><trkpt lat="38.85353" lon="-120.10559999999998"><ele>2525.0</ele></trkpt><trkpt lat="38.85352794175599" lon="-120.10559279614597"><ele>2525.0</ele></trkpt><trkpt lat="38.85356464917889" lon="-120.1056582733629"><ele>2525.675293358043</ele></trkpt><trkpt lat="38.85353" lon="-120.10559999999998"><ele>2525.0</ele></trkpt><trkpt lat="38.85317" lon="-120.10433999999998"><ele>2519.0</ele></trkpt><trkpt lat="38.85305" lon="-120.10356999999999"><ele>2512.8769021965563</ele></trkpt><trkpt lat="38.85293" lon="-120.10303999999996"><ele>2507.6957181934267</ele></trkpt><trkpt lat="38.85293" lon="-120.10303999999996"><ele>2507.6957181934267</ele></trkpt><trkpt lat="38.85295" lon="-120.10275000000001"><ele>2509.964508878319</ele></trkpt><trkpt lat="38.85294" lon="-120.10253999999998"><ele>2511.6162357970647</ele></trkpt><trkpt lat="38.85294" lon="-120.10253999999998"><ele>2511.6162357970647</ele></trkpt><trkpt lat="38.85293" lon="-120.10221999999999"><ele>2510.6957181934267</ele></trkpt><trkpt lat="38.85294" lon="-120.10192999999998"><ele>2512.2941497303545</ele></trkpt><trkpt lat="38.85292" lon="-120.10174999999998"><ele>2513.1238438561695</ele></trkpt><trkpt lat="38.85296" lon="-120.10140000000001"><ele>2516.49101305753</ele></trkpt><trkpt lat="38.85292" lon="-120.10070999999999"><ele>2517.0972867384553</ele></trkpt><trkpt lat="38.85298" lon="-120.10014999999999"><ele>2520.687876721844</ele></trkpt><trkpt lat="38.85294" lon="-120.09989999999999"><ele>2521.143905892105</ele></trkpt><trkpt lat="38.85295" lon="-120.09974999999997"><ele>2522.428201027777</ele></trkpt><trkpt lat="38.85291" lon="-120.09959000000003"><ele>2523.0</ele></trkpt><trkpt lat="38.85295" lon="-120.09938999999997"><ele>2524.663233166618</ele></trkpt><trkpt lat="38.85281" lon="-120.09879999999998"><ele>2523.514546304941</ele></trkpt><trkpt lat="38.85268" lon="-120.09843000000001"><ele>2523.0</ele></trkpt><trkpt lat="38.85255" lon="-120.09816999999998"><ele>2520.0</ele></trkpt><trkpt lat="38.85252" lon="-120.09796"><ele>2520.1600975953043</ele></trkpt><trkpt lat="38.85256" lon="-120.09776"><ele>2522.6521752179015</ele></trkpt><trkpt lat="38.85261" lon="-120.09764000000001"><ele>2525.4437839354405</ele></trkpt><trkpt lat="38.85259" lon="-120.09731999999997"><ele>2527.253423199984</ele></trkpt><trkpt lat="38.85265" lon="-120.09716000000003"><ele>2530.0</ele></trkpt><trkpt lat="38.85259" lon="-120.09703999999999"><ele>2530.0</ele></trkpt><trkpt lat="38.85255" lon="-120.09676999999999"><ele>2533.3418348708688</ele></trkpt><trkpt lat="38.85261" lon="-120.09636999999998"><ele>2539.545953415334</ele></trkpt><trkpt lat="38.85248" lon="-120.09545000000003"><ele>2547.766386086121</ele></trkpt><trkpt lat="38.85248" lon="-120.09524999999996"><ele>2549.1493941958925</ele></trkpt><trkpt lat="38.85251" lon="-120.09508"><ele>2551.0660004207025</ele></trkpt><trkpt lat="38.85265" lon="-120.09494000000001"><ele>2551.3580195563845</ele></trkpt><trkpt lat="38.85283" lon="-120.09446000000003"><ele>2545.7031538571373</ele></trkpt><trkpt lat="38.85298" lon="-120.09413"><ele>2537.6092835562304</ele></trkpt><trkpt lat="38.85301" lon="-120.09393"><ele>2534.0</ele></trkpt><trkpt lat="38.85319" lon="-120.09352999999999"><ele>2528.165028182688</ele></trkpt><trkpt lat="38.85321" lon="-120.09328"><ele>2524.998033420306</ele></trkpt><trkpt lat="38.8533" lon="-120.09312"><ele>2523.0</ele></trkpt><trkpt lat="38.85363" lon="-120.09275000000002"><ele>2515.2966222236864</ele></trkpt><trkpt lat="38.85381" lon="-120.09248000000002"><ele>2509.7137102237903</ele></trkpt><trkpt lat="38.85407" lon="-120.09215"><ele>2506.3345955554396</ele></trkpt><trkpt lat="38.85414" lon="-120.09208999999998"><ele>2505.0</ele></trkpt><trkpt lat="38.85418" lon="-120.09201000000002"><ele>2503.810122667812</ele></trkpt><trkpt lat="38.8542" lon="-120.09165999999999"><ele>2498.0</ele></trkpt><trkpt lat="38.85438" lon="-120.09141999999997"><ele>2497.0</ele></trkpt><trkpt lat="38.85446" lon="-120.09108000000003"><ele>2493.605305395992</ele></trkpt><trkpt lat="38.85447" lon="-120.09081000000003"><ele>2491.0</ele></trkpt><trkpt lat="38.85438" lon="-120.09028999999998"><ele>2489.0</ele></trkpt><trkpt lat="38.85438" lon="-120.09028999999998"><ele>2489.0</ele></trkpt><trkpt lat="38.85438" lon="-120.09028999999998"><ele>2489.0</ele></trkpt><trkpt lat="38.85453" lon="-120.08940999999999"><ele>2492.0</ele></trkpt><trkpt lat="38.85453" lon="-120.08940999999999"><ele>2492.0</ele></trkpt><trkpt lat="38.85453" lon="-120.08940999999999"><ele>2492.0</ele></trkpt><trkpt lat="38.85485" lon="-120.08911"><ele>2493.0</ele></trkpt><trkpt lat="38.8551" lon="-120.08897999999999"><ele>2492.664547530636</ele></trkpt><trkpt lat="38.85526" lon="-120.08897000000002"><ele>2493.0</ele></trkpt><trkpt lat="38.85534" lon="-120.08873"><ele>2493.0</ele></trkpt><trkpt lat="38.85553" lon="-120.08834999999999"><ele>2495.0</ele></trkpt><trkpt lat="38.85582" lon="-120.08814999999998"><ele>2495.0</ele></trkpt><trkpt lat="38.85609" lon="-120.08802000000003"><ele>2498.0</ele></trkpt><trkpt lat="38.85637" lon="-120.08778000000001"><ele>2500.0</ele></trkpt><trkpt lat="38.85671" lon="-120.08758"><ele>2504.0</ele></trkpt><trkpt lat="38.85682" lon="-120.08754999999996"><ele>2504.0</ele></trkpt><trkpt lat="38.85682" lon="-120.08754999999996"><ele>2504.0</ele></trkpt><trkpt lat="38.85705" lon="-120.08748000000003"><ele>2501.0</ele></trkpt><trkpt lat="38.85731" lon="-120.08742999999998"><ele>2502.0</ele></trkpt><trkpt lat="38.85754" lon="-120.08722999999998"><ele>2506.600816288451</ele></trkpt><trkpt lat="38.85773" lon="-120.08694000000003"><ele>2510.0</ele></trkpt><trkpt lat="38.8579" lon="-120.08676000000003"><ele>2511.8576106652617</ele></trkpt><trkpt lat="38.858" lon="-120.08666"><ele>2510.0</ele></trkpt><trkpt lat="38.85813" lon="-120.08658000000003"><ele>2509.0</ele></trkpt><trkpt lat="38.85839" lon="-120.0865"><ele>2507.0</ele></trkpt><trkpt lat="38.85872" lon="-120.08649000000003"><ele>2505.440522665158</ele></trkpt><trkpt lat="38.85886" lon="-120.08645000000001"><ele>2507.0</ele></trkpt><trkpt lat="38.85896" lon="-120.08640000000003"><ele>2505.434792280197</ele></trkpt><trkpt lat="38.85934" lon="-120.08580999999998"><ele>2510.0402392432743</ele></trkpt><trkpt lat="38.85972" lon="-120.0856"><ele>2507.995868132757</ele></trkpt><trkpt lat="38.8599" lon="-120.08555999999999"><ele>2504.8203291632585</ele></trkpt><trkpt lat="38.85990278829993" lon="-120.08555695821826"><ele>2504.924203415571</ele></trkpt><trkpt lat="38.859972071939254" lon="-120.08548137608727"><ele>2503.3850200776587</ele></trkpt><trkpt lat="38.86001" lon="-120.08544"><ele>2503.374069332611</ele></trkpt><trkpt lat="38.86019" lon="-120.08542"><ele>2503.1243121705133</ele></trkpt><trkpt lat="38.86034" lon="-120.08521999999999"><ele>2498.0</ele></trkpt><trkpt lat="38.86045" lon="-120.08517999999998"><ele>2498.0</ele></trkpt><trkpt lat="38.86077" lon="-120.08517"><ele>2495.0651100962423</ele></trkpt><trkpt lat="38.8611" lon="-120.08512000000002"><ele>2491.54211263631</ele></trkpt><trkpt lat="38.8614" lon="-120.08494999999999"><ele>2488.0</ele></trkpt><trkpt lat="38.8616" lon="-120.08478000000002"><ele>2482.4325487725437</ele></trkpt><trkpt lat="38.86198" lon="-120.08479"><ele>2474.689318638295</ele></trkpt><trkpt lat="38.86234" lon="-120.08474999999999"><ele>2463.5975474005636</ele></trkpt><trkpt lat="38.86257" lon="-120.08461999999997"><ele>2456.7439374139803</ele></trkpt><trkpt lat="38.86271" lon="-120.08449999999999"><ele>2452.8171471202118</ele></trkpt><trkpt lat="38.86289" lon="-120.08447999999999"><ele>2447.912157531362</ele></trkpt><trkpt lat="38.86314" lon="-120.08438999999998"><ele>2440.1813106403115</ele></trkpt><trkpt lat="38.86332" lon="-120.08429000000001"><ele>2433.5049275426</ele></trkpt><trkpt lat="38.86338" lon="-120.08420999999998"><ele>2430.8974219616503</ele></trkpt><trkpt lat="38.86335" lon="-120.08413999999999"><ele>2429.7057333821876</ele></trkpt><trkpt lat="38.86337" lon="-120.08410000000003"><ele>2427.6733458079398</ele></trkpt><trkpt lat="38.86353" lon="-120.08410000000003"><ele>2425.0</ele></trkpt><trkpt lat="38.86364" lon="-120.08402000000001"><ele>2419.4491342226975</ele></trkpt><trkpt lat="38.86397" lon="-120.08391"><ele>2405.5114589138466</ele></trkpt><trkpt lat="38.86408" lon="-120.08375000000001"><ele>2397.1345183203503</ele></trkpt><trkpt lat="38.86417" lon="-120.08375000000001"><ele>2394.9483783004225</ele></trkpt><trkpt lat="38.86431" lon="-120.08364"><ele>2389.2347499914467</ele></trkpt><trkpt lat="38.86449" lon="-120.08339000000001"><ele>2377.461245510727</ele></trkpt><trkpt lat="38.86445" lon="-120.08326"><ele>2380.710719950497</ele></trkpt><trkpt lat="38.86448" lon="-120.08319"><ele>2378.8281049202196</ele></trkpt><trkpt lat="38.86453" lon="-120.08316000000002"><ele>2375.0671296995133</ele></trkpt><trkpt lat="38.86457" lon="-120.08323999999999"><ele>2372.673012541607</ele></trkpt><trkpt lat="38.86463" lon="-120.08325000000002"><ele>2369.0818342808634</ele></trkpt><trkpt lat="38.86469" lon="-120.08312999999998"><ele>2366.4769775072564</ele></trkpt><trkpt lat="38.86477" lon="-120.08312999999998"><ele>2363.7024065498263</ele></trkpt><trkpt lat="38.86482" lon="-120.08302000000003"><ele>2359.9552307760496</ele></trkpt><trkpt lat="38.86486" lon="-120.08299999999997"><ele>2358.9409306487637</ele></trkpt><trkpt lat="38.865" lon="-120.08299"><ele>2355.0</ele></trkpt><trkpt lat="38.86514" lon="-120.08305999999999"><ele>2352.0</ele></trkpt><trkpt lat="38.86542" lon="-120.08296000000001"><ele>2342.049553778488</ele></trkpt><trkpt lat="38.8655" lon="-120.08289000000002"><ele>2341.0</ele></trkpt><trkpt lat="38.86556" lon="-120.0829"><ele>2337.270779853119</ele></trkpt><trkpt lat="38.86567" lon="-120.08328"><ele>2326.834262860939</ele></trkpt><trkpt lat="38.86598" lon="-120.08350999999999"><ele>2316.469991755377</ele></trkpt><trkpt lat="38.86602" lon="-120.08362"><ele>2316.885356154293</ele></trkpt><trkpt lat="38.86608" lon="-120.08404000000002"><ele>2317.2941046468914</ele></trkpt><trkpt lat="38.86612" lon="-120.08413999999999"><ele>2313.941474849358</ele></trkpt><trkpt lat="38.86624" lon="-120.08425"><ele>2309.1204626463573</ele></trkpt><trkpt lat="38.86633" lon="-120.08428000000004"><ele>2306.1870807459636</ele></trkpt><trkpt lat="38.86625" lon="-120.08397000000002"><ele>2301.2378409239464</ele></trkpt><trkpt lat="38.86626" lon="-120.08359999999999"><ele>2295.396047500428</ele></trkpt><trkpt lat="38.8663" lon="-120.08353999999997"><ele>2291.126156533137</ele></trkpt><trkpt lat="38.86636" lon="-120.08353"><ele>2287.534890882671</ele></trkpt><trkpt lat="38.8665" lon="-120.08357999999998"><ele>2278.1552592460066</ele></trkpt><trkpt lat="38.86657" lon="-120.08350999999999"><ele>2272.9654372408986</ele></trkpt><trkpt lat="38.86664" lon="-120.08326"><ele>2263.690768695383</ele></trkpt><trkpt lat="38.86668" lon="-120.08294000000001"><ele>2260.117486222647</ele></trkpt><trkpt lat="38.86651" lon="-120.0822"><ele>2242.9079922882156</ele></trkpt><trkpt lat="38.86657" lon="-120.08186999999998"><ele>2234.9654372408986</ele></trkpt><trkpt lat="38.8665" lon="-120.08159999999998"><ele>2237.0</ele></trkpt><trkpt lat="38.86654" lon="-120.08098000000001"><ele>2230.185134226458</ele></trkpt><trkpt lat="38.86637" lon="-120.08080999999999"><ele>2227.852291555144</ele></trkpt><trkpt lat="38.8664" lon="-120.08062999999999"><ele>2226.924533787267</ele></trkpt><trkpt lat="38.86651" lon="-120.08059000000003"><ele>2224.0</ele></trkpt><trkpt lat="38.86666" lon="-120.08060999999998"><ele>2222.0</ele></trkpt><trkpt lat="38.86671" lon="-120.08073000000002"><ele>2221.5131315272083</ele></trkpt><trkpt lat="38.86684" lon="-120.08073999999999"><ele>2217.149754626971</ele></trkpt><trkpt lat="38.86691" lon="-120.08067"><ele>2215.0</ele></trkpt><trkpt lat="38.86693" lon="-120.08056999999997"><ele>2213.41771604307</ele></trkpt><trkpt lat="38.86693" lon="-120.08056999999997"><ele>2213.41771604307</ele></trkpt><trkpt lat="38.86698" lon="-120.0804"><ele>2209.7449066666886</ele></trkpt><trkpt lat="38.86707" lon="-120.0804"><ele>2206.0</ele></trkpt><trkpt lat="38.86713" lon="-120.08031"><ele>2205.5506026670337</ele></trkpt><trkpt lat="38.86707" lon="-120.08020999999997"><ele>2204.8944367115732</ele></trkpt><trkpt lat="38.86712" lon="-120.08005000000003"><ele>2203.0196319482534</ele></trkpt><trkpt lat="38.86724" lon="-120.07993999999997"><ele>2200.0</ele></trkpt><trkpt lat="38.86739" lon="-120.07988"><ele>2194.9434684076027</ele></trkpt><trkpt lat="38.86768" lon="-120.07984999999996"><ele>2181.946446453372</ele></trkpt><trkpt lat="38.8679" lon="-120.08001000000002"><ele>2168.634343740194</ele></trkpt><trkpt lat="38.86811" lon="-120.07992999999999"><ele>2163.0</ele></trkpt><trkpt lat="38.86837" lon="-120.07993999999997"><ele>2156.0</ele></trkpt><trkpt lat="38.86849" lon="-120.08008000000001"><ele>2148.3793450491503</ele></trkpt><trkpt lat="38.86861" lon="-120.08005000000003"><ele>2148.3052827841593</ele></trkpt><trkpt lat="38.86865" lon="-120.07995"><ele>2148.052987486077</ele></trkpt><trkpt lat="38.86881" lon="-120.07999999999998"><ele>2140.7853991775773</ele></trkpt><trkpt lat="38.86863" lon="-120.08020999999997"><ele>2134.1097351126373</ele></trkpt><trkpt lat="38.86871" lon="-120.08033999999998"><ele>2127.881034492999</ele></trkpt><trkpt lat="38.86867" lon="-120.08053000000001"><ele>2123.0</ele></trkpt><trkpt lat="38.86874" lon="-120.08056999999997"><ele>2121.0</ele></trkpt><trkpt lat="38.86874" lon="-120.08056999999997"><ele>2121.0</ele></trkpt><trkpt lat="38.86888" lon="-120.08064999999999"><ele>2117.88087756177</ele></trkpt><trkpt lat="38.86899" lon="-120.08056999999997"><ele>2118.0</ele></trkpt><trkpt lat="38.86899" lon="-120.08056999999997"><ele>2118.0</ele></trkpt><trkpt lat="38.86908" lon="-120.08050000000003"><ele>2118.0</ele></trkpt><trkpt lat="38.86932" lon="-120.08053000000001"><ele>2116.0</ele></trkpt><trkpt lat="38.86944" lon="-120.08044999999998"><ele>2116.0</ele></trkpt><trkpt lat="38.86953" lon="-120.08056999999997"><ele>2115.0</ele></trkpt><trkpt lat="38.86953" lon="-120.08056999999997"><ele>2115.0</ele></trkpt><trkpt lat="38.86955" lon="-120.0806"><ele>2115.0</ele></trkpt><trkpt lat="38.8696" lon="-120.08056999999997"><ele>2115.0</ele></trkpt><trkpt lat="38.8696" lon="-120.08056999999997"><ele>2115.0</ele></trkpt><trkpt lat="38.8705" lon="-120.07997"><ele>2099.730240922421</ele></trkpt><trkpt lat="38.87164" lon="-120.07974999999999"><ele>2078.0</ele></trkpt><trkpt lat="38.87177" lon="-120.07990000000001"><ele>2074.0</ele></trkpt><trkpt lat="38.87194" lon="-120.07988999999998"><ele>2071.0</ele></trkpt><trkpt lat="38.87213" lon="-120.08001999999999"><ele>2059.1250590924174</ele></trkpt><trkpt lat="38.87238" lon="-120.07997999999998"><ele>2047.1622458945599</ele></trkpt><trkpt lat="38.872652793408335" lon="-120.07986572168028"><ele>2038.0207814327441</ele></trkpt><trkpt lat="38.87268102039396" lon="-120.07985389725138"><ele>2036.882179078646</ele></trkpt><trkpt lat="38.87312" lon="-120.07966999999996"><ele>2026.9272308440623</ele></trkpt><trkpt lat="38.87335" lon="-120.07968"><ele>2021.1066109563385</ele></trkpt><trkpt lat="38.87351" lon="-120.07963000000001"><ele>2021.0</ele></trkpt><trkpt lat="38.87358" lon="-120.07952"><ele>2021.0</ele></trkpt><trkpt lat="38.87384" lon="-120.07933000000003"><ele>2020.0</ele></trkpt><trkpt lat="38.87393" lon="-120.07915000000003"><ele>2022.0</ele></trkpt><trkpt lat="38.87393" lon="-120.07915000000003"><ele>2022.0</ele></trkpt><trkpt lat="38.87411" lon="-120.07891000000001"><ele>2024.0</ele></trkpt><trkpt lat="38.87427" lon="-120.07889"><ele>2024.0</ele></trkpt><trkpt lat="38.874510953496724" lon="-120.07861197757023"><ele>2027.6360584180802</ele></trkpt><trkpt lat="38.874510953496724" lon="-120.07861197757023"><ele>2027.6360584180802</ele></trkpt><trkpt lat="38.8747" lon="-120.07871"><ele>2025.0</ele></trkpt><trkpt lat="38.87478" lon="-120.07868000000002"><ele>2025.0</ele></trkpt><trkpt lat="38.87481" lon="-120.07853999999998"><ele>2024.0</ele></trkpt><trkpt lat="38.87487" lon="-120.07850000000002"><ele>2023.1984888901934</ele></trkpt><trkpt lat="38.87494" lon="-120.07853"><ele>2022.0</ele></trkpt><trkpt lat="38.87496" lon="-120.07864000000001"><ele>2022.5461676961636</ele></trkpt><trkpt lat="38.87498" lon="-120.07866000000001"><ele>2022.3656534473835</ele></trkpt><trkpt lat="38.87509" lon="-120.07857999999999"><ele>2021.0</ele></trkpt><trkpt lat="38.87519" lon="-120.07864999999998"><ele>2020.997589648777</ele></trkpt><trkpt lat="38.87527" lon="-120.07853"><ele>2022.8017072603106</ele></trkpt><trkpt lat="38.87532" lon="-120.07823000000002"><ele>2025.7948061078787</ele></trkpt><trkpt lat="38.87536" lon="-120.07816000000003"><ele>2027.0</ele></trkpt><trkpt lat="38.87564" lon="-120.07810999999998"><ele>2028.9768284456804</ele></trkpt><trkpt lat="38.87583" lon="-120.07799"><ele>2029.384497694656</ele></trkpt><trkpt lat="38.87592" lon="-120.07799"><ele>2028.0</ele></trkpt><trkpt lat="38.87596" lon="-120.07806"><ele>2025.8933426458389</ele></trkpt><trkpt lat="38.87594" lon="-120.07834000000003"><ele>2023.0</ele></trkpt><trkpt lat="38.87588" lon="-120.07846999999998"><ele>2021.9365916932452</ele></trkpt><trkpt lat="38.87591" lon="-120.07871999999998"><ele>2021.548768001143</ele></trkpt><trkpt lat="38.8758" lon="-120.07888000000003"><ele>2018.043470332675</ele></trkpt><trkpt lat="38.8758" lon="-120.07902000000001"><ele>2018.7962664347785</ele></trkpt><trkpt lat="38.87574" lon="-120.07914"><ele>2016.0015549745451</ele></trkpt><trkpt lat="38.87576" lon="-120.07922000000002"><ele>2016.9668501920821</ele></trkpt><trkpt lat="38.87585" lon="-120.07925999999998"><ele>2016.2341119991615</ele></trkpt><trkpt lat="38.87595" lon="-120.07925"><ele>2014.0</ele></trkpt><trkpt lat="38.87611" lon="-120.07934999999998"><ele>2010.1886400007643</ele></trkpt><trkpt lat="38.8762" lon="-120.07925999999998"><ele>2008.2015470587842</ele></trkpt><trkpt lat="38.87623" lon="-120.07929999999999"><ele>2006.7304269224405</ele></trkpt><trkpt lat="38.87621" lon="-120.07941"><ele>2005.9560623109203</ele></trkpt><trkpt lat="38.87623" lon="-120.07943999999998"><ele>2004.7304269224405</ele></trkpt><trkpt lat="38.87626" lon="-120.07943999999998"><ele>2003.0</ele></trkpt><trkpt lat="38.87633" lon="-120.07933000000003"><ele>2003.1207075538114</ele></trkpt><trkpt lat="38.87639" lon="-120.07934"><ele>2002.707292451444</ele></trkpt><trkpt lat="38.87637" lon="-120.07958000000002"><ele>1998.4698631097563</ele></trkpt><trkpt lat="38.87631" lon="-120.07961999999998"><ele>1997.605728000868</ele></trkpt><trkpt lat="38.8763" lon="-120.07965999999999"><ele>1997.5400313399732</ele></trkpt><trkpt lat="38.87634" lon="-120.07970999999998"><ele>1996.0</ele></trkpt><trkpt lat="38.87641" lon="-120.07968"><ele>1995.809525333345</ele></trkpt><trkpt lat="38.8765" lon="-120.0795"><ele>1995.5674497932196</ele></trkpt><trkpt lat="38.87654" lon="-120.07936000000001"><ele>1997.0</ele></trkpt><trkpt lat="38.87654" lon="-120.07936000000001"><ele>1997.0</ele></trkpt><trkpt lat="38.87658" lon="-120.07943"><ele>1992.7167107954974</ele></trkpt><trkpt lat="38.87658" lon="-120.07943"><ele>1992.7167107954974</ele></trkpt><trkpt lat="38.8767" lon="-120.07959"><ele>1996.9977221804236</ele></trkpt><trkpt lat="38.8767" lon="-120.07959"><ele>1996.9977221804236</ele></trkpt><trkpt lat="38.87681" lon="-120.07974000000002"><ele>1997.0</ele></trkpt><trkpt lat="38.87681" lon="-120.07974000000002"><ele>1997.0</ele></trkpt><trkpt lat="38.87694" lon="-120.07993999999997"><ele>1998.0</ele></trkpt><trkpt lat="38.87707" lon="-120.08029999999997"><ele>1997.0</ele></trkpt><trkpt lat="38.877096928275954" lon="-120.08038617048305"><ele>1996.1498841983062</ele></trkpt></trkseg></trk></gpx>