<?xml version="1.0"?>
<gpx xmlns="http://www.topografix.com/GPX/1/1" xmlns:gpxx="http://www.garmin.com/xmlschemas/GpxExtensions/v3" creator="CALTOPO" version="1.1"><metadata><name><![CDATA[Blue Lake-Carson Pass]]></name></metadata><wpt lat="38.61986333293602" lon="-119.90849090414135"><name>Blue Lakes Trailhead</name></wpt><wpt lat="38.69482249463627" lon="-119.9892655144044"><name>Carson Pass Trailhead</name></wpt><trk><name>Blue Lake-Carson Pass</name><trkseg><trkpt lat="38.619856173995025" lon="-119.90849438517398"><ele>2429.0</ele></trkpt><trkpt lat="38.619923233842485" lon="-119.90839782564944"><ele>2429.0</ele></trkpt><trkpt lat="38.619990293627254" lon="-119.90825835078067"><ele>2428.7376939709097</ele></trkpt><trkpt lat="38.62007411827005" lon="-119.90815106242007"><ele>2428.737693970718</ele></trkpt><trkpt lat="38.620076943748415" lon="-119.90815432969691"><ele>2428.882117633168</ele></trkpt><trkpt lat="38.62008" lon="-119.90814999999998"><ele>2428.958312922808</ele></trkpt><trkpt lat="38.62015" lon="-119.90812"><ele>2429.0</ele></trkpt><trkpt lat="38.6203" lon="-119.90810999999997"><ele>2428.5788739669856</ele></trkpt><trkpt lat="38.62062" lon="-119.90819999999997"><ele>2429.0962010292196</ele></trkpt><trkpt lat="38.62074" lon="-119.90816999999998"><ele>2430.0</ele></trkpt><trkpt lat="38.62087" lon="-119.90796"><ele>2427.0</ele></trkpt><trkpt lat="38.62101" lon="-119.90760999999998"><ele>2432.4126566909254</ele></trkpt><trkpt lat="38.62109" lon="-119.90749"><ele>2433.184590851888</ele></trkpt><trkpt lat="38.62113" lon="-119.90751999999998"><ele>2434.0</ele></trkpt><trkpt lat="38.62113" lon="-119.90751999999998"><ele>2434.0</ele></trkpt><trkpt lat="38.62113" lon="-119.90751999999998"><ele>2434.0</ele></trkpt><trkpt lat="38.6212" lon="-119.90764999999999"><ele>2435.0</ele></trkpt><trkpt lat="38.62125" lon="-119.90769"><ele>2435.0</ele></trkpt><trkpt lat="38.62132" lon="-119.90767"><ele>2436.8528257582207</ele></trkpt><trkpt lat="38.62139" lon="-119.9076"><ele>2437.0</ele></trkpt><trkpt lat="38.62146" lon="-119.90760999999998"><ele>2437.0</ele></trkpt><trkpt lat="38.62163" lon="-119.90774999999996"><ele>2438.801492443459</ele></trkpt><trkpt lat="38.62184586376003" lon="-119.908009036512"><ele>2441.0</ele></trkpt><trkpt lat="38.621854426058036" lon="-119.9080193111277"><ele>2441.0</ele></trkpt><trkpt lat="38.62193" lon="-119.90810999999997"><ele>2441.2902209255844</ele></trkpt><trkpt lat="38.62208" lon="-119.90810999999997"><ele>2444.0</ele></trkpt><trkpt lat="38.62217" lon="-119.90798000000001"><ele>2446.0</ele></trkpt><trkpt lat="38.62223" lon="-119.90782000000002"><ele>2449.173000192742</ele></trkpt><trkpt lat="38.62244" lon="-119.90789000000001"><ele>2452.0</ele></trkpt><trkpt lat="38.62261" lon="-119.90814999999998"><ele>2453.0</ele></trkpt><trkpt lat="38.6227" lon="-119.90823"><ele>2455.0</ele></trkpt><trkpt lat="38.62282" lon="-119.90823999999998"><ele>2456.3789693005383</ele></trkpt><trkpt lat="38.62291" lon="-119.90810999999997"><ele>2458.8866542548485</ele></trkpt><trkpt lat="38.62294" lon="-119.90798000000001"><ele>2460.0</ele></trkpt><trkpt lat="38.62301" lon="-119.90795000000003"><ele>2461.997818373371</ele></trkpt><trkpt lat="38.62312" lon="-119.90798000000001"><ele>2463.0</ele></trkpt><trkpt lat="38.62321" lon="-119.90809000000002"><ele>2463.4831182216294</ele></trkpt><trkpt lat="38.62344" lon="-119.90805"><ele>2465.347253332846</ele></trkpt><trkpt lat="38.62359" lon="-119.90818999999999"><ele>2463.567540971813</ele></trkpt><trkpt lat="38.6237" lon="-119.90814"><ele>2465.1333508139514</ele></trkpt><trkpt lat="38.62379" lon="-119.90818000000002"><ele>2466.0694570323917</ele></trkpt><trkpt lat="38.62403" lon="-119.90819999999997"><ele>2470.913610425312</ele></trkpt><trkpt lat="38.62414" lon="-119.90831000000003"><ele>2472.3216148462993</ele></trkpt><trkpt lat="38.62444" lon="-119.90843999999998"><ele>2476.014112506062</ele></trkpt><trkpt lat="38.62464" lon="-119.90867000000003"><ele>2477.428021690147</ele></trkpt><trkpt lat="38.62467" lon="-119.90879999999999"><ele>2478.0</ele></trkpt><trkpt lat="38.62467" lon="-119.90879999999999"><ele>2478.0</ele></trkpt><trkpt lat="38.62479" lon="-119.90911"><ele>2478.0523271113634</ele></trkpt><trkpt lat="38.62486" lon="-119.90949999999998"><ele>2480.0</ele></trkpt><trkpt lat="38.62507" lon="-119.91026"><ele>2481.0</ele></trkpt><trkpt lat="38.62514" lon="-119.91035999999997"><ele>2481.0</ele></trkpt><trkpt lat="38.62516" lon="-119.91055"><ele>2480.0058406345897</ele></trkpt><trkpt lat="38.62511" lon="-119.91071999999997"><ele>2480.0172829038074</ele></trkpt><trkpt lat="38.62498" lon="-119.91074000000003"><ele>2481.0</ele></trkpt><trkpt lat="38.62441" lon="-119.91066999999998"><ele>2486.0</ele></trkpt><trkpt lat="38.62428" lon="-119.91071"><ele>2486.0</ele></trkpt><trkpt lat="38.62419" lon="-119.9108"><ele>2487.0</ele></trkpt><trkpt lat="38.62405" lon="-119.91102999999998"><ele>2489.0</ele></trkpt><trkpt lat="38.62407" lon="-119.91122000000001"><ele>2490.0</ele></trkpt><trkpt lat="38.62417" lon="-119.91131000000001"><ele>2492.0</ele></trkpt><trkpt lat="38.62426" lon="-119.91151000000002"><ele>2494.0</ele></trkpt><trkpt lat="38.6245" lon="-119.91161"><ele>2498.5932338070124</ele></trkpt><trkpt lat="38.62456" lon="-119.91174000000001"><ele>2500.1316953568235</ele></trkpt><trkpt lat="38.62468" lon="-119.91174000000001"><ele>2498.0</ele></trkpt><trkpt lat="38.62488" lon="-119.91161999999997"><ele>2498.026805332396</ele></trkpt><trkpt lat="38.62495" lon="-119.91163"><ele>2498.4367390275</ele></trkpt><trkpt lat="38.62499" lon="-119.91169000000002"><ele>2499.289041779004</ele></trkpt><trkpt lat="38.62499" lon="-119.91178000000002"><ele>2501.0856312147985</ele></trkpt><trkpt lat="38.62495" lon="-119.91185000000002"><ele>2503.745582223404</ele></trkpt><trkpt lat="38.62488" lon="-119.91188"><ele>2505.0</ele></trkpt><trkpt lat="38.6248" lon="-119.91187000000002"><ele>2505.0</ele></trkpt><trkpt lat="38.62458" lon="-119.91212000000002"><ele>2512.3284942233004</ele></trkpt><trkpt lat="38.6244" lon="-119.91217"><ele>2514.0</ele></trkpt><trkpt lat="38.62436" lon="-119.91221000000002"><ele>2515.2808427955024</ele></trkpt><trkpt lat="38.62398" lon="-119.91284999999999"><ele>2522.7228405629166</ele></trkpt><trkpt lat="38.62395" lon="-119.91311000000002"><ele>2525.784733965993</ele></trkpt><trkpt lat="38.62396" lon="-119.91323999999997"><ele>2526.3812498990446</ele></trkpt><trkpt lat="38.62402" lon="-119.91331000000002"><ele>2528.0</ele></trkpt><trkpt lat="38.62415" lon="-119.91334999999998"><ele>2528.4652584787773</ele></trkpt><trkpt lat="38.62433" lon="-119.91331000000002"><ele>2530.0</ele></trkpt><trkpt lat="38.62444" lon="-119.91332"><ele>2533.0</ele></trkpt><trkpt lat="38.62451" lon="-119.91336000000001"><ele>2534.0</ele></trkpt><trkpt lat="38.62462" lon="-119.91356000000002"><ele>2535.8601753017856</ele></trkpt><trkpt lat="38.62474" lon="-119.91358000000002"><ele>2538.0</ele></trkpt><trkpt lat="38.62485" lon="-119.91377999999997"><ele>2539.52849891223</ele></trkpt><trkpt lat="38.6249" lon="-119.91381999999999"><ele>2539.554236444179</ele></trkpt><trkpt lat="38.625" lon="-119.91381999999999"><ele>2540.419361114502</ele></trkpt><trkpt lat="38.62508" lon="-119.91386999999997"><ele>2543.0</ele></trkpt><trkpt lat="38.62524" lon="-119.91404999999997"><ele>2545.0</ele></trkpt><trkpt lat="38.62536" lon="-119.91424"><ele>2547.127655111719</ele></trkpt><trkpt lat="38.6254" lon="-119.91424999999998"><ele>2547.7076236847306</ele></trkpt><trkpt lat="38.62543" lon="-119.91430000000003"><ele>2549.923857779242</ele></trkpt><trkpt lat="38.62538" lon="-119.91435000000001"><ele>2551.254026667215</ele></trkpt><trkpt lat="38.62529" lon="-119.91435999999999"><ele>2551.7200604439713</ele></trkpt><trkpt lat="38.62514" lon="-119.91426000000001"><ele>2552.3027022071</ele></trkpt><trkpt lat="38.62506" lon="-119.91426000000001"><ele>2555.1164660742506</ele></trkpt><trkpt lat="38.62498" lon="-119.91431"><ele>2555.0882371495595</ele></trkpt><trkpt lat="38.62487" lon="-119.91447"><ele>2556.0</ele></trkpt><trkpt lat="38.62473" lon="-119.91476999999998"><ele>2560.0</ele></trkpt><trkpt lat="38.6247" lon="-119.91489999999999"><ele>2560.5236597750336</ele></trkpt><trkpt lat="38.62467" lon="-119.91512999999998"><ele>2559.8392167781385</ele></trkpt><trkpt lat="38.62467" lon="-119.91586000000001"><ele>2568.0</ele></trkpt><trkpt lat="38.62476" lon="-119.91622999999998"><ele>2566.0</ele></trkpt><trkpt lat="38.62478" lon="-119.91660999999999"><ele>2565.0</ele></trkpt><trkpt lat="38.62483" lon="-119.9169"><ele>2562.252658472702</ele></trkpt><trkpt lat="38.62481" lon="-119.91703999999999"><ele>2561.1381147665475</ele></trkpt><trkpt lat="38.62481" lon="-119.91728"><ele>2561.0854082405567</ele></trkpt><trkpt lat="38.62486" lon="-119.91737999999998"><ele>2564.0</ele></trkpt><trkpt lat="38.62494" lon="-119.91744"><ele>2565.0</ele></trkpt><trkpt lat="38.62518" lon="-119.91748000000001"><ele>2570.019225730015</ele></trkpt><trkpt lat="38.62524" lon="-119.91751"><ele>2572.0</ele></trkpt><trkpt lat="38.62528" lon="-119.91757000000001"><ele>2571.0</ele></trkpt><trkpt lat="38.62528" lon="-119.91796999999997"><ele>2572.1169867883</ele></trkpt><trkpt lat="38.62526" lon="-119.91805999999997"><ele>2573.0</ele></trkpt><trkpt lat="38.6253" lon="-119.91823999999997"><ele>2574.0</ele></trkpt><trkpt lat="38.62535" lon="-119.91827"><ele>2575.0</ele></trkpt><trkpt lat="38.62565" lon="-119.91832"><ele>2576.0</ele></trkpt><trkpt lat="38.62594" lon="-119.91823999999997"><ele>2578.0</ele></trkpt><trkpt lat="38.62615" lon="-119.91829999999999"><ele>2578.0</ele></trkpt><trkpt lat="38.62619" lon="-119.91838000000001"><ele>2577.5546547435406</ele></trkpt><trkpt lat="38.62621" lon="-119.91856000000001"><ele>2577.0</ele></trkpt><trkpt lat="38.6263" lon="-119.91874999999999"><ele>2577.66917899102</ele></trkpt><trkpt lat="38.6263" lon="-119.91886"><ele>2577.0</ele></trkpt><trkpt lat="38.62623" lon="-119.91899999999998"><ele>2576.2393927420753</ele></trkpt><trkpt lat="38.6262" lon="-119.91926999999998"><ele>2576.0</ele></trkpt><trkpt lat="38.62620247244403" lon="-119.91930090555041"><ele>2576.0</ele></trkpt><trkpt lat="38.62620537078959" lon="-119.91933713486333"><ele>2575.32864326844</ele></trkpt><trkpt lat="38.62622" lon="-119.91952000000003"><ele>2575.0</ele></trkpt><trkpt lat="38.62626" lon="-119.91973000000002"><ele>2577.4096013679</ele></trkpt><trkpt lat="38.62625" lon="-119.91980000000001"><ele>2578.0</ele></trkpt><trkpt lat="38.62614" lon="-119.91994999999997"><ele>2579.0986997202745</ele></trkpt><trkpt lat="38.6261" lon="-119.92007000000001"><ele>2581.0</ele></trkpt><trkpt lat="38.62619" lon="-119.9203"><ele>2581.0</ele></trkpt><trkpt lat="38.62629" lon="-119.92068999999998"><ele>2581.4520036717604</ele></trkpt><trkpt lat="38.62646" lon="-119.92097000000001"><ele>2582.881219152965</ele></trkpt><trkpt lat="38.62655" lon="-119.92102"><ele>2585.098556444049</ele></trkpt><trkpt lat="38.62676" lon="-119.92106999999999"><ele>2585.253383661605</ele></trkpt><trkpt lat="38.62712" lon="-119.92138"><ele>2586.0</ele></trkpt><trkpt lat="38.62713" lon="-119.92151000000001"><ele>2587.0</ele></trkpt><trkpt lat="38.62709" lon="-119.92158"><ele>2587.177819853746</ele></trkpt><trkpt lat="38.62704" lon="-119.92162000000002"><ele>2588.0</ele></trkpt><trkpt lat="38.62654" lon="-119.92169000000001"><ele>2593.2307708049584</ele></trkpt><trkpt lat="38.62651" lon="-119.92172"><ele>2594.720920888707</ele></trkpt><trkpt lat="38.62655" lon="-119.92178000000001"><ele>2595.5742587388895</ele></trkpt><trkpt lat="38.62663" lon="-119.92182000000003"><ele>2596.0</ele></trkpt><trkpt lat="38.62667" lon="-119.92201999999997"><ele>2594.0</ele></trkpt><trkpt lat="38.62675" lon="-119.92207000000002"><ele>2594.0</ele></trkpt><trkpt lat="38.62695" lon="-119.92198000000002"><ele>2594.0</ele></trkpt><trkpt lat="38.62712" lon="-119.92194999999998"><ele>2594.0</ele></trkpt><trkpt lat="38.62724" lon="-119.92196999999999"><ele>2596.0159726636525</ele></trkpt><trkpt lat="38.62728" lon="-119.92205999999999"><ele>2597.0</ele></trkpt><trkpt lat="38.62738" lon="-119.92205999999999"><ele>2594.7766413953573</ele></trkpt><trkpt lat="38.62772" lon="-119.92194999999998"><ele>2596.0</ele></trkpt><trkpt lat="38.62794" lon="-119.92196000000001"><ele>2596.274331088968</ele></trkpt><trkpt lat="38.62809" lon="-119.92203"><ele>2597.0</ele></trkpt><trkpt lat="38.62826" lon="-119.92205999999999"><ele>2598.8908097594976</ele></trkpt><trkpt lat="38.62842" lon="-119.92223000000001"><ele>2600.0</ele></trkpt><trkpt lat="38.6286" lon="-119.92232999999999"><ele>2599.147751516982</ele></trkpt><trkpt lat="38.62888" lon="-119.92263000000003"><ele>2597.8771779816598</ele></trkpt><trkpt lat="38.62915" lon="-119.92273"><ele>2600.9842447564006</ele></trkpt><trkpt lat="38.62919" lon="-119.92293000000001"><ele>2598.329355561723</ele></trkpt><trkpt lat="38.62927" lon="-119.92307"><ele>2598.052111860142</ele></trkpt><trkpt lat="38.62945" lon="-119.92318999999998"><ele>2599.6531705344096</ele></trkpt><trkpt lat="38.62951" lon="-119.92326000000003"><ele>2600.7355436018415</ele></trkpt><trkpt lat="38.62948" lon="-119.92374000000001"><ele>2599.6707420740277</ele></trkpt><trkpt lat="38.62941" lon="-119.92401999999998"><ele>2594.4948108308017</ele></trkpt><trkpt lat="38.62944" lon="-119.92434000000003"><ele>2591.0</ele></trkpt><trkpt lat="38.62952" lon="-119.92444999999998"><ele>2592.0</ele></trkpt><trkpt lat="38.62985" lon="-119.92458999999997"><ele>2595.5273848902434</ele></trkpt><trkpt lat="38.63016" lon="-119.92494999999997"><ele>2595.0</ele></trkpt><trkpt lat="38.63025" lon="-119.92502000000002"><ele>2593.487932443153</ele></trkpt><trkpt lat="38.63041" lon="-119.92500000000001"><ele>2592.1513583865017</ele></trkpt><trkpt lat="38.63058" lon="-119.92511000000002"><ele>2593.7924206118796</ele></trkpt><trkpt lat="38.63116" lon="-119.92532"><ele>2595.946426311654</ele></trkpt><trkpt lat="38.63127" lon="-119.92561"><ele>2594.456654794514</ele></trkpt><trkpt lat="38.63132" lon="-119.92563999999999"><ele>2595.0</ele></trkpt><trkpt lat="38.63144" lon="-119.92563000000001"><ele>2596.0</ele></trkpt><trkpt lat="38.63186" lon="-119.92534999999998"><ele>2599.0</ele></trkpt><trkpt lat="38.63206" lon="-119.92534999999998"><ele>2599.0449982143764</ele></trkpt><trkpt lat="38.63266" lon="-119.92502999999999"><ele>2606.0083572494946</ele></trkpt><trkpt lat="38.63303" lon="-119.92488000000003"><ele>2611.0</ele></trkpt><trkpt lat="38.63321" lon="-119.92476999999997"><ele>2612.0</ele></trkpt><trkpt lat="38.63358" lon="-119.92448000000002"><ele>2615.653756443411</ele></trkpt><trkpt lat="38.63383" lon="-119.92457000000002"><ele>2617.459452443756</ele></trkpt><trkpt lat="38.63404" lon="-119.9246"><ele>2619.0</ele></trkpt><trkpt lat="38.63404" lon="-119.9246"><ele>2619.0</ele></trkpt><trkpt lat="38.63433" lon="-119.92466999999999"><ele>2620.010427840005</ele></trkpt><trkpt lat="38.63435" lon="-119.92475000000002"><ele>2621.191641977218</ele></trkpt><trkpt lat="38.63433" lon="-119.92487"><ele>2622.0130492411554</ele></trkpt><trkpt lat="38.63437" lon="-119.92515000000003"><ele>2624.171564948139</ele></trkpt><trkpt lat="38.6345" lon="-119.9253"><ele>2625.5610133330338</ele></trkpt><trkpt lat="38.63443" lon="-119.92533000000003"><ele>2625.0</ele></trkpt><trkpt lat="38.63442" lon="-119.92539"><ele>2624.3824729286134</ele></trkpt><trkpt lat="38.63444" lon="-119.92566"><ele>2627.1947115599273</ele></trkpt><trkpt lat="38.63438" lon="-119.92592000000002"><ele>2629.0</ele></trkpt><trkpt lat="38.6344" lon="-119.9262"><ele>2631.0</ele></trkpt><trkpt lat="38.63445" lon="-119.92642000000001"><ele>2632.1722823213786</ele></trkpt><trkpt lat="38.63458" lon="-119.92656"><ele>2635.261054978611</ele></trkpt><trkpt lat="38.63457" lon="-119.92662000000001"><ele>2636.3833152930424</ele></trkpt><trkpt lat="38.63448" lon="-119.92676"><ele>2635.984910710379</ele></trkpt><trkpt lat="38.63448" lon="-119.92676"><ele>2635.984910710379</ele></trkpt><trkpt lat="38.63446" lon="-119.92680000000001"><ele>2635.768885616213</ele></trkpt><trkpt lat="38.63446" lon="-119.92692999999997"><ele>2636.768885616213</ele></trkpt><trkpt lat="38.63455" lon="-119.92788000000002"><ele>2644.0279780687083</ele></trkpt><trkpt lat="38.6347" lon="-119.92818"><ele>2647.0193357342714</ele></trkpt><trkpt lat="38.63462" lon="-119.92827999999997"><ele>2646.615516605292</ele></trkpt><trkpt lat="38.63459" lon="-119.92845999999997"><ele>2647.0</ele></trkpt><trkpt lat="38.63467" lon="-119.92867999999999"><ele>2649.29757408984</ele></trkpt><trkpt lat="38.6349" lon="-119.92916000000002"><ele>2655.008781902883</ele></trkpt><trkpt lat="38.63488" lon="-119.92941000000002"><ele>2657.0</ele></trkpt><trkpt lat="38.6349" lon="-119.92955"><ele>2658.0</ele></trkpt><trkpt lat="38.63502" lon="-119.92968000000002"><ele>2659.0</ele></trkpt><trkpt lat="38.6352" lon="-119.92971999999997"><ele>2661.917760586366</ele></trkpt><trkpt lat="38.63559" lon="-119.92966999999999"><ele>2664.7822257778607</ele></trkpt><trkpt lat="38.63621" lon="-119.92928"><ele>2672.9925384395306</ele></trkpt><trkpt lat="38.63684" lon="-119.92899999999997"><ele>2679.0</ele></trkpt><trkpt lat="38.63737" lon="-119.92892999999998"><ele>2685.2687253337353</ele></trkpt><trkpt lat="38.63785" lon="-119.92883"><ele>2689.0</ele></trkpt><trkpt lat="38.63793" lon="-119.92883"><ele>2689.0</ele></trkpt><trkpt lat="38.63818" lon="-119.92899"><ele>2690.0</ele></trkpt><trkpt lat="38.63822" lon="-119.92934000000002"><ele>2695.0</ele></trkpt><trkpt lat="38.6382" lon="-119.92946999999998"><ele>2696.0</ele></trkpt><trkpt lat="38.63811" lon="-119.92969"><ele>2697.0</ele></trkpt><trkpt lat="38.63805" lon="-119.92995000000002"><ele>2699.2546770081176</ele></trkpt><trkpt lat="38.63788" lon="-119.93036999999998"><ele>2701.682272490791</ele></trkpt><trkpt lat="38.63779" lon="-119.93079999999998"><ele>2705.4424122255296</ele></trkpt><trkpt lat="38.63778" lon="-119.9314"><ele>2710.8457812089473</ele></trkpt><trkpt lat="38.63787" lon="-119.93264999999997"><ele>2723.215463330969</ele></trkpt><trkpt lat="38.63777" lon="-119.93456000000003"><ele>2738.2491502780467</ele></trkpt><trkpt lat="38.63783838257626" lon="-119.93473095644066"><ele>2739.949385461049</ele></trkpt><trkpt lat="38.63785718458269" lon="-119.93477796137643"><ele>2739.853912083979</ele></trkpt><trkpt lat="38.63791" lon="-119.93491"><ele>2741.768945272558</ele></trkpt><trkpt lat="38.6381" lon="-119.9357"><ele>2748.9853627118064</ele></trkpt><trkpt lat="38.63841" lon="-119.93612999999999"><ele>2758.0</ele></trkpt><trkpt lat="38.63856" lon="-119.93646000000001"><ele>2762.383250279352</ele></trkpt><trkpt lat="38.63859" lon="-119.9366"><ele>2763.321317532671</ele></trkpt><trkpt lat="38.63851" lon="-119.93687"><ele>2764.3048864579973</ele></trkpt><trkpt lat="38.638339945130525" lon="-119.93732101508863"><ele>2765.198332387423</ele></trkpt><trkpt lat="38.63832792394513" lon="-119.93735289736293"><ele>2765.536745781079</ele></trkpt><trkpt lat="38.63828" lon="-119.93748"><ele>2765.6774338819087</ele></trkpt><trkpt lat="38.63825" lon="-119.93767000000003"><ele>2765.0</ele></trkpt><trkpt lat="38.63826" lon="-119.93781000000001"><ele>2765.0</ele></trkpt><trkpt lat="38.63834" lon="-119.93792000000002"><ele>2768.0</ele></trkpt><trkpt lat="38.63887" lon="-119.93887000000001"><ele>2779.8790517002344</ele></trkpt><trkpt lat="38.63891" lon="-119.93907000000002"><ele>2781.6081266625047</ele></trkpt><trkpt lat="38.63886" lon="-119.93938000000003"><ele>2782.471444227772</ele></trkpt><trkpt lat="38.63888" lon="-119.93948999999998"><ele>2782.0651964139347</ele></trkpt><trkpt lat="38.63929" lon="-119.93997000000002"><ele>2782.7674346654676</ele></trkpt><trkpt lat="38.63954" lon="-119.94019000000003"><ele>2779.368813167792</ele></trkpt><trkpt lat="38.63969" lon="-119.94025999999997"><ele>2778.0562704419717</ele></trkpt><trkpt lat="38.63991" lon="-119.94060000000002"><ele>2777.3373733237386</ele></trkpt><trkpt lat="38.64013" lon="-119.94076000000001"><ele>2779.0</ele></trkpt><trkpt lat="38.64032" lon="-119.94105000000002"><ele>2774.0</ele></trkpt><trkpt lat="38.64033" lon="-119.94119999999998"><ele>2772.0</ele></trkpt><trkpt lat="38.64039" lon="-119.94135"><ele>2772.0</ele></trkpt><trkpt lat="38.6404" lon="-119.94145000000003"><ele>2773.034114050468</ele></trkpt><trkpt lat="38.64034" lon="-119.94155"><ele>2770.7201356478035</ele></trkpt><trkpt lat="38.64034" lon="-119.94182"><ele>2767.814207908473</ele></trkpt><trkpt lat="38.64052" lon="-119.94213000000002"><ele>2764.0</ele></trkpt><trkpt lat="38.64064" lon="-119.94217000000003"><ele>2761.12344730931</ele></trkpt><trkpt lat="38.64077" lon="-119.94214999999997"><ele>2759.1720711127855</ele></trkpt><trkpt lat="38.64078" lon="-119.94216"><ele>2758.7060373327695</ele></trkpt><trkpt lat="38.64064" lon="-119.94240000000002"><ele>2754.7674866849375</ele></trkpt><trkpt lat="38.64057" lon="-119.94281000000001"><ele>2750.5950012468625</ele></trkpt><trkpt lat="38.6407" lon="-119.94294000000002"><ele>2751.0</ele></trkpt><trkpt lat="38.64075" lon="-119.94297"><ele>2751.0</ele></trkpt><trkpt lat="38.64079" lon="-119.94294000000002"><ele>2750.0</ele></trkpt><trkpt lat="38.64086" lon="-119.9425"><ele>2745.2488197386265</ele></trkpt><trkpt lat="38.6411" lon="-119.94232"><ele>2740.0681481789798</ele></trkpt><trkpt lat="38.64101" lon="-119.94256000000001"><ele>2737.4380722995847</ele></trkpt><trkpt lat="38.64103" lon="-119.94267000000002"><ele>2735.9534125466866</ele></trkpt><trkpt lat="38.64105" lon="-119.94324"><ele>2729.070698849153</ele></trkpt><trkpt lat="38.64101" lon="-119.94346000000002"><ele>2728.4380722995847</ele></trkpt><trkpt lat="38.64104" lon="-119.94409000000002"><ele>2722.648098340258</ele></trkpt><trkpt lat="38.64104" lon="-119.94472999999999"><ele>2714.977251825591</ele></trkpt><trkpt lat="38.64095" lon="-119.94495"><ele>2712.0</ele></trkpt><trkpt lat="38.64096" lon="-119.94501000000002"><ele>2711.0</ele></trkpt><trkpt lat="38.64115" lon="-119.94522"><ele>2708.0</ele></trkpt><trkpt lat="38.64163" lon="-119.94594999999998"><ele>2708.0</ele></trkpt><trkpt lat="38.64198" lon="-119.94636000000003"><ele>2708.0</ele></trkpt><trkpt lat="38.64217" lon="-119.94670000000002"><ele>2707.774799719453</ele></trkpt><trkpt lat="38.64222" lon="-119.94738999999998"><ele>2703.992834015792</ele></trkpt><trkpt lat="38.64263" lon="-119.94785999999999"><ele>2697.066784000024</ele></trkpt><trkpt lat="38.64296" lon="-119.94819000000001"><ele>2694.6270124328694</ele></trkpt><trkpt lat="38.64305" lon="-119.94833"><ele>2694.0459991609387</ele></trkpt><trkpt lat="38.64344" lon="-119.94873000000001"><ele>2690.288187019114</ele></trkpt><trkpt lat="38.64344" lon="-119.94873000000001"><ele>2690.288187019114</ele></trkpt><trkpt lat="38.6436" lon="-119.94907"><ele>2690.0991061832756</ele></trkpt><trkpt lat="38.64366" lon="-119.94939"><ele>2688.9241642854226</ele></trkpt><trkpt lat="38.64377" lon="-119.94972999999999"><ele>2686.222883089442</ele></trkpt><trkpt lat="38.64392" lon="-119.94981999999999"><ele>2686.724163556006</ele></trkpt><trkpt lat="38.6439549136735" lon="-119.94987395749541"><ele>2686.0578657898027</ele></trkpt><trkpt lat="38.64396187968825" lon="-119.94988472312377"><ele>2685.909951878252</ele></trkpt><trkpt lat="38.64403" lon="-119.94999000000001"><ele>2686.6063209156855</ele></trkpt><trkpt lat="38.64408" lon="-119.95026000000001"><ele>2685.7398145031184</ele></trkpt><trkpt lat="38.64405" lon="-119.95059000000003"><ele>2682.0</ele></trkpt><trkpt lat="38.6443166201129" lon="-119.95094171163828"><ele>2676.385164035385</ele></trkpt><trkpt lat="38.64431" lon="-119.95095000000003"><ele>2676.0289011224786</ele></trkpt><trkpt lat="38.64434" lon="-119.95114000000001"><ele>2670.408640129868</ele></trkpt><trkpt lat="38.64442" lon="-119.95141000000001"><ele>2662.651891858317</ele></trkpt><trkpt lat="38.64451" lon="-119.95155"><ele>2661.457743623873</ele></trkpt><trkpt lat="38.64458" lon="-119.95177999999999"><ele>2656.9556327820756</ele></trkpt><trkpt lat="38.64467011775659" lon="-119.95185724379132"><ele>2657.7436577116932</ele></trkpt><trkpt lat="38.64467496240322" lon="-119.95186139632006"><ele>2657.828581788577</ele></trkpt><trkpt lat="38.64472" lon="-119.95190000000002"><ele>2657.9847597270523</ele></trkpt><trkpt lat="38.6448" lon="-119.95202999999998"><ele>2655.9195426433635</ele></trkpt><trkpt lat="38.64486" lon="-119.95202"><ele>2658.05535553108</ele></trkpt><trkpt lat="38.64501" lon="-119.95208000000002"><ele>2659.4005297767</ele></trkpt><trkpt lat="38.64514" lon="-119.95202999999998"><ele>2662.7306986674666</ele></trkpt><trkpt lat="38.64514" lon="-119.95202999999998"><ele>2662.7306986674666</ele></trkpt><trkpt lat="38.64514" lon="-119.95202999999998"><ele>2662.7306986674666</ele></trkpt><trkpt lat="38.64529" lon="-119.95199000000002"><ele>2662.594833776355</ele></trkpt><trkpt lat="38.64548" lon="-119.95211"><ele>2661.0006710023326</ele></trkpt><trkpt lat="38.6456" lon="-119.95224999999999"><ele>2659.914612069726</ele></trkpt><trkpt lat="38.64569281613912" lon="-119.9524459451826"><ele>2657.98363183444</ele></trkpt><trkpt lat="38.645695666215005" lon="-119.95245196189063"><ele>2658.0</ele></trkpt><trkpt lat="38.64578" lon="-119.95263"><ele>2655.6324637689195</ele></trkpt><trkpt lat="38.64581" lon="-119.95265"><ele>2655.0</ele></trkpt><trkpt lat="38.64586" lon="-119.95263"><ele>2654.037831957923</ele></trkpt><trkpt lat="38.64637" lon="-119.95229999999998"><ele>2646.6740271825784</ele></trkpt><trkpt lat="38.64667" lon="-119.95204000000001"><ele>2644.0</ele></trkpt><trkpt lat="38.64679" lon="-119.95200999999997"><ele>2643.0</ele></trkpt><trkpt lat="38.64734" lon="-119.95197000000002"><ele>2641.473098667804</ele></trkpt><trkpt lat="38.64756" lon="-119.95206999999999"><ele>2640.0</ele></trkpt><trkpt lat="38.6477" lon="-119.95206999999999"><ele>2639.0</ele></trkpt><trkpt lat="38.64775060259466" lon="-119.95211722778424"><ele>2639.0</ele></trkpt><trkpt lat="38.64775060259466" lon="-119.95211722778424"><ele>2639.0</ele></trkpt><trkpt lat="38.64785" lon="-119.95220999999998"><ele>2640.695382103324</ele></trkpt><trkpt lat="38.64803" lon="-119.95218999999997"><ele>2643.0</ele></trkpt><trkpt lat="38.64813" lon="-119.95213999999999"><ele>2644.4034295920283</ele></trkpt><trkpt lat="38.6482" lon="-119.95202999999998"><ele>2645.156316407979</ele></trkpt><trkpt lat="38.64842" lon="-119.95191"><ele>2649.9057382523047</ele></trkpt><trkpt lat="38.64853" lon="-119.95188000000002"><ele>2650.0</ele></trkpt><trkpt lat="38.64867" lon="-119.95188999999999"><ele>2651.0</ele></trkpt><trkpt lat="38.6492" lon="-119.95220999999998"><ele>2649.0</ele></trkpt><trkpt lat="38.64924" lon="-119.95231000000001"><ele>2650.0</ele></trkpt><trkpt lat="38.64928" lon="-119.95272999999997"><ele>2654.002865690083</ele></trkpt><trkpt lat="38.64951" lon="-119.95317999999997"><ele>2657.7511890213937</ele></trkpt><trkpt lat="38.6496" lon="-119.95359000000002"><ele>2659.0035830259517</ele></trkpt><trkpt lat="38.64982" lon="-119.95425"><ele>2664.0</ele></trkpt><trkpt lat="38.64982" lon="-119.95436000000001"><ele>2665.0</ele></trkpt><trkpt lat="38.64964" lon="-119.95477"><ele>2669.4896220433197</ele></trkpt><trkpt lat="38.64966" lon="-119.95492000000002"><ele>2671.702128008008</ele></trkpt><trkpt lat="38.64943" lon="-119.95544999999998"><ele>2675.638074401956</ele></trkpt><trkpt lat="38.64946" lon="-119.95555999999999"><ele>2676.0</ele></trkpt><trkpt lat="38.64954" lon="-119.95567"><ele>2676.5846711191653</ele></trkpt><trkpt lat="38.64948" lon="-119.95614999999998"><ele>2679.0</ele></trkpt><trkpt lat="38.6495" lon="-119.95636000000002"><ele>2682.2068222452926</ele></trkpt><trkpt lat="38.64943" lon="-119.95654000000002"><ele>2684.4505351120606</ele></trkpt><trkpt lat="38.64934" lon="-119.95668"><ele>2686.5916486563606</ele></trkpt><trkpt lat="38.64911" lon="-119.95691"><ele>2689.693784888368</ele></trkpt><trkpt lat="38.64902" lon="-119.95704"><ele>2690.0</ele></trkpt><trkpt lat="38.64899" lon="-119.95713"><ele>2689.7214122842997</ele></trkpt><trkpt lat="38.64901" lon="-119.95721000000003"><ele>2690.0</ele></trkpt><trkpt lat="38.64931" lon="-119.95753000000002"><ele>2693.0</ele></trkpt><trkpt lat="38.64943" lon="-119.95760999999999"><ele>2694.0</ele></trkpt><trkpt lat="38.64969" lon="-119.95763999999997"><ele>2696.0</ele></trkpt><trkpt lat="38.64983" lon="-119.95756"><ele>2697.0</ele></trkpt><trkpt lat="38.64999" lon="-119.95763999999997"><ele>2700.285749334842</ele></trkpt><trkpt lat="38.65054" lon="-119.95808999999997"><ele>2707.0674590277517</ele></trkpt><trkpt lat="38.65079" lon="-119.95819"><ele>2709.6538915554993</ele></trkpt><trkpt lat="38.6512" lon="-119.95839999999998"><ele>2709.0</ele></trkpt><trkpt lat="38.6512" lon="-119.95839999999998"><ele>2709.0</ele></trkpt><trkpt lat="38.65159" lon="-119.95844"><ele>2711.002658751419</ele></trkpt><trkpt lat="38.65208" lon="-119.95853"><ele>2712.0</ele></trkpt><trkpt lat="38.65307" lon="-119.95861000000002"><ele>2710.0804728879593</ele></trkpt><trkpt lat="38.65347" lon="-119.95868999999999"><ele>2708.0</ele></trkpt><trkpt lat="38.65369" lon="-119.95875999999998"><ele>2708.0</ele></trkpt><trkpt lat="38.65401" lon="-119.95871999999997"><ele>2707.9541013347916</ele></trkpt><trkpt lat="38.65415" lon="-119.95875000000001"><ele>2707.3570882404542</ele></trkpt><trkpt lat="38.65443" lon="-119.95892000000003"><ele>2705.0</ele></trkpt><trkpt lat="38.65454" lon="-119.95902000000001"><ele>2703.973087999504</ele></trkpt><trkpt lat="38.65487" lon="-119.95919000000004"><ele>2703.62942118059</ele></trkpt><trkpt lat="38.65513" lon="-119.95937000000004"><ele>2702.083293987876</ele></trkpt><trkpt lat="38.65557" lon="-119.95952"><ele>2704.7975951104713</ele></trkpt><trkpt lat="38.65613" lon="-119.95978000000002"><ele>2707.9125977929575</ele></trkpt><trkpt lat="38.65644" lon="-119.95979"><ele>2710.392626332119</ele></trkpt><trkpt lat="38.65659" lon="-119.95983999999999"><ele>2711.758318223059</ele></trkpt><trkpt lat="38.65752" lon="-119.95987000000002"><ele>2720.360216887668</ele></trkpt><trkpt lat="38.65778" lon="-119.95983999999999"><ele>2723.758318223059</ele></trkpt><trkpt lat="38.65802" lon="-119.95978000000002"><ele>2725.2232358791316</ele></trkpt><trkpt lat="38.65834" lon="-119.95961"><ele>2725.63655316306</ele></trkpt><trkpt lat="38.658742817248786" lon="-119.95929593909415"><ele>2725.0</ele></trkpt><trkpt lat="38.65877790071979" lon="-119.95926858624199"><ele>2724.170855343342</ele></trkpt><trkpt lat="38.65893" lon="-119.95915000000002"><ele>2722.9146488877013</ele></trkpt><trkpt lat="38.65923" lon="-119.95906000000002"><ele>2721.0</ele></trkpt><trkpt lat="38.65959" lon="-119.95924000000002"><ele>2720.0</ele></trkpt><trkpt lat="38.65985" lon="-119.95929000000001"><ele>2719.0</ele></trkpt><trkpt lat="38.6601" lon="-119.95947000000001"><ele>2718.0</ele></trkpt><trkpt lat="38.66032" lon="-119.95974999999999"><ele>2715.0</ele></trkpt><trkpt lat="38.66044999988706" lon="-119.96007999943248"><ele>2715.6221660021693</ele></trkpt><trkpt lat="38.66044999988706" lon="-119.96007999943248"><ele>2715.6221660021693</ele></trkpt><trkpt lat="38.66045" lon="-119.96008"><ele>2715.622172743082</ele></trkpt><trkpt lat="38.6605" lon="-119.96044999999998"><ele>2714.0</ele></trkpt><trkpt lat="38.6605" lon="-119.96127000000001"><ele>2712.0</ele></trkpt><trkpt lat="38.66046" lon="-119.96185000000003"><ele>2707.0</ele></trkpt><trkpt lat="38.66041" lon="-119.96201000000002"><ele>2705.0</ele></trkpt><trkpt lat="38.66043" lon="-119.96222"><ele>2702.9098677706725</ele></trkpt><trkpt lat="38.66052" lon="-119.96257000000003"><ele>2698.0</ele></trkpt><trkpt lat="38.66052" lon="-119.96257000000003"><ele>2698.0</ele></trkpt><trkpt lat="38.66062" lon="-119.96274"><ele>2698.768121102825</ele></trkpt><trkpt lat="38.66062" lon="-119.96312999999998"><ele>2697.0</ele></trkpt><trkpt lat="38.66066" lon="-119.96321"><ele>2699.29506488936</ele></trkpt><trkpt lat="38.6608" lon="-119.96325999999999"><ele>2699.4890837930143</ele></trkpt><trkpt lat="38.66084" lon="-119.96330999999998"><ele>2698.004539666393</ele></trkpt><trkpt lat="38.66086" lon="-119.96343000000002"><ele>2696.0</ele></trkpt><trkpt lat="38.66084" lon="-119.96355"><ele>2695.0</ele></trkpt><trkpt lat="38.6607" lon="-119.96402999999998"><ele>2692.2241558566566</ele></trkpt><trkpt lat="38.66059" lon="-119.96415999999999"><ele>2693.0</ele></trkpt><trkpt lat="38.66055" lon="-119.96447999999998"><ele>2690.0</ele></trkpt><trkpt lat="38.66055" lon="-119.96461"><ele>2690.0</ele></trkpt><trkpt lat="38.66059" lon="-119.96476000000001"><ele>2691.0</ele></trkpt><trkpt lat="38.66056735073714" lon="-119.96485814680574"><ele>2691.0</ele></trkpt><trkpt lat="38.660563621284105" lon="-119.96487430777188"><ele>2691.0</ele></trkpt><trkpt lat="38.66056" lon="-119.96488999999997"><ele>2691.47853021448</ele></trkpt><trkpt lat="38.66059" lon="-119.96499"><ele>2691.022342119366</ele></trkpt><trkpt lat="38.66059" lon="-119.96528999999998"><ele>2692.022342119366</ele></trkpt><trkpt lat="38.66055" lon="-119.96551"><ele>2693.0</ele></trkpt><trkpt lat="38.66055069148405" lon="-119.96551217194758"><ele>2693.0</ele></trkpt><trkpt lat="38.66055069148405" lon="-119.96551217194758"><ele>2693.0</ele></trkpt><trkpt lat="38.66062" lon="-119.96573000000001"><ele>2694.0</ele></trkpt><trkpt lat="38.66064" lon="-119.96591999999998"><ele>2696.5676508707184</ele></trkpt><trkpt lat="38.66068" lon="-119.96600999999998"><ele>2698.0</ele></trkpt><trkpt lat="38.66091" lon="-119.96626000000003"><ele>2701.4353671129793</ele></trkpt><trkpt lat="38.66077" lon="-119.96622000000002"><ele>2703.8507835199125</ele></trkpt><trkpt lat="38.66054" lon="-119.96625"><ele>2705.969333333429</ele></trkpt><trkpt lat="38.66042" lon="-119.96679"><ele>2706.0</ele></trkpt><trkpt lat="38.66038" lon="-119.96690000000001"><ele>2704.0</ele></trkpt><trkpt lat="38.66029" lon="-119.96692999999999"><ele>2704.926933122799</ele></trkpt><trkpt lat="38.66023" lon="-119.96704999999997"><ele>2704.0</ele></trkpt><trkpt lat="38.66023" lon="-119.96762999999999"><ele>2708.281994665973</ele></trkpt><trkpt lat="38.66017" lon="-119.96778999999998"><ele>2710.0</ele></trkpt><trkpt lat="38.66011" lon="-119.96820000000002"><ele>2714.0</ele></trkpt><trkpt lat="38.65996" lon="-119.96852999999999"><ele>2717.0</ele></trkpt><trkpt lat="38.65996" lon="-119.96883000000003"><ele>2719.0</ele></trkpt><trkpt lat="38.65995916411882" lon="-119.96883529335872"><ele>2719.0</ele></trkpt><trkpt lat="38.65995916411882" lon="-119.96883529335872"><ele>2719.0</ele></trkpt><trkpt lat="38.65981" lon="-119.96978000000001"><ele>2713.298970455431</ele></trkpt><trkpt lat="38.65962" lon="-119.97008"><ele>2709.539729778189</ele></trkpt><trkpt lat="38.65949434040881" lon="-119.97051282748077"><ele>2709.0</ele></trkpt><trkpt lat="38.65949077744217" lon="-119.97052510007916"><ele>2709.0</ele></trkpt><trkpt lat="38.65944" lon="-119.97069999999997"><ele>2708.0</ele></trkpt><trkpt lat="38.65944" lon="-119.97069999999997"><ele>2708.0</ele></trkpt><trkpt lat="38.65923" lon="-119.97104999999999"><ele>2705.0</ele></trkpt><trkpt lat="38.65916" lon="-119.97143"><ele>2704.0</ele></trkpt><trkpt lat="38.65919" lon="-119.97158999999999"><ele>2702.0</ele></trkpt><trkpt lat="38.65923" lon="-119.97161"><ele>2701.0447623795962</ele></trkpt><trkpt lat="38.65939" lon="-119.97156999999999"><ele>2698.6764812246097</ele></trkpt><trkpt lat="38.65955" lon="-119.97140999999999"><ele>2697.0508591997204</ele></trkpt><trkpt lat="38.65975" lon="-119.97131999999999"><ele>2695.0</ele></trkpt><trkpt lat="38.65982" lon="-119.97131999999999"><ele>2693.9943620345866</ele></trkpt><trkpt lat="38.66005" lon="-119.97117000000003"><ele>2690.0</ele></trkpt><trkpt lat="38.66031" lon="-119.97108000000003"><ele>2686.936351998709</ele></trkpt><trkpt lat="38.66043" lon="-119.97108000000003"><ele>2685.936351998709</ele></trkpt><trkpt lat="38.66055" lon="-119.97113000000002"><ele>2684.606183109805</ele></trkpt><trkpt lat="38.66064" lon="-119.97111999999998"><ele>2683.0722168893553</ele></trkpt><trkpt lat="38.66058" lon="-119.97122999999999"><ele>2681.9458453333937</ele></trkpt><trkpt lat="38.66049" lon="-119.97134"><ele>2681.0</ele></trkpt><trkpt lat="38.66041" lon="-119.97153000000003"><ele>2676.9917392375373</ele></trkpt><trkpt lat="38.66036" lon="-119.97165999999999"><ele>2676.0</ele></trkpt><trkpt lat="38.66037" lon="-119.97176000000002"><ele>2674.0374945805074</ele></trkpt><trkpt lat="38.66043" lon="-119.97174999999999"><ele>2671.8766204891335</ele></trkpt><trkpt lat="38.66074" lon="-119.97154999999998"><ele>2668.0327644455247</ele></trkpt><trkpt lat="38.66093" lon="-119.97149999999999"><ele>2664.828235137079</ele></trkpt><trkpt lat="38.66104" lon="-119.97135000000003"><ele>2665.0</ele></trkpt><trkpt lat="38.66128" lon="-119.97086999999999"><ele>2661.841498184949</ele></trkpt><trkpt lat="38.66142" lon="-119.97069999999997"><ele>2660.4859162159264</ele></trkpt><trkpt lat="38.66142" lon="-119.97069999999997"><ele>2660.4859162159264</ele></trkpt><trkpt lat="38.6615" lon="-119.97064"><ele>2659.44183822209</ele></trkpt><trkpt lat="38.66176" lon="-119.97057000000001"><ele>2654.8977952338755</ele></trkpt><trkpt lat="38.66198" lon="-119.97045000000003"><ele>2652.359904990066</ele></trkpt><trkpt lat="38.66207" lon="-119.97014999999999"><ele>2652.0</ele></trkpt><trkpt lat="38.662177331859255" lon="-119.97000092797327"><ele>2652.06427976264</ele></trkpt><trkpt lat="38.66222364540169" lon="-119.96993660364802"><ele>2651.0</ele></trkpt><trkpt lat="38.66225" lon="-119.9699"><ele>2649.9489161949605</ele></trkpt><trkpt lat="38.66233" lon="-119.96955000000003"><ele>2646.174235256389</ele></trkpt><trkpt lat="38.66236" lon="-119.96947999999998"><ele>2645.6929467114537</ele></trkpt><trkpt lat="38.66247" lon="-119.96944000000002"><ele>2643.8849288333754</ele></trkpt><trkpt lat="38.6627" lon="-119.96924999999999"><ele>2643.220533333719</ele></trkpt><trkpt lat="38.66274" lon="-119.96915000000001"><ele>2643.703911723569</ele></trkpt><trkpt lat="38.66271" lon="-119.96901000000003"><ele>2642.795069403819</ele></trkpt><trkpt lat="38.66273" lon="-119.96895999999998"><ele>2642.22120590321</ele></trkpt><trkpt lat="38.66277" lon="-119.96895"><ele>2641.2015466657467</ele></trkpt><trkpt lat="38.66308" lon="-119.96895999999998"><ele>2641.1087946675266</ele></trkpt><trkpt lat="38.66324" lon="-119.96902"><ele>2637.129752419887</ele></trkpt><trkpt lat="38.6635" lon="-119.96949000000001"><ele>2635.03572266642</ele></trkpt><trkpt lat="38.66364339489298" lon="-119.96962144531858"><ele>2633.0</ele></trkpt><trkpt lat="38.66364339489298" lon="-119.96962144531858"><ele>2633.0</ele></trkpt><trkpt lat="38.66374" lon="-119.96971000000002"><ele>2632.0153528266765</ele></trkpt><trkpt lat="38.66392" lon="-119.96996999999999"><ele>2628.2763450611383</ele></trkpt><trkpt lat="38.66398" lon="-119.97017"><ele>2625.6952513456345</ele></trkpt><trkpt lat="38.6639" lon="-119.97035"><ele>2625.0</ele></trkpt><trkpt lat="38.664" lon="-119.97053"><ele>2626.0</ele></trkpt><trkpt lat="38.66401" lon="-119.97064999999998"><ele>2626.0</ele></trkpt><trkpt lat="38.66397" lon="-119.97069999999997"><ele>2626.0</ele></trkpt><trkpt lat="38.66397" lon="-119.97069999999997"><ele>2626.0</ele></trkpt><trkpt lat="38.66392" lon="-119.97081000000003"><ele>2625.0</ele></trkpt><trkpt lat="38.66396" lon="-119.97120999999999"><ele>2622.0</ele></trkpt><trkpt lat="38.66408" lon="-119.97149999999999"><ele>2622.0</ele></trkpt><trkpt lat="38.66419" lon="-119.97194999999999"><ele>2622.0</ele></trkpt><trkpt lat="38.66417" lon="-119.97246000000001"><ele>2622.0</ele></trkpt><trkpt lat="38.66434" lon="-119.97276"><ele>2621.4914018894256</ele></trkpt><trkpt lat="38.66462" lon="-119.97298"><ele>2618.303038992054</ele></trkpt><trkpt lat="38.66481" lon="-119.9733"><ele>2615.0</ele></trkpt><trkpt lat="38.66488" lon="-119.97347000000002"><ele>2613.0</ele></trkpt><trkpt lat="38.6649" lon="-119.97388000000001"><ele>2608.880956124511</ele></trkpt><trkpt lat="38.66494" lon="-119.97406999999998"><ele>2607.0</ele></trkpt><trkpt lat="38.66501" lon="-119.97428000000002"><ele>2604.2193413302302</ele></trkpt><trkpt lat="38.66505" lon="-119.97471000000002"><ele>2600.0</ele></trkpt><trkpt lat="38.66517" lon="-119.97498000000002"><ele>2595.6696060560644</ele></trkpt><trkpt lat="38.66529" lon="-119.9751"><ele>2594.0</ele></trkpt><trkpt lat="38.66534" lon="-119.9751"><ele>2594.4092266666703</ele></trkpt><trkpt lat="38.66554" lon="-119.97498999999999"><ele>2592.7029309800164</ele></trkpt><trkpt lat="38.66559" lon="-119.97498999999999"><ele>2591.170123045912</ele></trkpt><trkpt lat="38.66567" lon="-119.97509000000002"><ele>2589.8265457861125</ele></trkpt><trkpt lat="38.66575" lon="-119.9753"><ele>2589.0</ele></trkpt><trkpt lat="38.66582" lon="-119.97559000000001"><ele>2584.9690437769445</ele></trkpt><trkpt lat="38.66582" lon="-119.97575999999998"><ele>2582.0</ele></trkpt><trkpt lat="38.66586" lon="-119.97591999999997"><ele>2580.3033422966587</ele></trkpt><trkpt lat="38.66591" lon="-119.97593"><ele>2579.501802839339</ele></trkpt><trkpt lat="38.66622" lon="-119.97559000000001"><ele>2574.0</ele></trkpt><trkpt lat="38.6663" lon="-119.97555999999997"><ele>2573.0</ele></trkpt><trkpt lat="38.66639" lon="-119.97559000000001"><ele>2571.0</ele></trkpt><trkpt lat="38.66652" lon="-119.97570999999999"><ele>2569.077754731146</ele></trkpt><trkpt lat="38.66655" lon="-119.97582"><ele>2568.3276106113462</ele></trkpt><trkpt lat="38.6665" lon="-119.97595999999999"><ele>2567.0</ele></trkpt><trkpt lat="38.66656" lon="-119.97617000000002"><ele>2566.0</ele></trkpt><trkpt lat="38.66658" lon="-119.97634"><ele>2566.101005729849</ele></trkpt><trkpt lat="38.66659" lon="-119.97638"><ele>2566.0563043226307</ele></trkpt><trkpt lat="38.66662" lon="-119.97638"><ele>2566.0</ele></trkpt><trkpt lat="38.66662" lon="-119.97627"><ele>2564.116109129596</ele></trkpt><trkpt lat="38.66667" lon="-119.97606999999999"><ele>2562.1398000773042</ele></trkpt><trkpt lat="38.66678" lon="-119.97582999999997"><ele>2559.327474682722</ele></trkpt><trkpt lat="38.66679" lon="-119.97568000000001"><ele>2557.9872889087787</ele></trkpt><trkpt lat="38.66671" lon="-119.97541999999999"><ele>2555.8321443327814</ele></trkpt><trkpt lat="38.66671" lon="-119.97505000000001"><ele>2554.0</ele></trkpt><trkpt lat="38.66675" lon="-119.97494"><ele>2553.0</ele></trkpt><trkpt lat="38.66684" lon="-119.97487000000001"><ele>2551.0</ele></trkpt><trkpt lat="38.66691" lon="-119.97476"><ele>2551.0</ele></trkpt><trkpt lat="38.66707" lon="-119.97469000000001"><ele>2549.0</ele></trkpt><trkpt lat="38.66707" lon="-119.97469000000001"><ele>2549.0</ele></trkpt><trkpt lat="38.66707" lon="-119.97469000000001"><ele>2549.0</ele></trkpt><trkpt lat="38.66725" lon="-119.97468000000003"><ele>2547.0</ele></trkpt><trkpt lat="38.66749" lon="-119.97489999999999"><ele>2545.0</ele></trkpt><trkpt lat="38.66764" lon="-119.97514000000001"><ele>2544.0</ele></trkpt><trkpt lat="38.66795" lon="-119.97536000000002"><ele>2543.0</ele></trkpt><trkpt lat="38.668" lon="-119.97546"><ele>2541.0</ele></trkpt><trkpt lat="38.66808" lon="-119.97548"><ele>2540.863923717694</ele></trkpt><trkpt lat="38.66836" lon="-119.97537999999997"><ele>2536.664299346306</ele></trkpt><trkpt lat="38.66836" lon="-119.97537999999997"><ele>2536.664299346306</ele></trkpt><trkpt lat="38.66848" lon="-119.97532999999999"><ele>2535.8853946348186</ele></trkpt><trkpt lat="38.66859" lon="-119.97532000000001"><ele>2533.64325683728</ele></trkpt><trkpt lat="38.66859" lon="-119.97532000000001"><ele>2533.64325683728</ele></trkpt><trkpt lat="38.66859" lon="-119.97532000000001"><ele>2533.64325683728</ele></trkpt><trkpt lat="38.66927" lon="-119.97552000000002"><ele>2527.0</ele></trkpt><trkpt lat="38.66937" lon="-119.97557999999998"><ele>2527.0</ele></trkpt><trkpt lat="38.66952" lon="-119.97577000000001"><ele>2525.366510221269</ele></trkpt><trkpt lat="38.66958" lon="-119.97602"><ele>2527.0</ele></trkpt><trkpt lat="38.66964" lon="-119.97604000000001"><ele>2527.0</ele></trkpt><trkpt lat="38.66975" lon="-119.976"><ele>2526.0</ele></trkpt><trkpt lat="38.66987" lon="-119.97600999999997"><ele>2525.0</ele></trkpt><trkpt lat="38.67009" lon="-119.97597999999999"><ele>2523.0</ele></trkpt><trkpt lat="38.67035" lon="-119.97611999999998"><ele>2524.4861307530778</ele></trkpt><trkpt lat="38.67047" lon="-119.97624000000002"><ele>2522.0</ele></trkpt><trkpt lat="38.67057" lon="-119.97627"><ele>2523.0</ele></trkpt><trkpt lat="38.67055" lon="-119.97658999999999"><ele>2526.3839777919347</ele></trkpt><trkpt lat="38.67045" lon="-119.97681"><ele>2529.0521547569724</ele></trkpt><trkpt lat="38.67051" lon="-119.9769"><ele>2531.06505022943</ele></trkpt><trkpt lat="38.67061" lon="-119.9769"><ele>2533.010067233961</ele></trkpt><trkpt lat="38.67075" lon="-119.97703000000001"><ele>2532.0</ele></trkpt><trkpt lat="38.67097" lon="-119.97707000000003"><ele>2530.8960067127277</ele></trkpt><trkpt lat="38.67105" lon="-119.97712000000001"><ele>2531.0</ele></trkpt><trkpt lat="38.67116" lon="-119.97730999999999"><ele>2532.0</ele></trkpt><trkpt lat="38.67121" lon="-119.97757000000001"><ele>2536.519569778815</ele></trkpt><trkpt lat="38.67126" lon="-119.97768000000002"><ele>2537.645941334311</ele></trkpt><trkpt lat="38.67129" lon="-119.97770000000003"><ele>2537.2174540953197</ele></trkpt><trkpt lat="38.67137" lon="-119.97770000000003"><ele>2537.7464134853526</ele></trkpt><trkpt lat="38.67147" lon="-119.97753999999998"><ele>2535.1214684434235</ele></trkpt><trkpt lat="38.67156" lon="-119.97748000000001"><ele>2537.06565761799</ele></trkpt><trkpt lat="38.6716" lon="-119.97741000000002"><ele>2537.008070406931</ele></trkpt><trkpt lat="38.67164" lon="-119.97739999999999"><ele>2537.0</ele></trkpt><trkpt lat="38.67204" lon="-119.97746000000001"><ele>2537.0</ele></trkpt><trkpt lat="38.67249" lon="-119.97739999999999"><ele>2541.0</ele></trkpt><trkpt lat="38.67295" lon="-119.97739999999999"><ele>2545.425072737763</ele></trkpt><trkpt lat="38.67352" lon="-119.97751"><ele>2549.7233671112917</ele></trkpt><trkpt lat="38.67386" lon="-119.97744999999998"><ele>2550.0</ele></trkpt><trkpt lat="38.67421" lon="-119.97746000000001"><ele>2554.0</ele></trkpt><trkpt lat="38.6744" lon="-119.97741000000002"><ele>2556.016820894729</ele></trkpt><trkpt lat="38.674497249084475" lon="-119.97735442909459"><ele>2557.4732374348678</ele></trkpt><trkpt lat="38.67450795157173" lon="-119.97734831340142"><ele>2557.1882254760712</ele></trkpt><trkpt lat="38.67454" lon="-119.97733"><ele>2557.7498609650183</ele></trkpt><trkpt lat="38.67487" lon="-119.97701"><ele>2557.030132207774</ele></trkpt><trkpt lat="38.67517" lon="-119.97688"><ele>2560.0839805192154</ele></trkpt><trkpt lat="38.67534" lon="-119.97674999999998"><ele>2560.6840334730223</ele></trkpt><trkpt lat="38.67581" lon="-119.97627999999997"><ele>2567.4356895051897</ele></trkpt><trkpt lat="38.67601" lon="-119.97602"><ele>2570.0</ele></trkpt><trkpt lat="38.67608" lon="-119.97602"><ele>2571.0</ele></trkpt><trkpt lat="38.67609" lon="-119.97618999999997"><ele>2574.031090376794</ele></trkpt><trkpt lat="38.67601" lon="-119.97638999999998"><ele>2575.7045807208838</ele></trkpt><trkpt lat="38.67596" lon="-119.97649000000001"><ele>2577.187921778299</ele></trkpt><trkpt lat="38.67573" lon="-119.97674"><ele>2578.4988757339306</ele></trkpt><trkpt lat="38.67566" lon="-119.97692"><ele>2580.1094764582567</ele></trkpt><trkpt lat="38.67574" lon="-119.97690999999998"><ele>2583.1957076775147</ele></trkpt><trkpt lat="38.67581" lon="-119.97681999999998"><ele>2584.0027259485796</ele></trkpt><trkpt lat="38.67622" lon="-119.97658999999999"><ele>2588.834697108378</ele></trkpt><trkpt lat="38.67638" lon="-119.97645"><ele>2589.1495413445955</ele></trkpt><trkpt lat="38.67652" lon="-119.97627999999997"><ele>2588.2204082878307</ele></trkpt><trkpt lat="38.67672" lon="-119.97579999999999"><ele>2592.0239551478508</ele></trkpt><trkpt lat="38.67688" lon="-119.97559999999999"><ele>2594.3095850348473</ele></trkpt><trkpt lat="38.67698" lon="-119.97559999999999"><ele>2597.0</ele></trkpt><trkpt lat="38.67704" lon="-119.97575999999998"><ele>2599.0</ele></trkpt><trkpt lat="38.67708" lon="-119.97577000000001"><ele>2600.0</ele></trkpt><trkpt lat="38.67714" lon="-119.97573"><ele>2601.0</ele></trkpt><trkpt lat="38.6773" lon="-119.97537999999997"><ele>2606.3818423748016</ele></trkpt><trkpt lat="38.67739" lon="-119.97485"><ele>2610.0</ele></trkpt><trkpt lat="38.6775" lon="-119.97453999999999"><ele>2611.0999585733634</ele></trkpt><trkpt lat="38.67755" lon="-119.97451000000001"><ele>2611.9132337784395</ele></trkpt><trkpt lat="38.67768" lon="-119.97456999999997"><ele>2613.7094364436343</ele></trkpt><trkpt lat="38.67783" lon="-119.97471999999999"><ele>2617.7062002791063</ele></trkpt><trkpt lat="38.67794" lon="-119.97471999999999"><ele>2618.699943111278</ele></trkpt><trkpt lat="38.67822" lon="-119.97489999999999"><ele>2622.0885511110537</ele></trkpt><trkpt lat="38.67835" lon="-119.97492999999997"><ele>2623.4866524431854</ele></trkpt><trkpt lat="38.67842" lon="-119.97498000000002"><ele>2624.772507748628</ele></trkpt><trkpt lat="38.67854" lon="-119.97516999999999"><ele>2627.2659073355608</ele></trkpt><trkpt lat="38.67864" lon="-119.97525000000002"><ele>2628.3997333338484</ele></trkpt><trkpt lat="38.67877" lon="-119.97525999999999"><ele>2630.1176592033944</ele></trkpt><trkpt lat="38.67898" lon="-119.97519"><ele>2634.275873665232</ele></trkpt><trkpt lat="38.67914" lon="-119.97509000000002"><ele>2635.167134914547</ele></trkpt><trkpt lat="38.67992" lon="-119.97408999999999"><ele>2645.1281081819907</ele></trkpt><trkpt lat="38.68009" lon="-119.97405000000003"><ele>2646.4756800020114</ele></trkpt><trkpt lat="38.68037" lon="-119.97404"><ele>2649.655923960314</ele></trkpt><trkpt lat="38.68051" lon="-119.97408000000001"><ele>2650.873781334143</ele></trkpt><trkpt lat="38.68078" lon="-119.97426000000002"><ele>2653.0</ele></trkpt><trkpt lat="38.68083" lon="-119.97431"><ele>2653.592558222823</ele></trkpt><trkpt lat="38.68086" lon="-119.97442000000001"><ele>2655.0</ele></trkpt><trkpt lat="38.68076" lon="-119.97453000000002"><ele>2657.0</ele></trkpt><trkpt lat="38.68052" lon="-119.97467"><ele>2659.369774222374</ele></trkpt><trkpt lat="38.68034" lon="-119.97471000000002"><ele>2662.0</ele></trkpt><trkpt lat="38.68019" lon="-119.97482000000002"><ele>2664.326717308971</ele></trkpt><trkpt lat="38.68009" lon="-119.97507999999999"><ele>2667.0</ele></trkpt><trkpt lat="38.68019" lon="-119.97523999999999"><ele>2669.0</ele></trkpt><trkpt lat="38.68019" lon="-119.97532000000001"><ele>2669.0</ele></trkpt><trkpt lat="38.68015" lon="-119.97546"><ele>2670.1864426671527</ele></trkpt><trkpt lat="38.68006" lon="-119.97552000000002"><ele>2671.0</ele></trkpt><trkpt lat="38.68005" lon="-119.97555999999997"><ele>2671.9309083350745</ele></trkpt><trkpt lat="38.68006" lon="-119.97559999999999"><ele>2672.0</ele></trkpt><trkpt lat="38.68015" lon="-119.97561999999999"><ele>2673.333646331358</ele></trkpt><trkpt lat="38.68035" lon="-119.97555999999997"><ele>2674.0</ele></trkpt><trkpt lat="38.68073" lon="-119.97557999999998"><ele>2679.0</ele></trkpt><trkpt lat="38.68077730624466" lon="-119.97578814138268"><ele>2679.4954837193345</ele></trkpt><trkpt lat="38.68078404408991" lon="-119.97581011022476"><ele>2680.0</ele></trkpt><trkpt lat="38.68088" lon="-119.97604999999999"><ele>2683.0</ele></trkpt><trkpt lat="38.68087" lon="-119.97622999999999"><ele>2683.0</ele></trkpt><trkpt lat="38.68078" lon="-119.97647"><ele>2683.0</ele></trkpt><trkpt lat="38.68071" lon="-119.97658999999999"><ele>2683.0</ele></trkpt><trkpt lat="38.68051" lon="-119.97687000000002"><ele>2683.0</ele></trkpt><trkpt lat="38.68038" lon="-119.97685000000001"><ele>2682.9651377787814</ele></trkpt><trkpt lat="38.68025" lon="-119.97694000000001"><ele>2682.0</ele></trkpt><trkpt lat="38.68015" lon="-119.97708"><ele>2682.0</ele></trkpt><trkpt lat="38.68005" lon="-119.97726999999998"><ele>2682.5385564435273</ele></trkpt><trkpt lat="38.67994" lon="-119.97739999999999"><ele>2683.0</ele></trkpt><trkpt lat="38.67989" lon="-119.97753999999998"><ele>2683.0</ele></trkpt><trkpt lat="38.67966" lon="-119.97789999999998"><ele>2679.3410722852377</ele></trkpt><trkpt lat="38.67958" lon="-119.97795000000002"><ele>2679.0</ele></trkpt><trkpt lat="38.67953" lon="-119.97824000000003"><ele>2680.3674131984512</ele></trkpt><trkpt lat="38.67953" lon="-119.97851000000003"><ele>2682.493945889175</ele></trkpt><trkpt lat="38.67964" lon="-119.97878000000003"><ele>2681.9934206171947</ele></trkpt><trkpt lat="38.67993" lon="-119.97919999999999"><ele>2684.6147247757763</ele></trkpt><trkpt lat="38.68004" lon="-119.97946999999999"><ele>2690.224644423744</ele></trkpt><trkpt lat="38.68025" lon="-119.97982000000002"><ele>2697.377169779036</ele></trkpt><trkpt lat="38.68058" lon="-119.98019"><ele>2704.5029777421087</ele></trkpt><trkpt lat="38.68064" lon="-119.98034999999999"><ele>2707.2287786062807</ele></trkpt><trkpt lat="38.68069" lon="-119.98064999999997"><ele>2712.01413604151</ele></trkpt><trkpt lat="38.68073" lon="-119.98077"><ele>2712.5566474972006</ele></trkpt><trkpt lat="38.68092" lon="-119.98099000000002"><ele>2715.4633724428786</ele></trkpt><trkpt lat="38.68092" lon="-119.98102"><ele>2716.301223111339</ele></trkpt><trkpt lat="38.68076" lon="-119.98097000000001"><ele>2718.972933243511</ele></trkpt><trkpt lat="38.68056" lon="-119.98077999999998"><ele>2722.0005449130445</ele></trkpt><trkpt lat="38.68066" lon="-119.98115000000001"><ele>2726.0</ele></trkpt><trkpt lat="38.68087" lon="-119.98149000000001"><ele>2730.702840480488</ele></trkpt><trkpt lat="38.68096" lon="-119.98158000000001"><ele>2732.3991146669723</ele></trkpt><trkpt lat="38.68113" lon="-119.98169000000001"><ele>2734.5254862233996</ele></trkpt><trkpt lat="38.68145" lon="-119.98180000000002"><ele>2739.6518577788956</ele></trkpt><trkpt lat="38.68148492543929" lon="-119.98180283179238"><ele>2739.783828868065</ele></trkpt><trkpt lat="38.68151331595654" lon="-119.98180513371517"><ele>2739.891106245108</ele></trkpt><trkpt lat="38.68182" lon="-119.98183"><ele>2745.0499591110274</ele></trkpt><trkpt lat="38.68208" lon="-119.98202000000003"><ele>2748.1662255232222</ele></trkpt><trkpt lat="38.68236" lon="-119.98214999999999"><ele>2749.0</ele></trkpt><trkpt lat="38.6826" lon="-119.98244"><ele>2752.5915529244407</ele></trkpt><trkpt lat="38.68298" lon="-119.98275999999998"><ele>2759.0</ele></trkpt><trkpt lat="38.68316" lon="-119.98302000000001"><ele>2759.0</ele></trkpt><trkpt lat="38.68333" lon="-119.98354"><ele>2758.0</ele></trkpt><trkpt lat="38.68335" lon="-119.98388999999997"><ele>2755.4419351927936</ele></trkpt><trkpt lat="38.68341" lon="-119.98422"><ele>2752.0</ele></trkpt><trkpt lat="38.68353" lon="-119.98451"><ele>2750.0</ele></trkpt><trkpt lat="38.68352" lon="-119.98498999999998"><ele>2745.0</ele></trkpt><trkpt lat="38.68339" lon="-119.98536999999999"><ele>2741.0</ele></trkpt><trkpt lat="38.68315" lon="-119.98568999999998"><ele>2740.0</ele></trkpt><trkpt lat="38.68305" lon="-119.98577999999998"><ele>2740.0</ele></trkpt><trkpt lat="38.68279" lon="-119.9862"><ele>2737.256445512046</ele></trkpt><trkpt lat="38.6828" lon="-119.98624999999998"><ele>2736.0</ele></trkpt><trkpt lat="38.683" lon="-119.98622"><ele>2732.1218223329</ele></trkpt><trkpt lat="38.6832" lon="-119.98608000000002"><ele>2731.0</ele></trkpt><trkpt lat="38.68338" lon="-119.98608999999999"><ele>2730.0</ele></trkpt><trkpt lat="38.68361" lon="-119.98602"><ele>2727.6818879996426</ele></trkpt><trkpt lat="38.68372" lon="-119.98608999999999"><ele>2726.0</ele></trkpt><trkpt lat="38.68383" lon="-119.98633000000001"><ele>2724.0</ele></trkpt><trkpt lat="38.68388" lon="-119.98636999999997"><ele>2724.0</ele></trkpt><trkpt lat="38.68441" lon="-119.98651999999998"><ele>2717.3801991115324</ele></trkpt><trkpt lat="38.68451" lon="-119.98651000000001"><ele>2717.846232888289</ele></trkpt><trkpt lat="38.68463" lon="-119.98662999999999"><ele>2715.2538275560364</ele></trkpt><trkpt lat="38.68482" lon="-119.98698000000002"><ele>2712.9609726145854</ele></trkpt><trkpt lat="38.68505" lon="-119.98720000000003"><ele>2709.6899022208527</ele></trkpt><trkpt lat="38.68505" lon="-119.98720000000003"><ele>2709.6899022208527</ele></trkpt><trkpt lat="38.68505" lon="-119.98720000000003"><ele>2709.6899022208527</ele></trkpt><trkpt lat="38.68525" lon="-119.98720000000003"><ele>2709.0</ele></trkpt><trkpt lat="38.68551" lon="-119.98707000000002"><ele>2702.7483413321897</ele></trkpt><trkpt lat="38.68551" lon="-119.98707000000002"><ele>2702.7483413321897</ele></trkpt><trkpt lat="38.68561" lon="-119.98702000000003"><ele>2700.593890596181</ele></trkpt><trkpt lat="38.68595" lon="-119.98665"><ele>2703.4684811865386</ele></trkpt><trkpt lat="38.68626" lon="-119.98654999999997"><ele>2699.0</ele></trkpt><trkpt lat="38.68634" lon="-119.98657000000003"><ele>2698.0</ele></trkpt><trkpt lat="38.68641" lon="-119.98662000000002"><ele>2697.0</ele></trkpt><trkpt lat="38.68645256706911" lon="-119.98668739785944"><ele>2696.0</ele></trkpt><trkpt lat="38.68645" lon="-119.98669000000001"><ele>2696.0</ele></trkpt><trkpt lat="38.6867" lon="-119.98633999999998"><ele>2695.0</ele></trkpt><trkpt lat="38.6867" lon="-119.98633999999998"><ele>2695.0</ele></trkpt><trkpt lat="38.68684" lon="-119.98644000000002"><ele>2695.0</ele></trkpt><trkpt lat="38.68707" lon="-119.98647"><ele>2695.0</ele></trkpt><trkpt lat="38.687122194688854" lon="-119.98649007486944"><ele>2695.0</ele></trkpt><trkpt lat="38.68707" lon="-119.98647"><ele>2695.0</ele></trkpt><trkpt lat="38.68688295468195" lon="-119.98644560278461"><ele>2695.0</ele></trkpt><trkpt lat="38.68686903269488" lon="-119.98644378686794"><ele>2695.0</ele></trkpt><trkpt lat="38.68684" lon="-119.98644000000002"><ele>2695.0</ele></trkpt><trkpt lat="38.68675014914856" lon="-119.9863758208204"><ele>2695.0</ele></trkpt><trkpt lat="38.68668514051949" lon="-119.98645010798282"><ele>2696.0</ele></trkpt><trkpt lat="38.68660976846276" lon="-119.98650375216312"><ele>2697.0</ele></trkpt><trkpt lat="38.68659521814438" lon="-119.98648669474676"><ele>2697.0</ele></trkpt><trkpt lat="38.68645" lon="-119.98669000000001"><ele>2696.0</ele></trkpt><trkpt lat="38.68645256706911" lon="-119.98668739785944"><ele>2696.0</ele></trkpt><trkpt lat="38.68653" lon="-119.98680999999999"><ele>2694.0</ele></trkpt><trkpt lat="38.68665588504982" lon="-119.98688553102988"><ele>2692.3201926598417</ele></trkpt><trkpt lat="38.686673911754504" lon="-119.98689634704903"><ele>2691.841754394061</ele></trkpt><trkpt lat="38.68668" lon="-119.98689999999999"><ele>2691.7917759535985</ele></trkpt><trkpt lat="38.68684" lon="-119.98708999999997"><ele>2690.0</ele></trkpt><trkpt lat="38.68689" lon="-119.98717999999997"><ele>2689.9641210322056</ele></trkpt><trkpt lat="38.68689" lon="-119.98761999999999"><ele>2687.0</ele></trkpt><trkpt lat="38.68683" lon="-119.98793999999998"><ele>2688.0</ele></trkpt><trkpt lat="38.68683" lon="-119.98822999999999"><ele>2687.0</ele></trkpt><trkpt lat="38.68661" lon="-119.98885999999999"><ele>2680.061717852819</ele></trkpt><trkpt lat="38.68649" lon="-119.98935"><ele>2676.492639999371</ele></trkpt><trkpt lat="38.68661" lon="-119.98942999999997"><ele>2673.5763747380115</ele></trkpt><trkpt lat="38.68685" lon="-119.98937999999998"><ele>2672.0</ele></trkpt><trkpt lat="38.68732" lon="-119.98946000000001"><ele>2674.0</ele></trkpt><trkpt lat="38.68737" lon="-119.98966000000001"><ele>2672.0</ele></trkpt><trkpt lat="38.68739" lon="-119.98986000000002"><ele>2672.0</ele></trkpt><trkpt lat="38.68735" lon="-119.99005999999997"><ele>2671.624094464753</ele></trkpt><trkpt lat="38.68724" lon="-119.99014999999997"><ele>2671.0</ele></trkpt><trkpt lat="38.68707" lon="-119.99022000000002"><ele>2670.0</ele></trkpt><trkpt lat="38.68697" lon="-119.99035000000003"><ele>2669.0</ele></trkpt><trkpt lat="38.68693" lon="-119.99047999999999"><ele>2668.0</ele></trkpt><trkpt lat="38.68698" lon="-119.99061"><ele>2668.0</ele></trkpt><trkpt lat="38.68709" lon="-119.9907"><ele>2666.0</ele></trkpt><trkpt lat="38.68721" lon="-119.99086999999997"><ele>2664.0</ele></trkpt><trkpt lat="38.6873" lon="-119.99121000000002"><ele>2661.500666390095</ele></trkpt><trkpt lat="38.68726" lon="-119.99131999999997"><ele>2661.9970154398075</ele></trkpt><trkpt lat="38.68705" lon="-119.99153999999999"><ele>2657.691588245788</ele></trkpt><trkpt lat="38.68703" lon="-119.99166000000002"><ele>2657.0</ele></trkpt><trkpt lat="38.6872" lon="-119.99211000000003"><ele>2655.358529833192</ele></trkpt><trkpt lat="38.68744" lon="-119.99252000000001"><ele>2654.0</ele></trkpt><trkpt lat="38.68758" lon="-119.99261999999999"><ele>2654.0</ele></trkpt><trkpt lat="38.68818" lon="-119.99256000000003"><ele>2652.9037190415656</ele></trkpt><trkpt lat="38.68828" lon="-119.99268000000001"><ele>2650.3768895008466</ele></trkpt><trkpt lat="38.68828" lon="-119.99268000000001"><ele>2650.3768895008466</ele></trkpt><trkpt lat="38.68832" lon="-119.99272000000002"><ele>2650.0</ele></trkpt><trkpt lat="38.68845" lon="-119.99277000000001"><ele>2648.0</ele></trkpt><trkpt lat="38.6886" lon="-119.99279000000001"><ele>2647.0</ele></trkpt><trkpt lat="38.68902" lon="-119.99268000000001"><ele>2644.9466686971045</ele></trkpt><trkpt lat="38.68902" lon="-119.99268000000001"><ele>2644.9466686971045</ele></trkpt><trkpt lat="38.68958" lon="-119.99252000000001"><ele>2637.0</ele></trkpt><trkpt lat="38.6901" lon="-119.99221999999997"><ele>2630.326524985277</ele></trkpt><trkpt lat="38.6903" lon="-119.99203999999997"><ele>2626.499329056591</ele></trkpt><trkpt lat="38.69033" lon="-119.99193000000002"><ele>2624.708122521639</ele></trkpt><trkpt lat="38.69037" lon="-119.99196999999998"><ele>2623.0</ele></trkpt><trkpt lat="38.69058" lon="-119.99180999999999"><ele>2617.662862001963</ele></trkpt><trkpt lat="38.69067" lon="-119.99128999999999"><ele>2613.033469321894</ele></trkpt><trkpt lat="38.69077" lon="-119.99113999999997"><ele>2611.4778768570577</ele></trkpt><trkpt lat="38.69097" lon="-119.99106999999998"><ele>2609.664446821481</ele></trkpt><trkpt lat="38.69141" lon="-119.99128000000002"><ele>2611.0</ele></trkpt><trkpt lat="38.69154" lon="-119.99144000000001"><ele>2610.5801591505465</ele></trkpt><trkpt lat="38.69163" lon="-119.99176999999997"><ele>2607.0</ele></trkpt><trkpt lat="38.69175" lon="-119.99202000000002"><ele>2606.0</ele></trkpt><trkpt lat="38.69211" lon="-119.99239"><ele>2601.8183715553023</ele></trkpt><trkpt lat="38.6922" lon="-119.99239999999998"><ele>2602.0</ele></trkpt><trkpt lat="38.69296" lon="-119.99194999999997"><ele>2607.0</ele></trkpt><trkpt lat="38.69321" lon="-119.99164999999999"><ele>2609.0</ele></trkpt><trkpt lat="38.69326" lon="-119.99146000000002"><ele>2611.0</ele></trkpt><trkpt lat="38.69327" lon="-119.99122"><ele>2612.4533221714537</ele></trkpt><trkpt lat="38.69324" lon="-119.99108000000001"><ele>2615.0</ele></trkpt><trkpt lat="38.69325" lon="-119.99094000000002"><ele>2617.0</ele></trkpt><trkpt lat="38.69348" lon="-119.99062000000004"><ele>2616.1921601204263</ele></trkpt><trkpt lat="38.6936" lon="-119.99034"><ele>2617.3552959994413</ele></trkpt><trkpt lat="38.69398" lon="-119.99005999999997"><ele>2617.0</ele></trkpt><trkpt lat="38.6942" lon="-119.98982000000001"><ele>2613.8504895584188</ele></trkpt><trkpt lat="38.69422032358062" lon="-119.98980299455502"><ele>2613.4226574581116</ele></trkpt><trkpt lat="38.69422846194102" lon="-119.98979618498333"><ele>2612.98094561534</ele></trkpt><trkpt lat="38.69469" lon="-119.98941000000002"><ele>2613.8852172685492</ele></trkpt><trkpt lat="38.69477" lon="-119.98941000000002"><ele>2614.0</ele></trkpt><trkpt lat="38.69477" lon="-119.98941000000002"><ele>2614.0</ele></trkpt><trkpt lat="38.69484" lon="-119.98928000000001"><ele>2614.0</ele></trkpt><trkpt lat="38.69484" lon="-119.98928000000001"><ele>2614.0</ele></trkpt><trkpt lat="38.69484" lon="-119.98928000000001"><ele>2614.0</ele></trkpt><trkpt lat="38.69483949108815" lon="-119.9892693128512"><ele>2614.0</ele></trkpt></trkseg></trk></gpx>