<?xml version="1.0"?>
<gpx xmlns="http://www.topografix.com/GPX/1/1" xmlns:gpxx="http://www.garmin.com/xmlschemas/GpxExtensions/v3" creator="CALTOPO" version="1.1"><metadata><name><![CDATA[Blue Lakes-Raymond]]></name></metadata><wpt lat="38.61984434035399" lon="-119.90846689851654"><name>Blue Lakes Trailhead</name></wpt><trk><name>Blue Lakes-Raymond</name><trkseg><trkpt lat="38.619848117935625" lon="-119.90844913562913"><ele>2429.0</ele></trkpt><trkpt lat="38.619859530183646" lon="-119.90846233228235"><ele>2429.0</ele></trkpt><trkpt lat="38.61993980053066" lon="-119.9083486159149"><ele>2429.0</ele></trkpt><trkpt lat="38.61995020144717" lon="-119.90833388142443"><ele>2429.0</ele></trkpt><trkpt lat="38.62008" lon="-119.90815"><ele>2428.9583129229213</ele></trkpt><trkpt lat="38.62015" lon="-119.90812"><ele>2429.0</ele></trkpt><trkpt lat="38.6203" lon="-119.90811"><ele>2428.5788739656755</ele></trkpt><trkpt lat="38.62057536617407" lon="-119.90818744673645"><ele>2429.0</ele></trkpt><trkpt lat="38.62058598087806" lon="-119.90819043210287"><ele>2429.0</ele></trkpt><trkpt lat="38.62062" lon="-119.9082"><ele>2429.0962010294284</ele></trkpt><trkpt lat="38.62074" lon="-119.90817"><ele>2430.0</ele></trkpt><trkpt lat="38.62087" lon="-119.90796"><ele>2427.0</ele></trkpt><trkpt lat="38.62101" lon="-119.90761"><ele>2432.4126566909254</ele></trkpt><trkpt lat="38.62109" lon="-119.90749"><ele>2433.184590851888</ele></trkpt><trkpt lat="38.62113" lon="-119.90752"><ele>2434.0</ele></trkpt><trkpt lat="38.62113" lon="-119.90752"><ele>2434.0</ele></trkpt><trkpt lat="38.62114" lon="-119.90718"><ele>2432.256850819622</ele></trkpt><trkpt lat="38.62121" lon="-119.90701"><ele>2431.7209408788326</ele></trkpt><trkpt lat="38.62109" lon="-119.9068"><ele>2432.0</ele></trkpt><trkpt lat="38.62093" lon="-119.90665"><ele>2430.0</ele></trkpt><trkpt lat="38.62089" lon="-119.90644"><ele>2430.3786915554665</ele></trkpt><trkpt lat="38.62089" lon="-119.9062"><ele>2431.2547654286027</ele></trkpt><trkpt lat="38.62085271715492" lon="-119.90614614700154"><ele>2431.0022614570653</ele></trkpt><trkpt lat="38.6208569547366" lon="-119.90615226793393"><ele>2431.0</ele></trkpt><trkpt lat="38.6208" lon="-119.90607"><ele>2431.0</ele></trkpt><trkpt lat="38.62074" lon="-119.90594"><ele>2431.0</ele></trkpt><trkpt lat="38.62071" lon="-119.9056"><ele>2431.5179509911686</ele></trkpt><trkpt lat="38.62005" lon="-119.90479"><ele>2425.0</ele></trkpt><trkpt lat="38.62005" lon="-119.90479"><ele>2425.0</ele></trkpt><trkpt lat="38.61963" lon="-119.90422"><ele>2422.0</ele></trkpt><trkpt lat="38.6196" lon="-119.90413"><ele>2422.308190729469</ele></trkpt><trkpt lat="38.61957" lon="-119.90386"><ele>2420.0</ele></trkpt><trkpt lat="38.61952" lon="-119.90372"><ele>2417.935145848404</ele></trkpt><trkpt lat="38.61919" lon="-119.90319"><ele>2411.0</ele></trkpt><trkpt lat="38.61917" lon="-119.9031"><ele>2411.033973333426</ele></trkpt><trkpt lat="38.61921" lon="-119.90283"><ele>2412.0</ele></trkpt><trkpt lat="38.61932" lon="-119.90251"><ele>2412.0</ele></trkpt><trkpt lat="38.61935" lon="-119.90236"><ele>2412.0</ele></trkpt><trkpt lat="38.61933" lon="-119.90229"><ele>2411.0</ele></trkpt><trkpt lat="38.61916" lon="-119.90211"><ele>2410.0</ele></trkpt><trkpt lat="38.61902" lon="-119.9018"><ele>2410.0</ele></trkpt><trkpt lat="38.61883" lon="-119.90172"><ele>2412.0</ele></trkpt><trkpt lat="38.61871" lon="-119.90163"><ele>2412.778174176812</ele></trkpt><trkpt lat="38.61866" lon="-119.90159"><ele>2413.0</ele></trkpt><trkpt lat="38.61863" lon="-119.90146"><ele>2414.0</ele></trkpt><trkpt lat="38.61856" lon="-119.90139"><ele>2412.0</ele></trkpt><trkpt lat="38.61844" lon="-119.9012"><ele>2412.0679659916427</ele></trkpt><trkpt lat="38.61817" lon="-119.90102"><ele>2415.0</ele></trkpt><trkpt lat="38.61797" lon="-119.90082"><ele>2412.651295440202</ele></trkpt><trkpt lat="38.61788" lon="-119.90079"><ele>2412.2232122422065</ele></trkpt><trkpt lat="38.61769" lon="-119.90082"><ele>2414.0</ele></trkpt><trkpt lat="38.61762" lon="-119.90088"><ele>2414.104769288827</ele></trkpt><trkpt lat="38.61759" lon="-119.90094"><ele>2414.846553940575</ele></trkpt><trkpt lat="38.61756" lon="-119.90109"><ele>2417.184170676627</ele></trkpt><trkpt lat="38.61744" lon="-119.9013"><ele>2417.079946666956</ele></trkpt><trkpt lat="38.61727" lon="-119.90132"><ele>2417.0</ele></trkpt><trkpt lat="38.61687" lon="-119.90118"><ele>2419.7579511220993</ele></trkpt><trkpt lat="38.61687" lon="-119.90118"><ele>2419.7579511220993</ele></trkpt><trkpt lat="38.61667" lon="-119.90111"><ele>2420.0</ele></trkpt><trkpt lat="38.61652" lon="-119.90099"><ele>2419.0</ele></trkpt><trkpt lat="38.61643" lon="-119.90062"><ele>2417.0</ele></trkpt><trkpt lat="38.61648" lon="-119.9003"><ele>2415.0</ele></trkpt><trkpt lat="38.61668" lon="-119.90004"><ele>2413.5508834542293</ele></trkpt><trkpt lat="38.61675" lon="-119.89989"><ele>2412.3691840004176</ele></trkpt><trkpt lat="38.61673" lon="-119.89972"><ele>2412.0</ele></trkpt><trkpt lat="38.61653" lon="-119.8996"><ele>2409.8542044446804</ele></trkpt><trkpt lat="38.61649" lon="-119.89954"><ele>2409.0</ele></trkpt><trkpt lat="38.6165" lon="-119.89949"><ele>2409.0</ele></trkpt><trkpt lat="38.61656" lon="-119.89946"><ele>2408.3297315561213</ele></trkpt><trkpt lat="38.61657" lon="-119.89938"><ele>2406.8320780234326</ele></trkpt><trkpt lat="38.61651" lon="-119.89931"><ele>2405.0</ele></trkpt><trkpt lat="38.61645" lon="-119.89928"><ele>2405.0</ele></trkpt><trkpt lat="38.61617" lon="-119.89931"><ele>2404.339224888943</ele></trkpt><trkpt lat="38.61608" lon="-119.89929"><ele>2402.0</ele></trkpt><trkpt lat="38.616" lon="-119.8992"><ele>2402.0</ele></trkpt><trkpt lat="38.61572" lon="-119.89874"><ele>2395.0</ele></trkpt><trkpt lat="38.61562" lon="-119.89851"><ele>2393.0565226669423</ele></trkpt><trkpt lat="38.61561" lon="-119.8984"><ele>2391.7029045621425</ele></trkpt><trkpt lat="38.61562" lon="-119.89831"><ele>2393.0</ele></trkpt><trkpt lat="38.61572" lon="-119.89809"><ele>2392.5747127069476</ele></trkpt><trkpt lat="38.61573" lon="-119.8979"><ele>2394.0</ele></trkpt><trkpt lat="38.61551" lon="-119.89746"><ele>2398.0</ele></trkpt><trkpt lat="38.6155" lon="-119.89715"><ele>2401.0</ele></trkpt><trkpt lat="38.61531" lon="-119.897"><ele>2402.0</ele></trkpt><trkpt lat="38.61514" lon="-119.89695"><ele>2404.0</ele></trkpt><trkpt lat="38.61502" lon="-119.89682"><ele>2405.0</ele></trkpt><trkpt lat="38.61495" lon="-119.89677"><ele>2405.045884428546</ele></trkpt><trkpt lat="38.61464" lon="-119.89688"><ele>2405.0</ele></trkpt><trkpt lat="38.61454" lon="-119.89687"><ele>2404.0</ele></trkpt><trkpt lat="38.61428" lon="-119.89664"><ele>2404.0</ele></trkpt><trkpt lat="38.61399" lon="-119.89652"><ele>2405.0</ele></trkpt><trkpt lat="38.61392" lon="-119.89646"><ele>2405.230050438733</ele></trkpt><trkpt lat="38.6139" lon="-119.8964"><ele>2406.0</ele></trkpt><trkpt lat="38.61392" lon="-119.89611"><ele>2408.478870915249</ele></trkpt><trkpt lat="38.6139" lon="-119.89577"><ele>2412.0</ele></trkpt><trkpt lat="38.6139" lon="-119.89568"><ele>2413.5582368540036</ele></trkpt><trkpt lat="38.61398" lon="-119.89548"><ele>2413.136582450548</ele></trkpt><trkpt lat="38.61398" lon="-119.89529"><ele>2416.0057201444</ele></trkpt><trkpt lat="38.61395" lon="-119.89522"><ele>2418.6895730998367</ele></trkpt><trkpt lat="38.61374" lon="-119.89521"><ele>2421.0</ele></trkpt><trkpt lat="38.6137" lon="-119.89518"><ele>2421.0</ele></trkpt><trkpt lat="38.61365" lon="-119.89511"><ele>2420.2525928251425</ele></trkpt><trkpt lat="38.61369" lon="-119.89499"><ele>2420.0</ele></trkpt><trkpt lat="38.61356" lon="-119.89491"><ele>2417.2843626667745</ele></trkpt><trkpt lat="38.6132" lon="-119.89492"><ele>2413.4338837369883</ele></trkpt><trkpt lat="38.61304" lon="-119.89502"><ele>2413.4107342222705</ele></trkpt><trkpt lat="38.61296" lon="-119.89503"><ele>2412.2314615755395</ele></trkpt><trkpt lat="38.61289" lon="-119.895"><ele>2411.478666666895</ele></trkpt><trkpt lat="38.61281" lon="-119.89489"><ele>2409.0</ele></trkpt><trkpt lat="38.61273" lon="-119.89453"><ele>2405.0</ele></trkpt><trkpt lat="38.61255" lon="-119.89431"><ele>2402.0</ele></trkpt><trkpt lat="38.6125" lon="-119.89413"><ele>2399.945089996327</ele></trkpt><trkpt lat="38.61241" lon="-119.89403"><ele>2398.6651982642998</ele></trkpt><trkpt lat="38.61236" lon="-119.89381"><ele>2395.0</ele></trkpt><trkpt lat="38.61231" lon="-119.89368"><ele>2394.0</ele></trkpt><trkpt lat="38.61219" lon="-119.8936"><ele>2393.1545032359268</ele></trkpt><trkpt lat="38.61203" lon="-119.89361"><ele>2392.939056790343</ele></trkpt><trkpt lat="38.61202" lon="-119.89348"><ele>2391.0</ele></trkpt><trkpt lat="38.61199" lon="-119.89344"><ele>2390.0</ele></trkpt><trkpt lat="38.61188" lon="-119.89348"><ele>2387.946456801739</ele></trkpt><trkpt lat="38.6114" lon="-119.89379"><ele>2390.019734096041</ele></trkpt><trkpt lat="38.611" lon="-119.89397"><ele>2386.0</ele></trkpt><trkpt lat="38.61094" lon="-119.89402"><ele>2386.0</ele></trkpt><trkpt lat="38.61078" lon="-119.89423"><ele>2385.1458008436057</ele></trkpt><trkpt lat="38.6106" lon="-119.89465"><ele>2385.0854384187614</ele></trkpt><trkpt lat="38.61051" lon="-119.89478"><ele>2386.0</ele></trkpt><trkpt lat="38.61033" lon="-119.89493"><ele>2385.0881360218937</ele></trkpt><trkpt lat="38.6102" lon="-119.895"><ele>2384.0</ele></trkpt><trkpt lat="38.61014" lon="-119.895"><ele>2384.0</ele></trkpt><trkpt lat="38.60973" lon="-119.89467"><ele>2381.0</ele></trkpt><trkpt lat="38.60963" lon="-119.89443"><ele>2380.0</ele></trkpt><trkpt lat="38.60963" lon="-119.89432"><ele>2380.0</ele></trkpt><trkpt lat="38.60966" lon="-119.89419"><ele>2380.0</ele></trkpt><trkpt lat="38.6097" lon="-119.89407"><ele>2380.0</ele></trkpt><trkpt lat="38.60993" lon="-119.89383"><ele>2380.0</ele></trkpt><trkpt lat="38.60997" lon="-119.89365"><ele>2380.0</ele></trkpt><trkpt lat="38.60995" lon="-119.89324"><ele>2380.339794570181</ele></trkpt><trkpt lat="38.60996" lon="-119.89314"><ele>2380.0</ele></trkpt><trkpt lat="38.61007" lon="-119.89291"><ele>2380.0</ele></trkpt><trkpt lat="38.6102" lon="-119.8927"><ele>2380.0</ele></trkpt><trkpt lat="38.61024" lon="-119.89256"><ele>2380.0</ele></trkpt><trkpt lat="38.61024226790328" lon="-119.89253127322505"><ele>2380.0</ele></trkpt><trkpt lat="38.61024" lon="-119.89256"><ele>2380.0</ele></trkpt><trkpt lat="38.61027" lon="-119.89218"><ele>2379.0</ele></trkpt><trkpt lat="38.61041" lon="-119.89188"><ele>2377.0761280003935</ele></trkpt><trkpt lat="38.61056" lon="-119.89172"><ele>2378.047364633131</ele></trkpt><trkpt lat="38.6107" lon="-119.8915"><ele>2378.0</ele></trkpt><trkpt lat="38.61071" lon="-119.89115"><ele>2377.0</ele></trkpt><trkpt lat="38.61077" lon="-119.89107"><ele>2378.6490224525332</ele></trkpt><trkpt lat="38.61083" lon="-119.89085"><ele>2377.0</ele></trkpt><trkpt lat="38.61089" lon="-119.89049"><ele>2376.942269450716</ele></trkpt><trkpt lat="38.61088" lon="-119.89042"><ele>2377.0</ele></trkpt><trkpt lat="38.6108" lon="-119.89031"><ele>2376.4382417052984</ele></trkpt><trkpt lat="38.61039" lon="-119.89"><ele>2372.0</ele></trkpt><trkpt lat="38.61023" lon="-119.88996"><ele>2373.597642667126</ele></trkpt><trkpt lat="38.61002" lon="-119.88998"><ele>2373.0</ele></trkpt><trkpt lat="38.60987" lon="-119.8899"><ele>2372.0</ele></trkpt><trkpt lat="38.60966" lon="-119.88962"><ele>2369.44843605347</ele></trkpt><trkpt lat="38.60961" lon="-119.88928"><ele>2368.0</ele></trkpt><trkpt lat="38.60942" lon="-119.88901"><ele>2365.0</ele></trkpt><trkpt lat="38.60943" lon="-119.88879"><ele>2365.0</ele></trkpt><trkpt lat="38.60941" lon="-119.88872"><ele>2365.897384356906</ele></trkpt><trkpt lat="38.60936" lon="-119.88865"><ele>2367.0</ele></trkpt><trkpt lat="38.60922" lon="-119.88854"><ele>2369.0</ele></trkpt><trkpt lat="38.60918" lon="-119.88849"><ele>2368.0906773339957</ele></trkpt><trkpt lat="38.60902" lon="-119.8881"><ele>2362.0</ele></trkpt><trkpt lat="38.60896" lon="-119.88808"><ele>2362.0</ele></trkpt><trkpt lat="38.60884" lon="-119.88811"><ele>2363.0</ele></trkpt><trkpt lat="38.60877" lon="-119.88808"><ele>2364.0</ele></trkpt><trkpt lat="38.60846" lon="-119.88786"><ele>2366.0</ele></trkpt><trkpt lat="38.60828" lon="-119.88778"><ele>2367.0</ele></trkpt><trkpt lat="38.60814" lon="-119.88768"><ele>2368.0</ele></trkpt><trkpt lat="38.60809" lon="-119.8876"><ele>2369.8865451892834</ele></trkpt><trkpt lat="38.60807" lon="-119.88736"><ele>2372.0</ele></trkpt><trkpt lat="38.6081" lon="-119.88725"><ele>2373.0</ele></trkpt><trkpt lat="38.60809" lon="-119.8872"><ele>2373.0225625528483</ele></trkpt><trkpt lat="38.608" lon="-119.88707"><ele>2375.0</ele></trkpt><trkpt lat="38.60795" lon="-119.88692"><ele>2377.0</ele></trkpt><trkpt lat="38.60711" lon="-119.88692"><ele>2381.0</ele></trkpt><trkpt lat="38.60668" lon="-119.88685"><ele>2385.3388622226194</ele></trkpt><trkpt lat="38.60658" lon="-119.88682"><ele>2387.1753366843373</ele></trkpt><trkpt lat="38.6065" lon="-119.88675"><ele>2389.0</ele></trkpt><trkpt lat="38.60632" lon="-119.8865"><ele>2392.0</ele></trkpt><trkpt lat="38.60597" lon="-119.88631"><ele>2392.0</ele></trkpt><trkpt lat="38.60592" lon="-119.88625"><ele>2392.0</ele></trkpt><trkpt lat="38.60589" lon="-119.88612"><ele>2393.7518350534956</ele></trkpt><trkpt lat="38.60575" lon="-119.88583"><ele>2394.0</ele></trkpt><trkpt lat="38.60572" lon="-119.88572"><ele>2394.0</ele></trkpt><trkpt lat="38.60575" lon="-119.88554"><ele>2396.5270737931132</ele></trkpt><trkpt lat="38.60577" lon="-119.88523"><ele>2398.45626620017</ele></trkpt><trkpt lat="38.60574" lon="-119.88506"><ele>2401.506322745927</ele></trkpt><trkpt lat="38.60576" lon="-119.88497"><ele>2402.0</ele></trkpt><trkpt lat="38.60563" lon="-119.88433"><ele>2405.0</ele></trkpt><trkpt lat="38.60543" lon="-119.88424"><ele>2407.0</ele></trkpt><trkpt lat="38.60532" lon="-119.88413"><ele>2408.0</ele></trkpt><trkpt lat="38.60495" lon="-119.88361"><ele>2408.0</ele></trkpt><trkpt lat="38.605" lon="-119.88322"><ele>2411.536428052932</ele></trkpt><trkpt lat="38.60503" lon="-119.88281"><ele>2414.3255034312606</ele></trkpt><trkpt lat="38.60503" lon="-119.88281"><ele>2414.3255034312606</ele></trkpt><trkpt lat="38.60506" lon="-119.88212"><ele>2416.0</ele></trkpt><trkpt lat="38.6051" lon="-119.88205"><ele>2416.0</ele></trkpt><trkpt lat="38.60525" lon="-119.88192"><ele>2416.0</ele></trkpt><trkpt lat="38.60528" lon="-119.88182"><ele>2415.4229214358998</ele></trkpt><trkpt lat="38.60521" lon="-119.88167"><ele>2413.7596902552414</ele></trkpt><trkpt lat="38.60501" lon="-119.88104"><ele>2413.132786432281</ele></trkpt><trkpt lat="38.60496" lon="-119.88064"><ele>2416.1509953811765</ele></trkpt><trkpt lat="38.60492" lon="-119.88058"><ele>2415.0</ele></trkpt><trkpt lat="38.60479" lon="-119.88052"><ele>2413.0</ele></trkpt><trkpt lat="38.60488" lon="-119.87985"><ele>2406.437493333593</ele></trkpt><trkpt lat="38.60486" lon="-119.87957"><ele>2402.3885475555435</ele></trkpt><trkpt lat="38.60491" lon="-119.87923"><ele>2400.0919466102255</ele></trkpt><trkpt lat="38.60501" lon="-119.87896"><ele>2399.1275396568462</ele></trkpt><trkpt lat="38.60503" lon="-119.87884"><ele>2396.6744965687394</ele></trkpt><trkpt lat="38.60512" lon="-119.87873"><ele>2395.832559097177</ele></trkpt><trkpt lat="38.60517" lon="-119.87852"><ele>2397.0</ele></trkpt><trkpt lat="38.60518" lon="-119.87839"><ele>2394.8365336885636</ele></trkpt><trkpt lat="38.60528" lon="-119.87839"><ele>2393.396561777685</ele></trkpt><trkpt lat="38.6053" lon="-119.87833"><ele>2390.3438763958893</ele></trkpt><trkpt lat="38.6053" lon="-119.87815"><ele>2389.0</ele></trkpt><trkpt lat="38.60530225310916" lon="-119.87813873445421"><ele>2389.0</ele></trkpt><trkpt lat="38.60530000000001" lon="-119.8781509025969"><ele>2389.0</ele></trkpt><trkpt lat="38.6053" lon="-119.87815"><ele>2389.0</ele></trkpt><trkpt lat="38.60533" lon="-119.878"><ele>2389.0</ele></trkpt><trkpt lat="38.6055" lon="-119.87774"><ele>2390.0</ele></trkpt><trkpt lat="38.60585" lon="-119.87746"><ele>2393.0</ele></trkpt><trkpt lat="38.60583" lon="-119.87732"><ele>2394.0</ele></trkpt><trkpt lat="38.60597" lon="-119.87717"><ele>2395.0</ele></trkpt><trkpt lat="38.606049432927" lon="-119.87699347829663"><ele>2396.0</ele></trkpt><trkpt lat="38.606049432927" lon="-119.87699347829663"><ele>2396.0</ele></trkpt><trkpt lat="38.60606" lon="-119.87697"><ele>2396.0</ele></trkpt><trkpt lat="38.60608" lon="-119.87688"><ele>2396.054951424132</ele></trkpt><trkpt lat="38.60607" lon="-119.87681"><ele>2397.0</ele></trkpt><trkpt lat="38.60601" lon="-119.87672"><ele>2398.0</ele></trkpt><trkpt lat="38.60606" lon="-119.8766"><ele>2398.0058504817157</ele></trkpt><trkpt lat="38.60613" lon="-119.87655"><ele>2399.0</ele></trkpt><trkpt lat="38.60645" lon="-119.87655"><ele>2399.3503784139252</ele></trkpt><trkpt lat="38.6065" lon="-119.8765"><ele>2399.0060769793236</ele></trkpt><trkpt lat="38.60671" lon="-119.87614"><ele>2399.485081637278</ele></trkpt><trkpt lat="38.60684" lon="-119.87577"><ele>2401.0</ele></trkpt><trkpt lat="38.60698" lon="-119.87549"><ele>2402.464750818287</ele></trkpt><trkpt lat="38.60704" lon="-119.8755"><ele>2402.2871999996714</ele></trkpt><trkpt lat="38.60716" lon="-119.87543"><ele>2403.5494364444166</ele></trkpt><trkpt lat="38.60728" lon="-119.87543"><ele>2402.5494364444166</ele></trkpt><trkpt lat="38.60737" lon="-119.8754"><ele>2403.9475377774797</ele></trkpt><trkpt lat="38.60757" lon="-119.87526"><ele>2406.472010666039</ele></trkpt><trkpt lat="38.60763" lon="-119.87518"><ele>2407.2002808889374</ele></trkpt><trkpt lat="38.60775" lon="-119.87513"><ele>2407.530449777376</ele></trkpt><trkpt lat="38.60782" lon="-119.87498"><ele>2408.65854589108</ele></trkpt><trkpt lat="38.60801" lon="-119.87407"><ele>2411.9559483211488</ele></trkpt><trkpt lat="38.60773" lon="-119.87344"><ele>2418.364491346758</ele></trkpt><trkpt lat="38.60751" lon="-119.87317"><ele>2420.0</ele></trkpt><trkpt lat="38.60748" lon="-119.87298"><ele>2420.0</ele></trkpt><trkpt lat="38.6075" lon="-119.87293"><ele>2421.0578808891587</ele></trkpt><trkpt lat="38.60758" lon="-119.87288"><ele>2422.0</ele></trkpt><trkpt lat="38.60764" lon="-119.87267"><ele>2425.0</ele></trkpt><trkpt lat="38.60776" lon="-119.87247"><ele>2427.0</ele></trkpt><trkpt lat="38.60779" lon="-119.87235"><ele>2427.0</ele></trkpt><trkpt lat="38.6079" lon="-119.87215"><ele>2429.0</ele></trkpt><trkpt lat="38.60803" lon="-119.87206"><ele>2429.0</ele></trkpt><trkpt lat="38.60827" lon="-119.87197"><ele>2429.797123555094</ele></trkpt><trkpt lat="38.60857" lon="-119.87171"><ele>2432.5103331995447</ele></trkpt><trkpt lat="38.60871" lon="-119.87156"><ele>2434.0</ele></trkpt><trkpt lat="38.60873" lon="-119.8715"><ele>2435.0</ele></trkpt><trkpt lat="38.60876" lon="-119.87128"><ele>2435.0</ele></trkpt><trkpt lat="38.60881357522604" lon="-119.87111257741861"><ele>2434.0</ele></trkpt><trkpt lat="38.60880695765667" lon="-119.87113325735662"><ele>2434.0</ele></trkpt><trkpt lat="38.60884" lon="-119.87103"><ele>2433.27546585495</ele></trkpt><trkpt lat="38.6089" lon="-119.87093"><ele>2433.0</ele></trkpt><trkpt lat="38.609" lon="-119.87086"><ele>2432.0</ele></trkpt><trkpt lat="38.60912" lon="-119.87062"><ele>2433.0</ele></trkpt><trkpt lat="38.60915" lon="-119.8705"><ele>2432.0</ele></trkpt><trkpt lat="38.60915" lon="-119.87041"><ele>2432.485408313649</ele></trkpt><trkpt lat="38.60905" lon="-119.87029"><ele>2432.993792153817</ele></trkpt><trkpt lat="38.60888" lon="-119.87014"><ele>2433.9244094000214</ele></trkpt><trkpt lat="38.60879" lon="-119.87012"><ele>2434.0</ele></trkpt><trkpt lat="38.60873" lon="-119.87005"><ele>2432.728837126136</ele></trkpt><trkpt lat="38.60873" lon="-119.86981"><ele>2429.0</ele></trkpt><trkpt lat="38.60866" lon="-119.86969"><ele>2427.957257001094</ele></trkpt><trkpt lat="38.60854" lon="-119.869"><ele>2427.0</ele></trkpt><trkpt lat="38.60854" lon="-119.86888"><ele>2426.347513977438</ele></trkpt><trkpt lat="38.60859" lon="-119.86882"><ele>2426.0</ele></trkpt><trkpt lat="38.60896" lon="-119.86876"><ele>2426.0</ele></trkpt><trkpt lat="38.60909" lon="-119.86862"><ele>2426.0</ele></trkpt><trkpt lat="38.60921" lon="-119.86844"><ele>2427.0</ele></trkpt><trkpt lat="38.60914" lon="-119.86829"><ele>2427.1297039929023</ele></trkpt><trkpt lat="38.60913" lon="-119.86822"><ele>2428.0</ele></trkpt><trkpt lat="38.60918" lon="-119.86818"><ele>2428.0</ele></trkpt><trkpt lat="38.60928" lon="-119.86817"><ele>2429.0</ele></trkpt><trkpt lat="38.60935" lon="-119.86811"><ele>2430.0</ele></trkpt><trkpt lat="38.60935" lon="-119.86794"><ele>2432.0</ele></trkpt><trkpt lat="38.60928" lon="-119.86785"><ele>2433.0</ele></trkpt><trkpt lat="38.60921" lon="-119.86757"><ele>2434.0</ele></trkpt><trkpt lat="38.60912" lon="-119.86747"><ele>2434.512323555071</ele></trkpt><trkpt lat="38.60911" lon="-119.86733"><ele>2434.0</ele></trkpt><trkpt lat="38.60902" lon="-119.86719"><ele>2434.0</ele></trkpt><trkpt lat="38.609" lon="-119.86711"><ele>2434.0</ele></trkpt><trkpt lat="38.609" lon="-119.86695"><ele>2434.0</ele></trkpt><trkpt lat="38.60893" lon="-119.86667"><ele>2435.0</ele></trkpt><trkpt lat="38.60898" lon="-119.8664"><ele>2437.0</ele></trkpt><trkpt lat="38.60897" lon="-119.8662"><ele>2438.2076533015056</ele></trkpt><trkpt lat="38.60869" lon="-119.86587"><ele>2442.077727999538</ele></trkpt><trkpt lat="38.60865" lon="-119.86575"><ele>2443.0</ele></trkpt><trkpt lat="38.60866" lon="-119.86571"><ele>2443.1908549200743</ele></trkpt><trkpt lat="38.60878" lon="-119.86559"><ele>2445.995669797568</ele></trkpt><trkpt lat="38.60888" lon="-119.86568"><ele>2447.0</ele></trkpt><trkpt lat="38.60897" lon="-119.86559"><ele>2448.297236384824</ele></trkpt><trkpt lat="38.60899" lon="-119.86532"><ele>2451.8518943258227</ele></trkpt><trkpt lat="38.60883" lon="-119.86511"><ele>2452.974076474214</ele></trkpt><trkpt lat="38.60868" lon="-119.86506"><ele>2451.0</ele></trkpt><trkpt lat="38.60857" lon="-119.86494"><ele>2449.0</ele></trkpt><trkpt lat="38.60849" lon="-119.86491"><ele>2448.183029333595</ele></trkpt><trkpt lat="38.60836" lon="-119.86478"><ele>2446.124590222258</ele></trkpt><trkpt lat="38.60839" lon="-119.86468"><ele>2446.0</ele></trkpt><trkpt lat="38.60848" lon="-119.86458"><ele>2444.8039146666415</ele></trkpt><trkpt lat="38.60864" lon="-119.86449"><ele>2443.0</ele></trkpt><trkpt lat="38.60868" lon="-119.86444"><ele>2442.2794417780824</ele></trkpt><trkpt lat="38.60869" lon="-119.86412"><ele>2441.598311714828</ele></trkpt><trkpt lat="38.60867" lon="-119.86395"><ele>2441.0</ele></trkpt><trkpt lat="38.60858" lon="-119.86372"><ele>2442.0</ele></trkpt><trkpt lat="38.60862" lon="-119.86362"><ele>2443.3961962694816</ele></trkpt><trkpt lat="38.60876" lon="-119.86349"><ele>2444.0</ele></trkpt><trkpt lat="38.609" lon="-119.86289"><ele>2441.0</ele></trkpt><trkpt lat="38.60909" lon="-119.86274"><ele>2441.0</ele></trkpt><trkpt lat="38.60925" lon="-119.86262"><ele>2441.538705777377</ele></trkpt><trkpt lat="38.60968" lon="-119.86245"><ele>2441.0</ele></trkpt><trkpt lat="38.60994" lon="-119.86226"><ele>2441.0</ele></trkpt><trkpt lat="38.61002" lon="-119.86213"><ele>2441.0</ele></trkpt><trkpt lat="38.6101" lon="-119.86208"><ele>2440.0</ele></trkpt><trkpt lat="38.61025" lon="-119.86212"><ele>2440.0</ele></trkpt><trkpt lat="38.61029" lon="-119.8621"><ele>2440.0</ele></trkpt><trkpt lat="38.61045" lon="-119.86191"><ele>2440.0</ele></trkpt><trkpt lat="38.6108" lon="-119.86137"><ele>2447.0</ele></trkpt><trkpt lat="38.61085" lon="-119.86126"><ele>2448.0</ele></trkpt><trkpt lat="38.61085" lon="-119.86118"><ele>2448.0</ele></trkpt><trkpt lat="38.61088" lon="-119.86111"><ele>2448.2807951817276</ele></trkpt><trkpt lat="38.61102" lon="-119.86099"><ele>2450.5592057500035</ele></trkpt><trkpt lat="38.61106" lon="-119.86084"><ele>2451.0</ele></trkpt><trkpt lat="38.61106" lon="-119.86084"><ele>2451.0</ele></trkpt><trkpt lat="38.61107" lon="-119.86078"><ele>2451.0</ele></trkpt><trkpt lat="38.61114" lon="-119.86062"><ele>2452.0</ele></trkpt><trkpt lat="38.611198515776614" lon="-119.86053394738732"><ele>2453.2060493472964</ele></trkpt><trkpt lat="38.61121040528948" lon="-119.8605164628815"><ele>2453.915151672438</ele></trkpt><trkpt lat="38.61131" lon="-119.86037"><ele>2455.0</ele></trkpt><trkpt lat="38.61138" lon="-119.85966"><ele>2459.0</ele></trkpt><trkpt lat="38.61164" lon="-119.85889"><ele>2464.828895330621</ele></trkpt><trkpt lat="38.61174" lon="-119.85869"><ele>2466.500823935494</ele></trkpt><trkpt lat="38.61176535717612" lon="-119.85853151764925"><ele>2468.0</ele></trkpt><trkpt lat="38.61176" lon="-119.85853"><ele>2467.693652814254</ele></trkpt><trkpt lat="38.61192" lon="-119.85847"><ele>2472.0</ele></trkpt><trkpt lat="38.61213" lon="-119.85829"><ele>2476.0</ele></trkpt><trkpt lat="38.61215" lon="-119.85804"><ele>2477.0</ele></trkpt><trkpt lat="38.6123" lon="-119.85745"><ele>2482.0</ele></trkpt><trkpt lat="38.6125" lon="-119.85705"><ele>2486.729526202589</ele></trkpt><trkpt lat="38.61259" lon="-119.85698"><ele>2487.0</ele></trkpt><trkpt lat="38.61259" lon="-119.85698"><ele>2487.0</ele></trkpt><trkpt lat="38.61259" lon="-119.85698"><ele>2487.0</ele></trkpt><trkpt lat="38.61273932143225" lon="-119.85662760148064"><ele>2483.917754687445</ele></trkpt><trkpt lat="38.61273932143225" lon="-119.85662760148064"><ele>2483.917754687445</ele></trkpt><trkpt lat="38.61312" lon="-119.85666"><ele>2480.0</ele></trkpt><trkpt lat="38.61351" lon="-119.85678"><ele>2476.0</ele></trkpt><trkpt lat="38.61359" lon="-119.85696"><ele>2474.7367322592027</ele></trkpt><trkpt lat="38.61363" lon="-119.85701"><ele>2474.0</ele></trkpt><trkpt lat="38.61369" lon="-119.85695"><ele>2473.0</ele></trkpt><trkpt lat="38.61372" lon="-119.85688"><ele>2473.0</ele></trkpt><trkpt lat="38.61388" lon="-119.85693"><ele>2470.9609947391637</ele></trkpt><trkpt lat="38.6139" lon="-119.85691"><ele>2470.8831355774055</ele></trkpt><trkpt lat="38.61391" lon="-119.85681"><ele>2471.0</ele></trkpt><trkpt lat="38.61383" lon="-119.85676"><ele>2470.0</ele></trkpt><trkpt lat="38.61378" lon="-119.85676"><ele>2470.0</ele></trkpt><trkpt lat="38.6138" lon="-119.85668"><ele>2469.0</ele></trkpt><trkpt lat="38.61392" lon="-119.85664"><ele>2467.0</ele></trkpt><trkpt lat="38.61406" lon="-119.85653"><ele>2464.6467235563323</ele></trkpt><trkpt lat="38.61426" lon="-119.85648"><ele>2463.3165546669625</ele></trkpt><trkpt lat="38.61435" lon="-119.8564"><ele>2462.0</ele></trkpt><trkpt lat="38.61445" lon="-119.85628"><ele>2459.9964237580966</ele></trkpt><trkpt lat="38.61456" lon="-119.85599"><ele>2456.4808995560743</ele></trkpt><trkpt lat="38.6146" lon="-119.85597"><ele>2456.58435243929</ele></trkpt><trkpt lat="38.61454" lon="-119.85574"><ele>2452.9150450010834</ele></trkpt><trkpt lat="38.61459" lon="-119.85531"><ele>2452.4822918679565</ele></trkpt><trkpt lat="38.61466" lon="-119.85522"><ele>2452.391983047645</ele></trkpt><trkpt lat="38.61484" lon="-119.85513"><ele>2449.1580920888555</ele></trkpt><trkpt lat="38.61493" lon="-119.85505"><ele>2449.5128617193986</ele></trkpt><trkpt lat="38.6151" lon="-119.85469"><ele>2446.9897274885375</ele></trkpt><trkpt lat="38.61514" lon="-119.85468"><ele>2445.7134895864874</ele></trkpt><trkpt lat="38.61516" lon="-119.85476"><ele>2445.6793490638956</ele></trkpt><trkpt lat="38.61519" lon="-119.85479"><ele>2445.964054183057</ele></trkpt><trkpt lat="38.61524" lon="-119.85479"><ele>2445.6680515890293</ele></trkpt><trkpt lat="38.61529" lon="-119.85468"><ele>2444.100369095798</ele></trkpt><trkpt lat="38.61546" lon="-119.8545"><ele>2440.372716942802</ele></trkpt><trkpt lat="38.61548" lon="-119.85443"><ele>2440.4409648396163</ele></trkpt><trkpt lat="38.61545" lon="-119.85419"><ele>2438.776271700859</ele></trkpt><trkpt lat="38.61541" lon="-119.85416"><ele>2437.0</ele></trkpt><trkpt lat="38.61536" lon="-119.85422"><ele>2434.995811065348</ele></trkpt><trkpt lat="38.61518" lon="-119.85425"><ele>2434.3910222221166</ele></trkpt><trkpt lat="38.61512" lon="-119.85418"><ele>2431.2103534980183</ele></trkpt><trkpt lat="38.61508" lon="-119.85408"><ele>2431.1368541932306</ele></trkpt><trkpt lat="38.61493" lon="-119.85398"><ele>2430.0</ele></trkpt><trkpt lat="38.61474" lon="-119.85366"><ele>2426.8950293338858</ele></trkpt><trkpt lat="38.61475" lon="-119.85357"><ele>2426.0</ele></trkpt><trkpt lat="38.61484" lon="-119.85356"><ele>2424.142394614116</ele></trkpt><trkpt lat="38.61491" lon="-119.85361"><ele>2424.0</ele></trkpt><trkpt lat="38.6151" lon="-119.85363"><ele>2422.4969279998913</ele></trkpt><trkpt lat="38.6152" lon="-119.85361"><ele>2422.4886989851607</ele></trkpt><trkpt lat="38.61533" lon="-119.8535"><ele>2421.0</ele></trkpt><trkpt lat="38.61578" lon="-119.85345"><ele>2418.6493113865145</ele></trkpt><trkpt lat="38.6158" lon="-119.85339"><ele>2417.0</ele></trkpt><trkpt lat="38.6156" lon="-119.85331"><ele>2416.5838471106254</ele></trkpt><trkpt lat="38.61543" lon="-119.8532"><ele>2415.4574755560607</ele></trkpt><trkpt lat="38.61536" lon="-119.85319"><ele>2414.9914417779073</ele></trkpt><trkpt lat="38.61529" lon="-119.85311"><ele>2413.0</ele></trkpt><trkpt lat="38.6153" lon="-119.85301"><ele>2412.0</ele></trkpt><trkpt lat="38.6154" lon="-119.85299"><ele>2411.0</ele></trkpt><trkpt lat="38.61555" lon="-119.85266"><ele>2409.0</ele></trkpt><trkpt lat="38.6156" lon="-119.85263"><ele>2409.0</ele></trkpt><trkpt lat="38.61575" lon="-119.85281"><ele>2409.0</ele></trkpt><trkpt lat="38.61583" lon="-119.85285"><ele>2408.477009129171</ele></trkpt><trkpt lat="38.61589" lon="-119.85284"><ele>2407.3197404444218</ele></trkpt><trkpt lat="38.61599" lon="-119.85274"><ele>2407.0</ele></trkpt><trkpt lat="38.61612" lon="-119.85269"><ele>2407.0</ele></trkpt><trkpt lat="38.61624" lon="-119.8526"><ele>2407.0</ele></trkpt><trkpt lat="38.61649" lon="-119.85227"><ele>2405.1705277929873</ele></trkpt><trkpt lat="38.61673" lon="-119.85216"><ele>2404.0</ele></trkpt><trkpt lat="38.61687" lon="-119.85205"><ele>2403.0</ele></trkpt><trkpt lat="38.61687" lon="-119.85205"><ele>2403.0</ele></trkpt><trkpt lat="38.6174" lon="-119.85163"><ele>2399.9754320190864</ele></trkpt><trkpt lat="38.61778" lon="-119.85142"><ele>2397.2497393339872</ele></trkpt><trkpt lat="38.61797" lon="-119.8514"><ele>2396.0</ele></trkpt><trkpt lat="38.6182" lon="-119.85129"><ele>2395.0</ele></trkpt><trkpt lat="38.61841" lon="-119.8511"><ele>2394.0</ele></trkpt><trkpt lat="38.61847" lon="-119.85101"><ele>2394.0</ele></trkpt><trkpt lat="38.61856507629565" lon="-119.8509639024021"><ele>2394.0</ele></trkpt><trkpt lat="38.61857598907796" lon="-119.85095861143638"><ele>2393.771547127515</ele></trkpt><trkpt lat="38.6188" lon="-119.85085"><ele>2392.0</ele></trkpt><trkpt lat="38.61889" lon="-119.85078"><ele>2392.0</ele></trkpt><trkpt lat="38.61906" lon="-119.85057"><ele>2391.087641013116</ele></trkpt><trkpt lat="38.61907" lon="-119.85034"><ele>2390.0</ele></trkpt><trkpt lat="38.61913" lon="-119.85019"><ele>2390.0</ele></trkpt><trkpt lat="38.61915" lon="-119.85008"><ele>2389.533312059939</ele></trkpt><trkpt lat="38.61913" lon="-119.85"><ele>2389.726263832301</ele></trkpt><trkpt lat="38.61915" lon="-119.84989"><ele>2389.0</ele></trkpt><trkpt lat="38.61954" lon="-119.84977"><ele>2386.3921102215536</ele></trkpt><trkpt lat="38.61994" lon="-119.84972"><ele>2387.0</ele></trkpt><trkpt lat="38.62002" lon="-119.84968"><ele>2387.3750635332212</ele></trkpt><trkpt lat="38.6202" lon="-119.84953"><ele>2388.0</ele></trkpt><trkpt lat="38.6202" lon="-119.84953"><ele>2388.0</ele></trkpt><trkpt lat="38.6202" lon="-119.84953"><ele>2388.0</ele></trkpt><trkpt lat="38.62028" lon="-119.84936"><ele>2389.565059573421</ele></trkpt><trkpt lat="38.62042" lon="-119.8493"><ele>2389.2307014455055</ele></trkpt><trkpt lat="38.62048" lon="-119.8492"><ele>2390.1573082464747</ele></trkpt><trkpt lat="38.62074" lon="-119.84919"><ele>2388.4220693339594</ele></trkpt><trkpt lat="38.6209" lon="-119.84912"><ele>2389.148744089529</ele></trkpt><trkpt lat="38.62117" lon="-119.84908"><ele>2391.0</ele></trkpt><trkpt lat="38.62153" lon="-119.84889"><ele>2393.4030826669186</ele></trkpt><trkpt lat="38.6218393977687" lon="-119.84850920274621"><ele>2396.1495209415443</ele></trkpt><trkpt lat="38.6218393977687" lon="-119.84850920274621"><ele>2396.1495209415443</ele></trkpt><trkpt lat="38.62192" lon="-119.84841"><ele>2396.842319791811</ele></trkpt><trkpt lat="38.62213" lon="-119.84729"><ele>2407.0</ele></trkpt><trkpt lat="38.62214" lon="-119.84705"><ele>2410.33657763293</ele></trkpt><trkpt lat="38.62223" lon="-119.84687"><ele>2412.9151467311603</ele></trkpt><trkpt lat="38.62277" lon="-119.84623"><ele>2422.9716296740808</ele></trkpt><trkpt lat="38.6233" lon="-119.84514"><ele>2440.9905089451736</ele></trkpt><trkpt lat="38.6233" lon="-119.84508"><ele>2441.0</ele></trkpt><trkpt lat="38.62327" lon="-119.84507"><ele>2442.0</ele></trkpt><trkpt lat="38.6229" lon="-119.84527"><ele>2446.8651825081843</ele></trkpt><trkpt lat="38.62255" lon="-119.84549"><ele>2451.854567111004</ele></trkpt><trkpt lat="38.62246" lon="-119.8456"><ele>2452.823406070005</ele></trkpt><trkpt lat="38.62208" lon="-119.84586"><ele>2458.6113173332997</ele></trkpt><trkpt lat="38.62175" lon="-119.84599"><ele>2463.7526295224015</ele></trkpt><trkpt lat="38.62159" lon="-119.84617"><ele>2464.164270222187</ele></trkpt><trkpt lat="38.62147" lon="-119.84627"><ele>2465.1486491877586</ele></trkpt><trkpt lat="38.6213" lon="-119.84632"><ele>2469.0</ele></trkpt><trkpt lat="38.62112" lon="-119.84633"><ele>2471.7077297782525</ele></trkpt><trkpt lat="38.62065" lon="-119.84627"><ele>2478.0</ele></trkpt><trkpt lat="38.62053" lon="-119.8463"><ele>2479.023159710123</ele></trkpt><trkpt lat="38.62022" lon="-119.84649"><ele>2481.7827755258495</ele></trkpt><trkpt lat="38.61993" lon="-119.84656"><ele>2486.9889528886415</ele></trkpt><trkpt lat="38.62013" lon="-119.84629"><ele>2491.5718648885377</ele></trkpt><trkpt lat="38.62032" lon="-119.84613"><ele>2492.773459851742</ele></trkpt><trkpt lat="38.62043" lon="-119.84594"><ele>2497.066753908526</ele></trkpt><trkpt lat="38.62061" lon="-119.84582"><ele>2495.922386718914</ele></trkpt><trkpt lat="38.62079" lon="-119.8455"><ele>2502.0986681426875</ele></trkpt><trkpt lat="38.62075" lon="-119.84535"><ele>2507.0</ele></trkpt><trkpt lat="38.62039" lon="-119.84516"><ele>2503.7663182229735</ele></trkpt><trkpt lat="38.62021" lon="-119.845"><ele>2502.4996047520226</ele></trkpt><trkpt lat="38.61997" lon="-119.84484"><ele>2499.8532373337075</ele></trkpt><trkpt lat="38.61983" lon="-119.84481"><ele>2499.910271999426</ele></trkpt><trkpt lat="38.61935" lon="-119.84482"><ele>2500.9211697778665</ele></trkpt><trkpt lat="38.61922" lon="-119.84489"><ele>2502.1834062226117</ele></trkpt><trkpt lat="38.61911" lon="-119.845"><ele>2505.0250253149316</ele></trkpt><trkpt lat="38.619" lon="-119.84503"><ele>2505.7078791111708</ele></trkpt><trkpt lat="38.61866" lon="-119.8454"><ele>2506.2277623806517</ele></trkpt><trkpt lat="38.61835" lon="-119.8454"><ele>2504.0</ele></trkpt><trkpt lat="38.61827" lon="-119.8449"><ele>2507.0228752940893</ele></trkpt><trkpt lat="38.61839" lon="-119.84467"><ele>2507.9345823894255</ele></trkpt><trkpt lat="38.61839" lon="-119.84453"><ele>2509.8652455005795</ele></trkpt><trkpt lat="38.61849" lon="-119.84438"><ele>2511.4848613035865</ele></trkpt><trkpt lat="38.61851" lon="-119.84424"><ele>2512.784583472666</ele></trkpt><trkpt lat="38.61848" lon="-119.84408"><ele>2514.9940305948257</ele></trkpt><trkpt lat="38.61854" lon="-119.84392"><ele>2514.836382843554</ele></trkpt><trkpt lat="38.61853" lon="-119.84379"><ele>2516.0683016992843</ele></trkpt><trkpt lat="38.61865" lon="-119.84364"><ele>2516.025281774907</ele></trkpt><trkpt lat="38.6187" lon="-119.84354"><ele>2518.56302983594</ele></trkpt><trkpt lat="38.61863" lon="-119.84349"><ele>2520.9386773332953</ele></trkpt><trkpt lat="38.61846" lon="-119.84349"><ele>2520.9386773332953</ele></trkpt><trkpt lat="38.61829" lon="-119.84341"><ele>2521.0761272293153</ele></trkpt><trkpt lat="38.61797" lon="-119.84335"><ele>2518.4142044447362</ele></trkpt><trkpt lat="38.61786" lon="-119.84337"><ele>2520.5117969639077</ele></trkpt><trkpt lat="38.61769" lon="-119.84316"><ele>2515.8317164461405</ele></trkpt><trkpt lat="38.61751" lon="-119.84312"><ele>2515.7451076786965</ele></trkpt><trkpt lat="38.61739" lon="-119.84279"><ele>2509.683687111363</ele></trkpt><trkpt lat="38.61744" lon="-119.84272"><ele>2509.475410398096</ele></trkpt><trkpt lat="38.61778" lon="-119.84238"><ele>2506.0408113333397</ele></trkpt><trkpt lat="38.61783" lon="-119.84222"><ele>2505.2674154154956</ele></trkpt><trkpt lat="38.61783" lon="-119.84197"><ele>2505.2674154154956</ele></trkpt><trkpt lat="38.61775" lon="-119.84172"><ele>2509.039132686332</ele></trkpt><trkpt lat="38.61768" lon="-119.84165"><ele>2512.214380932972</ele></trkpt><trkpt lat="38.61761" lon="-119.84164"><ele>2512.722428444773</ele></trkpt><trkpt lat="38.61761" lon="-119.84152"><ele>2511.389625104144</ele></trkpt><trkpt lat="38.61765" lon="-119.8414"><ele>2510.003771789372</ele></trkpt><trkpt lat="38.61762" lon="-119.84131"><ele>2509.793161900714</ele></trkpt><trkpt lat="38.61766" lon="-119.84125"><ele>2510.4528888887726</ele></trkpt><trkpt lat="38.61778" lon="-119.84123"><ele>2508.538557012509</ele></trkpt><trkpt lat="38.61784" lon="-119.84114"><ele>2508.6709503810853</ele></trkpt><trkpt lat="38.61788" lon="-119.84102"><ele>2507.2850894164294</ele></trkpt><trkpt lat="38.61786" lon="-119.84082"><ele>2505.4780200663954</ele></trkpt><trkpt lat="38.61791" lon="-119.84074"><ele>2505.606948813833</ele></trkpt><trkpt lat="38.61829" lon="-119.84052"><ele>2499.473354666494</ele></trkpt><trkpt lat="38.61837" lon="-119.84041"><ele>2499.0348948490287</ele></trkpt><trkpt lat="38.61841" lon="-119.84027"><ele>2497.6723060384393</ele></trkpt><trkpt lat="38.61837548109452" lon="-119.84015658073913"><ele>2497.8898357246326</ele></trkpt><trkpt lat="38.61836504861471" lon="-119.84012230256552"><ele>2497.9952170493398</ele></trkpt><trkpt lat="38.61834" lon="-119.84004"><ele>2497.0046167043038</ele></trkpt><trkpt lat="38.61834" lon="-119.83987"><ele>2493.847592703998</ele></trkpt><trkpt lat="38.61827" lon="-119.83965"><ele>2495.0228752940893</ele></trkpt><trkpt lat="38.61828" lon="-119.83948"><ele>2495.426406601444</ele></trkpt><trkpt lat="38.61813" lon="-119.83923"><ele>2492.629249975498</ele></trkpt><trkpt lat="38.61816" lon="-119.8391"><ele>2491.9637301900366</ele></trkpt><trkpt lat="38.61819" lon="-119.83904"><ele>2490.7946218382567</ele></trkpt><trkpt lat="38.6182" lon="-119.83887"><ele>2489.902330297535</ele></trkpt><trkpt lat="38.6182" lon="-119.83887"><ele>2489.902330297535</ele></trkpt><trkpt lat="38.6182" lon="-119.83875"><ele>2489.198153808713</ele></trkpt><trkpt lat="38.61811" lon="-119.83857"><ele>2486.65005866671</ele></trkpt><trkpt lat="38.61816" lon="-119.83846"><ele>2483.782159472041</ele></trkpt><trkpt lat="38.61761" lon="-119.83781"><ele>2477.2314915559255</ele></trkpt><trkpt lat="38.61744" lon="-119.83737"><ele>2475.5294868424535</ele></trkpt><trkpt lat="38.61714" lon="-119.83703"><ele>2474.0504335020014</ele></trkpt><trkpt lat="38.61715" lon="-119.83684"><ele>2473.9954606589326</ele></trkpt><trkpt lat="38.61725" lon="-119.83669"><ele>2476.1328359337795</ele></trkpt><trkpt lat="38.61735" lon="-119.83675"><ele>2476.1680888887495</ele></trkpt><trkpt lat="38.618" lon="-119.83654"><ele>2483.954798221588</ele></trkpt><trkpt lat="38.61841" lon="-119.83626"><ele>2487.676050038077</ele></trkpt><trkpt lat="38.61852" lon="-119.83608"><ele>2490.3923520003445</ele></trkpt><trkpt lat="38.61866" lon="-119.83597"><ele>2491.394507254523</ele></trkpt><trkpt lat="38.61874" lon="-119.83572"><ele>2493.1695679998957</ele></trkpt><trkpt lat="38.61887" lon="-119.83561"><ele>2494.4611167676726</ele></trkpt><trkpt lat="38.61948" lon="-119.83564"><ele>2499.8978382223286</ele></trkpt><trkpt lat="38.61991" lon="-119.83547"><ele>2505.8204124439508</ele></trkpt><trkpt lat="38.62028" lon="-119.8354"><ele>2509.0826488882303</ele></trkpt><trkpt lat="38.62035" lon="-119.83533"><ele>2511.9709109728756</ele></trkpt><trkpt lat="38.6201" lon="-119.83523"><ele>2515.005223110784</ele></trkpt><trkpt lat="38.61981" lon="-119.8352"><ele>2516.0</ele></trkpt><trkpt lat="38.61946" lon="-119.83507"><ele>2521.461763555184</ele></trkpt><trkpt lat="38.61919" lon="-119.83491"><ele>2523.9879573952076</ele></trkpt><trkpt lat="38.61903" lon="-119.83475"><ele>2525.37484444445</ele></trkpt><trkpt lat="38.6189" lon="-119.83482"><ele>2527.4451852850616</ele></trkpt><trkpt lat="38.61883" lon="-119.83477"><ele>2529.0</ele></trkpt><trkpt lat="38.6184" lon="-119.83471"><ele>2531.2389795556664</ele></trkpt><trkpt lat="38.61793" lon="-119.83458"><ele>2535.297418666538</ele></trkpt><trkpt lat="38.61764" lon="-119.83458"><ele>2537.0</ele></trkpt><trkpt lat="38.61693" lon="-119.83424"><ele>2550.0</ele></trkpt><trkpt lat="38.61774" lon="-119.83394"><ele>2558.123580444604</ele></trkpt><trkpt lat="38.6188" lon="-119.83371"><ele>2568.0</ele></trkpt><trkpt lat="38.61938" lon="-119.83346"><ele>2574.4932017778046</ele></trkpt><trkpt lat="38.61939" lon="-119.83342"><ele>2575.4973505992903</ele></trkpt><trkpt lat="38.61935" lon="-119.83339"><ele>2576.0</ele></trkpt><trkpt lat="38.61897" lon="-119.83334"><ele>2580.0856071109883</ele></trkpt><trkpt lat="38.61723" lon="-119.83291"><ele>2595.1250595557503</ele></trkpt><trkpt lat="38.61687" lon="-119.83279"><ele>2599.7174648884684</ele></trkpt><trkpt lat="38.61687" lon="-119.83279"><ele>2599.7174648884684</ele></trkpt><trkpt lat="38.61649" lon="-119.83266"><ele>2604.7759039998055</ele></trkpt><trkpt lat="38.61649" lon="-119.83262"><ele>2605.640039111022</ele></trkpt><trkpt lat="38.61665" lon="-119.83254"><ele>2608.778722220493</ele></trkpt><trkpt lat="38.61687" lon="-119.83247"><ele>2611.2978247959236</ele></trkpt><trkpt lat="38.61687" lon="-119.83247"><ele>2611.2978247959236</ele></trkpt><trkpt lat="38.6173" lon="-119.83232"><ele>2615.546490857644</ele></trkpt><trkpt lat="38.6174246459917" lon="-119.8321953540083"><ele>2618.1914662985173</ele></trkpt><trkpt lat="38.61743631546482" lon="-119.8321836846337"><ele>2618.0</ele></trkpt><trkpt lat="38.61754" lon="-119.83208"><ele>2619.9155242836814</ele></trkpt><trkpt lat="38.61714" lon="-119.83191"><ele>2625.0</ele></trkpt><trkpt lat="38.61691" lon="-119.83176"><ele>2628.758809746424</ele></trkpt><trkpt lat="38.61691" lon="-119.83176"><ele>2628.758809746424</ele></trkpt><trkpt lat="38.616886617774576" lon="-119.83175415444364"><ele>2629.0</ele></trkpt><trkpt lat="38.616886617774576" lon="-119.83175415444364"><ele>2629.0</ele></trkpt><trkpt lat="38.617070895666494" lon="-119.83186670383591"><ele>2626.0</ele></trkpt><trkpt lat="38.61730561397282" lon="-119.83197399219651"><ele>2623.0</ele></trkpt><trkpt lat="38.61730411987337" lon="-119.8319797508315"><ele>2623.0</ele></trkpt><trkpt lat="38.61754" lon="-119.83208"><ele>2619.9155242836814</ele></trkpt><trkpt lat="38.6173" lon="-119.83232"><ele>2615.546490857644</ele></trkpt><trkpt lat="38.61687" lon="-119.83247"><ele>2611.2978247959236</ele></trkpt><trkpt lat="38.61687" lon="-119.83247"><ele>2611.2978247959236</ele></trkpt><trkpt lat="38.61665" lon="-119.83254"><ele>2608.778722220493</ele></trkpt><trkpt lat="38.61649" lon="-119.83262"><ele>2605.640039111022</ele></trkpt><trkpt lat="38.61649" lon="-119.83266"><ele>2604.7759039998055</ele></trkpt><trkpt lat="38.61687" lon="-119.83279"><ele>2599.7174648884684</ele></trkpt><trkpt lat="38.61687" lon="-119.83279"><ele>2599.7174648884684</ele></trkpt><trkpt lat="38.61723" lon="-119.83291"><ele>2595.1250595557503</ele></trkpt><trkpt lat="38.61897" lon="-119.83334"><ele>2580.0856071109883</ele></trkpt><trkpt lat="38.61935" lon="-119.83339"><ele>2576.0</ele></trkpt><trkpt lat="38.61939" lon="-119.83342"><ele>2575.4973505992903</ele></trkpt><trkpt lat="38.61938" lon="-119.83346"><ele>2574.4932017778046</ele></trkpt><trkpt lat="38.6188" lon="-119.83371"><ele>2568.0</ele></trkpt><trkpt lat="38.61774" lon="-119.83394"><ele>2558.123580444604</ele></trkpt><trkpt lat="38.61693" lon="-119.83424"><ele>2550.0</ele></trkpt><trkpt lat="38.61764" lon="-119.83458"><ele>2537.0</ele></trkpt><trkpt lat="38.61793" lon="-119.83458"><ele>2535.297418666538</ele></trkpt><trkpt lat="38.6184" lon="-119.83471"><ele>2531.2389795556664</ele></trkpt><trkpt lat="38.61883" lon="-119.83477"><ele>2529.0</ele></trkpt><trkpt lat="38.6189" lon="-119.83482"><ele>2527.4451852850616</ele></trkpt><trkpt lat="38.61903" lon="-119.83475"><ele>2525.37484444445</ele></trkpt><trkpt lat="38.61919" lon="-119.83491"><ele>2523.9879573952076</ele></trkpt><trkpt lat="38.61946" lon="-119.83507"><ele>2521.461763555184</ele></trkpt><trkpt lat="38.61981" lon="-119.8352"><ele>2516.0</ele></trkpt><trkpt lat="38.6201" lon="-119.83523"><ele>2515.005223110784</ele></trkpt><trkpt lat="38.62035" lon="-119.83533"><ele>2511.9709109728756</ele></trkpt><trkpt lat="38.62028" lon="-119.8354"><ele>2509.0826488882303</ele></trkpt><trkpt lat="38.61991" lon="-119.83547"><ele>2505.8204124439508</ele></trkpt><trkpt lat="38.61948" lon="-119.83564"><ele>2499.8978382223286</ele></trkpt><trkpt lat="38.61887" lon="-119.83561"><ele>2494.4611167676726</ele></trkpt><trkpt lat="38.61874" lon="-119.83572"><ele>2493.1695679998957</ele></trkpt><trkpt lat="38.61866" lon="-119.83597"><ele>2491.394507254523</ele></trkpt><trkpt lat="38.61852" lon="-119.83608"><ele>2490.3923520003445</ele></trkpt><trkpt lat="38.61841" lon="-119.83626"><ele>2487.676050038077</ele></trkpt><trkpt lat="38.618" lon="-119.83654"><ele>2483.954798221588</ele></trkpt><trkpt lat="38.61735" lon="-119.83675"><ele>2476.1680888887495</ele></trkpt><trkpt lat="38.61725" lon="-119.83669"><ele>2476.1328359337795</ele></trkpt><trkpt lat="38.61715" lon="-119.83684"><ele>2473.9954606589326</ele></trkpt><trkpt lat="38.61714" lon="-119.83703"><ele>2474.0504335020014</ele></trkpt><trkpt lat="38.6172695350013" lon="-119.83717680633481"><ele>2473.72252797056</ele></trkpt><trkpt lat="38.617293102336326" lon="-119.83720351580352"><ele>2474.0</ele></trkpt><trkpt lat="38.61744" lon="-119.83737"><ele>2475.5294868424535</ele></trkpt><trkpt lat="38.61761" lon="-119.83781"><ele>2477.2314915559255</ele></trkpt><trkpt lat="38.61816" lon="-119.83846"><ele>2483.782159472041</ele></trkpt><trkpt lat="38.61811" lon="-119.83857"><ele>2486.65005866671</ele></trkpt><trkpt lat="38.6182" lon="-119.83875"><ele>2489.198153808713</ele></trkpt><trkpt lat="38.6182" lon="-119.83887"><ele>2489.902330297535</ele></trkpt><trkpt lat="38.6182" lon="-119.83887"><ele>2489.902330297535</ele></trkpt><trkpt lat="38.61819" lon="-119.83904"><ele>2490.7946218382567</ele></trkpt><trkpt lat="38.61816" lon="-119.8391"><ele>2491.9637301900366</ele></trkpt><trkpt lat="38.61813" lon="-119.83923"><ele>2492.629249975498</ele></trkpt><trkpt lat="38.61828" lon="-119.83948"><ele>2495.426406601444</ele></trkpt><trkpt lat="38.61827" lon="-119.83965"><ele>2495.0228752940893</ele></trkpt><trkpt lat="38.61834" lon="-119.83987"><ele>2493.847592703998</ele></trkpt><trkpt lat="38.61834" lon="-119.84004"><ele>2497.0046167043038</ele></trkpt><trkpt lat="38.61841" lon="-119.84027"><ele>2497.6723060384393</ele></trkpt><trkpt lat="38.61837" lon="-119.84041"><ele>2499.0348948490287</ele></trkpt><trkpt lat="38.61829" lon="-119.84052"><ele>2499.473354666494</ele></trkpt><trkpt lat="38.61791" lon="-119.84074"><ele>2505.606948813833</ele></trkpt><trkpt lat="38.61786" lon="-119.84082"><ele>2505.4780200663954</ele></trkpt><trkpt lat="38.61788" lon="-119.84102"><ele>2507.2850894164294</ele></trkpt><trkpt lat="38.61784" lon="-119.84114"><ele>2508.6709503810853</ele></trkpt><trkpt lat="38.61778" lon="-119.84123"><ele>2508.538557012509</ele></trkpt><trkpt lat="38.61766" lon="-119.84125"><ele>2510.4528888887726</ele></trkpt><trkpt lat="38.61762" lon="-119.84131"><ele>2509.793161900714</ele></trkpt><trkpt lat="38.61765" lon="-119.8414"><ele>2510.003771789372</ele></trkpt><trkpt lat="38.61761" lon="-119.84152"><ele>2511.389625104144</ele></trkpt><trkpt lat="38.61761" lon="-119.84164"><ele>2512.722428444773</ele></trkpt><trkpt lat="38.61768" lon="-119.84165"><ele>2512.214380932972</ele></trkpt><trkpt lat="38.61775" lon="-119.84172"><ele>2509.039132686332</ele></trkpt><trkpt lat="38.61783" lon="-119.84197"><ele>2505.2674154154956</ele></trkpt><trkpt lat="38.61783" lon="-119.84222"><ele>2505.2674154154956</ele></trkpt><trkpt lat="38.61778" lon="-119.84238"><ele>2506.0408113333397</ele></trkpt><trkpt lat="38.61744" lon="-119.84272"><ele>2509.475410398096</ele></trkpt><trkpt lat="38.61739" lon="-119.84279"><ele>2509.683687111363</ele></trkpt><trkpt lat="38.61751" lon="-119.84312"><ele>2515.7451076786965</ele></trkpt><trkpt lat="38.61769" lon="-119.84316"><ele>2515.8317164461405</ele></trkpt><trkpt lat="38.61786" lon="-119.84337"><ele>2520.5117969639077</ele></trkpt><trkpt lat="38.61797" lon="-119.84335"><ele>2518.4142044447362</ele></trkpt><trkpt lat="38.61829" lon="-119.84341"><ele>2521.0761272293153</ele></trkpt><trkpt lat="38.61846" lon="-119.84349"><ele>2520.9386773332953</ele></trkpt><trkpt lat="38.61863" lon="-119.84349"><ele>2520.9386773332953</ele></trkpt><trkpt lat="38.6187" lon="-119.84354"><ele>2518.56302983594</ele></trkpt><trkpt lat="38.61865" lon="-119.84364"><ele>2516.025281774907</ele></trkpt><trkpt lat="38.61853" lon="-119.84379"><ele>2516.0683016992843</ele></trkpt><trkpt lat="38.61854" lon="-119.84392"><ele>2514.836382843554</ele></trkpt><trkpt lat="38.61848" lon="-119.84408"><ele>2514.9940305948257</ele></trkpt><trkpt lat="38.61851" lon="-119.84424"><ele>2512.784583472666</ele></trkpt><trkpt lat="38.61849" lon="-119.84438"><ele>2511.4848613035865</ele></trkpt><trkpt lat="38.61839" lon="-119.84453"><ele>2509.8652455005795</ele></trkpt><trkpt lat="38.61839" lon="-119.84467"><ele>2507.9345823894255</ele></trkpt><trkpt lat="38.61827" lon="-119.8449"><ele>2507.0228752940893</ele></trkpt><trkpt lat="38.61835" lon="-119.8454"><ele>2504.0</ele></trkpt><trkpt lat="38.61866" lon="-119.8454"><ele>2506.2277623806517</ele></trkpt><trkpt lat="38.619" lon="-119.84503"><ele>2505.7078791111708</ele></trkpt><trkpt lat="38.61911" lon="-119.845"><ele>2505.0250253149316</ele></trkpt><trkpt lat="38.61922" lon="-119.84489"><ele>2502.1834062226117</ele></trkpt><trkpt lat="38.61935" lon="-119.84482"><ele>2500.9211697778665</ele></trkpt><trkpt lat="38.61983" lon="-119.84481"><ele>2499.910271999426</ele></trkpt><trkpt lat="38.61997" lon="-119.84484"><ele>2499.8532373337075</ele></trkpt><trkpt lat="38.62021" lon="-119.845"><ele>2502.4996047520226</ele></trkpt><trkpt lat="38.62039" lon="-119.84516"><ele>2503.7663182229735</ele></trkpt><trkpt lat="38.62075" lon="-119.84535"><ele>2507.0</ele></trkpt><trkpt lat="38.62079" lon="-119.8455"><ele>2502.0986681426875</ele></trkpt><trkpt lat="38.62061" lon="-119.84582"><ele>2495.922386718914</ele></trkpt><trkpt lat="38.62043" lon="-119.84594"><ele>2497.066753908526</ele></trkpt><trkpt lat="38.62032" lon="-119.84613"><ele>2492.773459851742</ele></trkpt><trkpt lat="38.62013" lon="-119.84629"><ele>2491.5718648885377</ele></trkpt><trkpt lat="38.61993" lon="-119.84656"><ele>2486.9889528886415</ele></trkpt><trkpt lat="38.62022" lon="-119.84649"><ele>2481.7827755258495</ele></trkpt><trkpt lat="38.62053" lon="-119.8463"><ele>2479.023159710123</ele></trkpt><trkpt lat="38.62065" lon="-119.84627"><ele>2478.0</ele></trkpt><trkpt lat="38.62112" lon="-119.84633"><ele>2471.7077297782525</ele></trkpt><trkpt lat="38.6213" lon="-119.84632"><ele>2469.0</ele></trkpt><trkpt lat="38.62147" lon="-119.84627"><ele>2465.1486491877586</ele></trkpt><trkpt lat="38.62159" lon="-119.84617"><ele>2464.164270222187</ele></trkpt><trkpt lat="38.62175" lon="-119.84599"><ele>2463.7526295224015</ele></trkpt><trkpt lat="38.62208" lon="-119.84586"><ele>2458.6113173332997</ele></trkpt><trkpt lat="38.62246" lon="-119.8456"><ele>2452.823406070005</ele></trkpt><trkpt lat="38.62255" lon="-119.84549"><ele>2451.854567111004</ele></trkpt><trkpt lat="38.6229" lon="-119.84527"><ele>2446.8651825081843</ele></trkpt><trkpt lat="38.62327" lon="-119.84507"><ele>2442.0</ele></trkpt><trkpt lat="38.6233" lon="-119.84508"><ele>2441.0</ele></trkpt><trkpt lat="38.6233" lon="-119.84514"><ele>2440.9905089451736</ele></trkpt><trkpt lat="38.62277" lon="-119.84623"><ele>2422.9716296740808</ele></trkpt><trkpt lat="38.62223" lon="-119.84687"><ele>2412.9151467311603</ele></trkpt><trkpt lat="38.62214" lon="-119.84705"><ele>2410.33657763293</ele></trkpt><trkpt lat="38.62213" lon="-119.84729"><ele>2407.0</ele></trkpt><trkpt lat="38.62192" lon="-119.84841"><ele>2396.842319791811</ele></trkpt><trkpt lat="38.6218393977687" lon="-119.84850920274621"><ele>2396.1495209415443</ele></trkpt><trkpt lat="38.6218393977687" lon="-119.84850920274621"><ele>2396.1495209415443</ele></trkpt><trkpt lat="38.62153" lon="-119.84889"><ele>2393.4030826669186</ele></trkpt><trkpt lat="38.62117" lon="-119.84908"><ele>2391.0</ele></trkpt><trkpt lat="38.6209" lon="-119.84912"><ele>2389.148744089529</ele></trkpt><trkpt lat="38.62074" lon="-119.84919"><ele>2388.4220693339594</ele></trkpt><trkpt lat="38.62048" lon="-119.8492"><ele>2390.1573082464747</ele></trkpt><trkpt lat="38.62042" lon="-119.8493"><ele>2389.2307014455055</ele></trkpt><trkpt lat="38.62028" lon="-119.84936"><ele>2389.565059573421</ele></trkpt><trkpt lat="38.6202" lon="-119.84953"><ele>2388.0</ele></trkpt><trkpt lat="38.6202" lon="-119.84953"><ele>2388.0</ele></trkpt><trkpt lat="38.6202" lon="-119.84953"><ele>2388.0</ele></trkpt><trkpt lat="38.62002" lon="-119.84968"><ele>2387.3750635332212</ele></trkpt><trkpt lat="38.61994" lon="-119.84972"><ele>2387.0</ele></trkpt><trkpt lat="38.61954" lon="-119.84977"><ele>2386.3921102215536</ele></trkpt><trkpt lat="38.61915" lon="-119.84989"><ele>2389.0</ele></trkpt><trkpt lat="38.61913" lon="-119.85"><ele>2389.726263832301</ele></trkpt><trkpt lat="38.61915" lon="-119.85008"><ele>2389.533312059939</ele></trkpt><trkpt lat="38.61913" lon="-119.85019"><ele>2390.0</ele></trkpt><trkpt lat="38.61907" lon="-119.85034"><ele>2390.0</ele></trkpt><trkpt lat="38.61906" lon="-119.85057"><ele>2391.087641013116</ele></trkpt><trkpt lat="38.61889" lon="-119.85078"><ele>2392.0</ele></trkpt><trkpt lat="38.6188" lon="-119.85085"><ele>2392.0</ele></trkpt><trkpt lat="38.61847" lon="-119.85101"><ele>2394.0</ele></trkpt><trkpt lat="38.61841" lon="-119.8511"><ele>2394.0</ele></trkpt><trkpt lat="38.6182" lon="-119.85129"><ele>2395.0</ele></trkpt><trkpt lat="38.61797" lon="-119.8514"><ele>2396.0</ele></trkpt><trkpt lat="38.61778" lon="-119.85142"><ele>2397.2497393339872</ele></trkpt><trkpt lat="38.6174" lon="-119.85163"><ele>2399.9754320190864</ele></trkpt><trkpt lat="38.61687" lon="-119.85205"><ele>2403.0</ele></trkpt><trkpt lat="38.61687" lon="-119.85205"><ele>2403.0</ele></trkpt><trkpt lat="38.61673" lon="-119.85216"><ele>2404.0</ele></trkpt><trkpt lat="38.61649" lon="-119.85227"><ele>2405.1705277929873</ele></trkpt><trkpt lat="38.61624" lon="-119.8526"><ele>2407.0</ele></trkpt><trkpt lat="38.61612" lon="-119.85269"><ele>2407.0</ele></trkpt><trkpt lat="38.61599" lon="-119.85274"><ele>2407.0</ele></trkpt><trkpt lat="38.61589" lon="-119.85284"><ele>2407.3197404444218</ele></trkpt><trkpt lat="38.61583" lon="-119.85285"><ele>2408.477009129171</ele></trkpt><trkpt lat="38.61575" lon="-119.85281"><ele>2409.0</ele></trkpt><trkpt lat="38.6156" lon="-119.85263"><ele>2409.0</ele></trkpt><trkpt lat="38.61555" lon="-119.85266"><ele>2409.0</ele></trkpt><trkpt lat="38.6154" lon="-119.85299"><ele>2411.0</ele></trkpt><trkpt lat="38.6153" lon="-119.85301"><ele>2412.0</ele></trkpt><trkpt lat="38.61529" lon="-119.85311"><ele>2413.0</ele></trkpt><trkpt lat="38.61536" lon="-119.85319"><ele>2414.9914417779073</ele></trkpt><trkpt lat="38.61543" lon="-119.8532"><ele>2415.4574755560607</ele></trkpt><trkpt lat="38.6156" lon="-119.85331"><ele>2416.5838471106254</ele></trkpt><trkpt lat="38.6158" lon="-119.85339"><ele>2417.0</ele></trkpt><trkpt lat="38.61578" lon="-119.85345"><ele>2418.6493113865145</ele></trkpt><trkpt lat="38.61533" lon="-119.8535"><ele>2421.0</ele></trkpt><trkpt lat="38.6152" lon="-119.85361"><ele>2422.4886989851607</ele></trkpt><trkpt lat="38.6151" lon="-119.85363"><ele>2422.4969279998913</ele></trkpt><trkpt lat="38.61491" lon="-119.85361"><ele>2424.0</ele></trkpt><trkpt lat="38.61484" lon="-119.85356"><ele>2424.142394614116</ele></trkpt><trkpt lat="38.61475" lon="-119.85357"><ele>2426.0</ele></trkpt><trkpt lat="38.61474" lon="-119.85366"><ele>2426.8950293338858</ele></trkpt><trkpt lat="38.61493" lon="-119.85398"><ele>2430.0</ele></trkpt><trkpt lat="38.61508" lon="-119.85408"><ele>2431.1368541932306</ele></trkpt><trkpt lat="38.61512" lon="-119.85418"><ele>2431.2103534980183</ele></trkpt><trkpt lat="38.61518" lon="-119.85425"><ele>2434.3910222221166</ele></trkpt><trkpt lat="38.61536" lon="-119.85422"><ele>2434.995811065348</ele></trkpt><trkpt lat="38.61541" lon="-119.85416"><ele>2437.0</ele></trkpt><trkpt lat="38.61545" lon="-119.85419"><ele>2438.776271700859</ele></trkpt><trkpt lat="38.61548" lon="-119.85443"><ele>2440.4409648396163</ele></trkpt><trkpt lat="38.61546" lon="-119.8545"><ele>2440.372716942802</ele></trkpt><trkpt lat="38.61529" lon="-119.85468"><ele>2444.100369095798</ele></trkpt><trkpt lat="38.61524" lon="-119.85479"><ele>2445.6680515890293</ele></trkpt><trkpt lat="38.61519" lon="-119.85479"><ele>2445.964054183057</ele></trkpt><trkpt lat="38.61516" lon="-119.85476"><ele>2445.6793490638956</ele></trkpt><trkpt lat="38.61514" lon="-119.85468"><ele>2445.7134895864874</ele></trkpt><trkpt lat="38.6151" lon="-119.85469"><ele>2446.9897274885375</ele></trkpt><trkpt lat="38.61493" lon="-119.85505"><ele>2449.5128617193986</ele></trkpt><trkpt lat="38.61484" lon="-119.85513"><ele>2449.1580920888555</ele></trkpt><trkpt lat="38.61466" lon="-119.85522"><ele>2452.391983047645</ele></trkpt><trkpt lat="38.61459" lon="-119.85531"><ele>2452.4822918679565</ele></trkpt><trkpt lat="38.61454" lon="-119.85574"><ele>2452.9150450010834</ele></trkpt><trkpt lat="38.6146" lon="-119.85597"><ele>2456.58435243929</ele></trkpt><trkpt lat="38.61456" lon="-119.85599"><ele>2456.4808995560743</ele></trkpt><trkpt lat="38.61445" lon="-119.85628"><ele>2459.9964237580966</ele></trkpt><trkpt lat="38.61435" lon="-119.8564"><ele>2462.0</ele></trkpt><trkpt lat="38.61426" lon="-119.85648"><ele>2463.3165546669625</ele></trkpt><trkpt lat="38.61406" lon="-119.85653"><ele>2464.6467235563323</ele></trkpt><trkpt lat="38.61392" lon="-119.85664"><ele>2467.0</ele></trkpt><trkpt lat="38.6138" lon="-119.85668"><ele>2469.0</ele></trkpt><trkpt lat="38.61378" lon="-119.85676"><ele>2470.0</ele></trkpt><trkpt lat="38.61383" lon="-119.85676"><ele>2470.0</ele></trkpt><trkpt lat="38.61391" lon="-119.85681"><ele>2471.0</ele></trkpt><trkpt lat="38.6139" lon="-119.85691"><ele>2470.8831355774055</ele></trkpt><trkpt lat="38.61388" lon="-119.85693"><ele>2470.9609947391637</ele></trkpt><trkpt lat="38.61372" lon="-119.85688"><ele>2473.0</ele></trkpt><trkpt lat="38.61369" lon="-119.85695"><ele>2473.0</ele></trkpt><trkpt lat="38.61363" lon="-119.85701"><ele>2474.0</ele></trkpt><trkpt lat="38.61359" lon="-119.85696"><ele>2474.7367322592027</ele></trkpt><trkpt lat="38.61351" lon="-119.85678"><ele>2476.0</ele></trkpt><trkpt lat="38.61312" lon="-119.85666"><ele>2480.0</ele></trkpt><trkpt lat="38.61273932143225" lon="-119.85662760148064"><ele>2483.917754687445</ele></trkpt><trkpt lat="38.61273932143225" lon="-119.85662760148064"><ele>2483.917754687445</ele></trkpt><trkpt lat="38.61259" lon="-119.85698"><ele>2487.0</ele></trkpt><trkpt lat="38.61259" lon="-119.85698"><ele>2487.0</ele></trkpt><trkpt lat="38.61259" lon="-119.85698"><ele>2487.0</ele></trkpt><trkpt lat="38.6125" lon="-119.85705"><ele>2486.729526202589</ele></trkpt><trkpt lat="38.6123" lon="-119.85745"><ele>2482.0</ele></trkpt><trkpt lat="38.61215" lon="-119.85804"><ele>2477.0</ele></trkpt><trkpt lat="38.61213" lon="-119.85829"><ele>2476.0</ele></trkpt><trkpt lat="38.61192" lon="-119.85847"><ele>2472.0</ele></trkpt><trkpt lat="38.61176" lon="-119.85853"><ele>2467.693652814254</ele></trkpt><trkpt lat="38.61176535717612" lon="-119.85853151764925"><ele>2468.0</ele></trkpt><trkpt lat="38.61174" lon="-119.85869"><ele>2466.500823935494</ele></trkpt><trkpt lat="38.61164" lon="-119.85889"><ele>2464.828895330621</ele></trkpt><trkpt lat="38.61138" lon="-119.85966"><ele>2459.0</ele></trkpt><trkpt lat="38.61131" lon="-119.86037"><ele>2455.0</ele></trkpt><trkpt lat="38.61114" lon="-119.86062"><ele>2452.0</ele></trkpt><trkpt lat="38.6111373808223" lon="-119.8606259866919"><ele>2452.0</ele></trkpt><trkpt lat="38.61113084791494" lon="-119.86064091906047"><ele>2452.0</ele></trkpt><trkpt lat="38.61107" lon="-119.86078"><ele>2451.0</ele></trkpt><trkpt lat="38.61106" lon="-119.86084"><ele>2451.0</ele></trkpt><trkpt lat="38.61106" lon="-119.86084"><ele>2451.0</ele></trkpt><trkpt lat="38.61102" lon="-119.86099"><ele>2450.5592057500035</ele></trkpt><trkpt lat="38.61088" lon="-119.86111"><ele>2448.2807951817276</ele></trkpt><trkpt lat="38.61085" lon="-119.86118"><ele>2448.0</ele></trkpt><trkpt lat="38.61085" lon="-119.86126"><ele>2448.0</ele></trkpt><trkpt lat="38.6108" lon="-119.86137"><ele>2447.0</ele></trkpt><trkpt lat="38.61045" lon="-119.86191"><ele>2440.0</ele></trkpt><trkpt lat="38.61029" lon="-119.8621"><ele>2440.0</ele></trkpt><trkpt lat="38.61025" lon="-119.86212"><ele>2440.0</ele></trkpt><trkpt lat="38.6101" lon="-119.86208"><ele>2440.0</ele></trkpt><trkpt lat="38.61002" lon="-119.86213"><ele>2441.0</ele></trkpt><trkpt lat="38.60994" lon="-119.86226"><ele>2441.0</ele></trkpt><trkpt lat="38.60968" lon="-119.86245"><ele>2441.0</ele></trkpt><trkpt lat="38.60925" lon="-119.86262"><ele>2441.538705777377</ele></trkpt><trkpt lat="38.60909" lon="-119.86274"><ele>2441.0</ele></trkpt><trkpt lat="38.609" lon="-119.86289"><ele>2441.0</ele></trkpt><trkpt lat="38.60876" lon="-119.86349"><ele>2444.0</ele></trkpt><trkpt lat="38.60862" lon="-119.86362"><ele>2443.3961962694816</ele></trkpt><trkpt lat="38.60858" lon="-119.86372"><ele>2442.0</ele></trkpt><trkpt lat="38.60867" lon="-119.86395"><ele>2441.0</ele></trkpt><trkpt lat="38.60869" lon="-119.86412"><ele>2441.598311714828</ele></trkpt><trkpt lat="38.60868" lon="-119.86444"><ele>2442.2794417780824</ele></trkpt><trkpt lat="38.60864" lon="-119.86449"><ele>2443.0</ele></trkpt><trkpt lat="38.60848" lon="-119.86458"><ele>2444.8039146666415</ele></trkpt><trkpt lat="38.60839" lon="-119.86468"><ele>2446.0</ele></trkpt><trkpt lat="38.60836" lon="-119.86478"><ele>2446.124590222258</ele></trkpt><trkpt lat="38.60849" lon="-119.86491"><ele>2448.183029333595</ele></trkpt><trkpt lat="38.60857" lon="-119.86494"><ele>2449.0</ele></trkpt><trkpt lat="38.60868" lon="-119.86506"><ele>2451.0</ele></trkpt><trkpt lat="38.60883" lon="-119.86511"><ele>2452.974076474214</ele></trkpt><trkpt lat="38.60899" lon="-119.86532"><ele>2451.8518943258227</ele></trkpt><trkpt lat="38.60897" lon="-119.86559"><ele>2448.297236384824</ele></trkpt><trkpt lat="38.60888" lon="-119.86568"><ele>2447.0</ele></trkpt><trkpt lat="38.60878" lon="-119.86559"><ele>2445.995669797568</ele></trkpt><trkpt lat="38.60866" lon="-119.86571"><ele>2443.1908549200743</ele></trkpt><trkpt lat="38.60865" lon="-119.86575"><ele>2443.0</ele></trkpt><trkpt lat="38.60869" lon="-119.86587"><ele>2442.077727999538</ele></trkpt><trkpt lat="38.60897" lon="-119.8662"><ele>2438.2076533015056</ele></trkpt><trkpt lat="38.60898" lon="-119.8664"><ele>2437.0</ele></trkpt><trkpt lat="38.60893" lon="-119.86667"><ele>2435.0</ele></trkpt><trkpt lat="38.609" lon="-119.86695"><ele>2434.0</ele></trkpt><trkpt lat="38.609" lon="-119.86711"><ele>2434.0</ele></trkpt><trkpt lat="38.60902" lon="-119.86719"><ele>2434.0</ele></trkpt><trkpt lat="38.60911" lon="-119.86733"><ele>2434.0</ele></trkpt><trkpt lat="38.60912" lon="-119.86747"><ele>2434.512323555071</ele></trkpt><trkpt lat="38.60921" lon="-119.86757"><ele>2434.0</ele></trkpt><trkpt lat="38.60928" lon="-119.86785"><ele>2433.0</ele></trkpt><trkpt lat="38.60935" lon="-119.86794"><ele>2432.0</ele></trkpt><trkpt lat="38.60935" lon="-119.86811"><ele>2430.0</ele></trkpt><trkpt lat="38.60928" lon="-119.86817"><ele>2429.0</ele></trkpt><trkpt lat="38.60918" lon="-119.86818"><ele>2428.0</ele></trkpt><trkpt lat="38.60913" lon="-119.86822"><ele>2428.0</ele></trkpt><trkpt lat="38.60914" lon="-119.86829"><ele>2427.1297039929023</ele></trkpt><trkpt lat="38.60921" lon="-119.86844"><ele>2427.0</ele></trkpt><trkpt lat="38.60909" lon="-119.86862"><ele>2426.0</ele></trkpt><trkpt lat="38.60896" lon="-119.86876"><ele>2426.0</ele></trkpt><trkpt lat="38.60859" lon="-119.86882"><ele>2426.0</ele></trkpt><trkpt lat="38.60854" lon="-119.86888"><ele>2426.347513977438</ele></trkpt><trkpt lat="38.60854" lon="-119.869"><ele>2427.0</ele></trkpt><trkpt lat="38.60866" lon="-119.86969"><ele>2427.957257001094</ele></trkpt><trkpt lat="38.60873" lon="-119.86981"><ele>2429.0</ele></trkpt><trkpt lat="38.60873" lon="-119.87005"><ele>2432.728837126136</ele></trkpt><trkpt lat="38.60879" lon="-119.87012"><ele>2434.0</ele></trkpt><trkpt lat="38.60888" lon="-119.87014"><ele>2433.9244094000214</ele></trkpt><trkpt lat="38.60905" lon="-119.87029"><ele>2432.993792153817</ele></trkpt><trkpt lat="38.60915" lon="-119.87041"><ele>2432.485408313649</ele></trkpt><trkpt lat="38.60915" lon="-119.8705"><ele>2432.0</ele></trkpt><trkpt lat="38.60912" lon="-119.87062"><ele>2433.0</ele></trkpt><trkpt lat="38.609" lon="-119.87086"><ele>2432.0</ele></trkpt><trkpt lat="38.6089" lon="-119.87093"><ele>2433.0</ele></trkpt><trkpt lat="38.60884" lon="-119.87103"><ele>2433.27546585495</ele></trkpt><trkpt lat="38.60876" lon="-119.87128"><ele>2435.0</ele></trkpt><trkpt lat="38.60873" lon="-119.8715"><ele>2435.0</ele></trkpt><trkpt lat="38.60871" lon="-119.87156"><ele>2434.0</ele></trkpt><trkpt lat="38.60857" lon="-119.87171"><ele>2432.5103331995447</ele></trkpt><trkpt lat="38.60827" lon="-119.87197"><ele>2429.797123555094</ele></trkpt><trkpt lat="38.60803" lon="-119.87206"><ele>2429.0</ele></trkpt><trkpt lat="38.6079" lon="-119.87215"><ele>2429.0</ele></trkpt><trkpt lat="38.60779" lon="-119.87235"><ele>2427.0</ele></trkpt><trkpt lat="38.60776" lon="-119.87247"><ele>2427.0</ele></trkpt><trkpt lat="38.60764" lon="-119.87267"><ele>2425.0</ele></trkpt><trkpt lat="38.60758" lon="-119.87288"><ele>2422.0</ele></trkpt><trkpt lat="38.6075" lon="-119.87293"><ele>2421.0578808891587</ele></trkpt><trkpt lat="38.60748" lon="-119.87298"><ele>2420.0</ele></trkpt><trkpt lat="38.60751" lon="-119.87317"><ele>2420.0</ele></trkpt><trkpt lat="38.60773" lon="-119.87344"><ele>2418.364491346758</ele></trkpt><trkpt lat="38.60801" lon="-119.87407"><ele>2411.9559483211488</ele></trkpt><trkpt lat="38.60782" lon="-119.87498"><ele>2408.65854589108</ele></trkpt><trkpt lat="38.60775" lon="-119.87513"><ele>2407.530449777376</ele></trkpt><trkpt lat="38.60763" lon="-119.87518"><ele>2407.2002808889374</ele></trkpt><trkpt lat="38.60757" lon="-119.87526"><ele>2406.472010666039</ele></trkpt><trkpt lat="38.60737" lon="-119.8754"><ele>2403.9475377774797</ele></trkpt><trkpt lat="38.60728" lon="-119.87543"><ele>2402.5494364444166</ele></trkpt><trkpt lat="38.60716" lon="-119.87543"><ele>2403.5494364444166</ele></trkpt><trkpt lat="38.60704" lon="-119.8755"><ele>2402.2871999996714</ele></trkpt><trkpt lat="38.60698" lon="-119.87549"><ele>2402.464750818287</ele></trkpt><trkpt lat="38.60684" lon="-119.87577"><ele>2401.0</ele></trkpt><trkpt lat="38.60671" lon="-119.87614"><ele>2399.485081637278</ele></trkpt><trkpt lat="38.6065" lon="-119.8765"><ele>2399.0060769793236</ele></trkpt><trkpt lat="38.60645" lon="-119.87655"><ele>2399.3503784139252</ele></trkpt><trkpt lat="38.60613" lon="-119.87655"><ele>2399.0</ele></trkpt><trkpt lat="38.60606" lon="-119.8766"><ele>2398.0058504817157</ele></trkpt><trkpt lat="38.60601" lon="-119.87672"><ele>2398.0</ele></trkpt><trkpt lat="38.60607" lon="-119.87681"><ele>2397.0</ele></trkpt><trkpt lat="38.60608" lon="-119.87688"><ele>2396.054951424132</ele></trkpt><trkpt lat="38.60606" lon="-119.87697"><ele>2396.0</ele></trkpt><trkpt lat="38.606049432927" lon="-119.87699347829663"><ele>2396.0</ele></trkpt><trkpt lat="38.606049432927" lon="-119.87699347829663"><ele>2396.0</ele></trkpt><trkpt lat="38.60597" lon="-119.87717"><ele>2395.0</ele></trkpt><trkpt lat="38.60583" lon="-119.87732"><ele>2394.0</ele></trkpt><trkpt lat="38.60585" lon="-119.87746"><ele>2393.0</ele></trkpt><trkpt lat="38.6055" lon="-119.87774"><ele>2390.0</ele></trkpt><trkpt lat="38.60533" lon="-119.878"><ele>2389.0</ele></trkpt><trkpt lat="38.6053" lon="-119.87815"><ele>2389.0</ele></trkpt><trkpt lat="38.6053" lon="-119.87833"><ele>2390.3438763958893</ele></trkpt><trkpt lat="38.60528" lon="-119.87839"><ele>2393.396561777685</ele></trkpt><trkpt lat="38.60518" lon="-119.87839"><ele>2394.8365336885636</ele></trkpt><trkpt lat="38.60517" lon="-119.87852"><ele>2397.0</ele></trkpt><trkpt lat="38.60512" lon="-119.87873"><ele>2395.832559097177</ele></trkpt><trkpt lat="38.60503" lon="-119.87884"><ele>2396.6744965687394</ele></trkpt><trkpt lat="38.60501" lon="-119.87896"><ele>2399.1275396568462</ele></trkpt><trkpt lat="38.60491" lon="-119.87923"><ele>2400.0919466102255</ele></trkpt><trkpt lat="38.60486" lon="-119.87957"><ele>2402.3885475555435</ele></trkpt><trkpt lat="38.60488" lon="-119.87985"><ele>2406.437493333593</ele></trkpt><trkpt lat="38.60479" lon="-119.88052"><ele>2413.0</ele></trkpt><trkpt lat="38.60492" lon="-119.88058"><ele>2415.0</ele></trkpt><trkpt lat="38.60496" lon="-119.88064"><ele>2416.1509953811765</ele></trkpt><trkpt lat="38.60501" lon="-119.88104"><ele>2413.132786432281</ele></trkpt><trkpt lat="38.60521" lon="-119.88167"><ele>2413.7596902552414</ele></trkpt><trkpt lat="38.60528" lon="-119.88182"><ele>2415.4229214358998</ele></trkpt><trkpt lat="38.60525" lon="-119.88192"><ele>2416.0</ele></trkpt><trkpt lat="38.6051" lon="-119.88205"><ele>2416.0</ele></trkpt><trkpt lat="38.60506" lon="-119.88212"><ele>2416.0</ele></trkpt><trkpt lat="38.60503" lon="-119.88281"><ele>2414.3255034312606</ele></trkpt><trkpt lat="38.60503" lon="-119.88281"><ele>2414.3255034312606</ele></trkpt><trkpt lat="38.605" lon="-119.88322"><ele>2411.536428052932</ele></trkpt><trkpt lat="38.60495" lon="-119.88361"><ele>2408.0</ele></trkpt><trkpt lat="38.60532" lon="-119.88413"><ele>2408.0</ele></trkpt><trkpt lat="38.60543" lon="-119.88424"><ele>2407.0</ele></trkpt><trkpt lat="38.60563" lon="-119.88433"><ele>2405.0</ele></trkpt><trkpt lat="38.60576" lon="-119.88497"><ele>2402.0</ele></trkpt><trkpt lat="38.60574" lon="-119.88506"><ele>2401.506322745927</ele></trkpt><trkpt lat="38.60577" lon="-119.88523"><ele>2398.45626620017</ele></trkpt><trkpt lat="38.60575" lon="-119.88554"><ele>2396.5270737931132</ele></trkpt><trkpt lat="38.60572" lon="-119.88572"><ele>2394.0</ele></trkpt><trkpt lat="38.60575" lon="-119.88583"><ele>2394.0</ele></trkpt><trkpt lat="38.60589" lon="-119.88612"><ele>2393.7518350534956</ele></trkpt><trkpt lat="38.60592" lon="-119.88625"><ele>2392.0</ele></trkpt><trkpt lat="38.60597" lon="-119.88631"><ele>2392.0</ele></trkpt><trkpt lat="38.60632" lon="-119.8865"><ele>2392.0</ele></trkpt><trkpt lat="38.6065" lon="-119.88675"><ele>2389.0</ele></trkpt><trkpt lat="38.60658" lon="-119.88682"><ele>2387.1753366843373</ele></trkpt><trkpt lat="38.60668" lon="-119.88685"><ele>2385.3388622226194</ele></trkpt><trkpt lat="38.60711" lon="-119.88692"><ele>2381.0</ele></trkpt><trkpt lat="38.60795" lon="-119.88692"><ele>2377.0</ele></trkpt><trkpt lat="38.608" lon="-119.88707"><ele>2375.0</ele></trkpt><trkpt lat="38.60809" lon="-119.8872"><ele>2373.0225625528483</ele></trkpt><trkpt lat="38.6081" lon="-119.88725"><ele>2373.0</ele></trkpt><trkpt lat="38.60807" lon="-119.88736"><ele>2372.0</ele></trkpt><trkpt lat="38.60809" lon="-119.8876"><ele>2369.8865451892834</ele></trkpt><trkpt lat="38.60811949157201" lon="-119.88764718651522"><ele>2368.533536748145</ele></trkpt><trkpt lat="38.60813274318737" lon="-119.88766838909635"><ele>2368.0</ele></trkpt><trkpt lat="38.60814" lon="-119.88768"><ele>2368.0</ele></trkpt><trkpt lat="38.60828" lon="-119.88778"><ele>2367.0</ele></trkpt><trkpt lat="38.60846" lon="-119.88786"><ele>2366.0</ele></trkpt><trkpt lat="38.60877" lon="-119.88808"><ele>2364.0</ele></trkpt><trkpt lat="38.60884" lon="-119.88811"><ele>2363.0</ele></trkpt><trkpt lat="38.60896" lon="-119.88808"><ele>2362.0</ele></trkpt><trkpt lat="38.60902" lon="-119.8881"><ele>2362.0</ele></trkpt><trkpt lat="38.60918" lon="-119.88849"><ele>2368.0906773339957</ele></trkpt><trkpt lat="38.60922" lon="-119.88854"><ele>2369.0</ele></trkpt><trkpt lat="38.60936" lon="-119.88865"><ele>2367.0</ele></trkpt><trkpt lat="38.60941" lon="-119.88872"><ele>2365.897384356906</ele></trkpt><trkpt lat="38.60943" lon="-119.88879"><ele>2365.0</ele></trkpt><trkpt lat="38.60942" lon="-119.88901"><ele>2365.0</ele></trkpt><trkpt lat="38.60961" lon="-119.88928"><ele>2368.0</ele></trkpt><trkpt lat="38.60966" lon="-119.88962"><ele>2369.44843605347</ele></trkpt><trkpt lat="38.60987" lon="-119.8899"><ele>2372.0</ele></trkpt><trkpt lat="38.61002" lon="-119.88998"><ele>2373.0</ele></trkpt><trkpt lat="38.61023" lon="-119.88996"><ele>2373.597642667126</ele></trkpt><trkpt lat="38.61039" lon="-119.89"><ele>2372.0</ele></trkpt><trkpt lat="38.6108" lon="-119.89031"><ele>2376.4382417052984</ele></trkpt><trkpt lat="38.61088" lon="-119.89042"><ele>2377.0</ele></trkpt><trkpt lat="38.61089" lon="-119.89049"><ele>2376.942269450716</ele></trkpt><trkpt lat="38.61083" lon="-119.89085"><ele>2377.0</ele></trkpt><trkpt lat="38.61077" lon="-119.89107"><ele>2378.6490224525332</ele></trkpt><trkpt lat="38.61071" lon="-119.89115"><ele>2377.0</ele></trkpt><trkpt lat="38.6107" lon="-119.8915"><ele>2378.0</ele></trkpt><trkpt lat="38.61056" lon="-119.89172"><ele>2378.047364633131</ele></trkpt><trkpt lat="38.61041" lon="-119.89188"><ele>2377.0761280003935</ele></trkpt><trkpt lat="38.61027" lon="-119.89218"><ele>2379.0</ele></trkpt><trkpt lat="38.61024" lon="-119.89256"><ele>2380.0</ele></trkpt><trkpt lat="38.6102" lon="-119.8927"><ele>2380.0</ele></trkpt><trkpt lat="38.61007" lon="-119.89291"><ele>2380.0</ele></trkpt><trkpt lat="38.60996" lon="-119.89314"><ele>2380.0</ele></trkpt><trkpt lat="38.60995" lon="-119.89324"><ele>2380.339794570181</ele></trkpt><trkpt lat="38.60997" lon="-119.89365"><ele>2380.0</ele></trkpt><trkpt lat="38.60993" lon="-119.89383"><ele>2380.0</ele></trkpt><trkpt lat="38.6097" lon="-119.89407"><ele>2380.0</ele></trkpt><trkpt lat="38.60966" lon="-119.89419"><ele>2380.0</ele></trkpt><trkpt lat="38.60963" lon="-119.89432"><ele>2380.0</ele></trkpt><trkpt lat="38.60963" lon="-119.89443"><ele>2380.0</ele></trkpt><trkpt lat="38.60973" lon="-119.89467"><ele>2381.0</ele></trkpt><trkpt lat="38.61014" lon="-119.895"><ele>2384.0</ele></trkpt><trkpt lat="38.6102" lon="-119.895"><ele>2384.0</ele></trkpt><trkpt lat="38.61033" lon="-119.89493"><ele>2385.0881360218937</ele></trkpt><trkpt lat="38.61051" lon="-119.89478"><ele>2386.0</ele></trkpt><trkpt lat="38.6106" lon="-119.89465"><ele>2385.0854384187614</ele></trkpt><trkpt lat="38.61078" lon="-119.89423"><ele>2385.1458008436057</ele></trkpt><trkpt lat="38.61094" lon="-119.89402"><ele>2386.0</ele></trkpt><trkpt lat="38.611" lon="-119.89397"><ele>2386.0</ele></trkpt><trkpt lat="38.6114" lon="-119.89379"><ele>2390.019734096041</ele></trkpt><trkpt lat="38.61188" lon="-119.89348"><ele>2387.946456801739</ele></trkpt><trkpt lat="38.61199" lon="-119.89344"><ele>2390.0</ele></trkpt><trkpt lat="38.61202" lon="-119.89348"><ele>2391.0</ele></trkpt><trkpt lat="38.61203" lon="-119.89361"><ele>2392.939056790343</ele></trkpt><trkpt lat="38.61219" lon="-119.8936"><ele>2393.1545032359268</ele></trkpt><trkpt lat="38.61231" lon="-119.89368"><ele>2394.0</ele></trkpt><trkpt lat="38.61236" lon="-119.89381"><ele>2395.0</ele></trkpt><trkpt lat="38.61241" lon="-119.89403"><ele>2398.6651982642998</ele></trkpt><trkpt lat="38.6125" lon="-119.89413"><ele>2399.945089996327</ele></trkpt><trkpt lat="38.61255" lon="-119.89431"><ele>2402.0</ele></trkpt><trkpt lat="38.61273" lon="-119.89453"><ele>2405.0</ele></trkpt><trkpt lat="38.61281" lon="-119.89489"><ele>2409.0</ele></trkpt><trkpt lat="38.61289" lon="-119.895"><ele>2411.478666666895</ele></trkpt><trkpt lat="38.61296" lon="-119.89503"><ele>2412.2314615755395</ele></trkpt><trkpt lat="38.61304" lon="-119.89502"><ele>2413.4107342222705</ele></trkpt><trkpt lat="38.6132" lon="-119.89492"><ele>2413.4338837369883</ele></trkpt><trkpt lat="38.61356" lon="-119.89491"><ele>2417.2843626667745</ele></trkpt><trkpt lat="38.61369" lon="-119.89499"><ele>2420.0</ele></trkpt><trkpt lat="38.61365" lon="-119.89511"><ele>2420.2525928251425</ele></trkpt><trkpt lat="38.6137" lon="-119.89518"><ele>2421.0</ele></trkpt><trkpt lat="38.61374" lon="-119.89521"><ele>2421.0</ele></trkpt><trkpt lat="38.61395" lon="-119.89522"><ele>2418.6895730998367</ele></trkpt><trkpt lat="38.61398" lon="-119.89529"><ele>2416.0057201444</ele></trkpt><trkpt lat="38.61398" lon="-119.89548"><ele>2413.136582450548</ele></trkpt><trkpt lat="38.6139" lon="-119.89568"><ele>2413.5582368540036</ele></trkpt><trkpt lat="38.6139" lon="-119.89577"><ele>2412.0</ele></trkpt><trkpt lat="38.61392" lon="-119.89611"><ele>2408.478870915249</ele></trkpt><trkpt lat="38.6139" lon="-119.8964"><ele>2406.0</ele></trkpt><trkpt lat="38.61392" lon="-119.89646"><ele>2405.230050438733</ele></trkpt><trkpt lat="38.61399" lon="-119.89652"><ele>2405.0</ele></trkpt><trkpt lat="38.61428" lon="-119.89664"><ele>2404.0</ele></trkpt><trkpt lat="38.61454" lon="-119.89687"><ele>2404.0</ele></trkpt><trkpt lat="38.61464" lon="-119.89688"><ele>2405.0</ele></trkpt><trkpt lat="38.61495" lon="-119.89677"><ele>2405.045884428546</ele></trkpt><trkpt lat="38.61502" lon="-119.89682"><ele>2405.0</ele></trkpt><trkpt lat="38.61514" lon="-119.89695"><ele>2404.0</ele></trkpt><trkpt lat="38.61531" lon="-119.897"><ele>2402.0</ele></trkpt><trkpt lat="38.6155" lon="-119.89715"><ele>2401.0</ele></trkpt><trkpt lat="38.61551" lon="-119.89746"><ele>2398.0</ele></trkpt><trkpt lat="38.61573" lon="-119.8979"><ele>2394.0</ele></trkpt><trkpt lat="38.61572" lon="-119.89809"><ele>2392.5747127069476</ele></trkpt><trkpt lat="38.61562" lon="-119.89831"><ele>2393.0</ele></trkpt><trkpt lat="38.61561" lon="-119.8984"><ele>2391.7029045621425</ele></trkpt><trkpt lat="38.61561328576972" lon="-119.89843614346691"><ele>2392.6145587535575</ele></trkpt><trkpt lat="38.615617007924705" lon="-119.89847708717045"><ele>2393.0</ele></trkpt><trkpt lat="38.61562" lon="-119.89851"><ele>2393.0565226669423</ele></trkpt><trkpt lat="38.61572" lon="-119.89874"><ele>2395.0</ele></trkpt><trkpt lat="38.616" lon="-119.8992"><ele>2402.0</ele></trkpt><trkpt lat="38.61608" lon="-119.89929"><ele>2402.0</ele></trkpt><trkpt lat="38.61617" lon="-119.89931"><ele>2404.339224888943</ele></trkpt><trkpt lat="38.61645" lon="-119.89928"><ele>2405.0</ele></trkpt><trkpt lat="38.61651" lon="-119.89931"><ele>2405.0</ele></trkpt><trkpt lat="38.61657" lon="-119.89938"><ele>2406.8320780234326</ele></trkpt><trkpt lat="38.61656" lon="-119.89946"><ele>2408.3297315561213</ele></trkpt><trkpt lat="38.6165" lon="-119.89949"><ele>2409.0</ele></trkpt><trkpt lat="38.61649" lon="-119.89954"><ele>2409.0</ele></trkpt><trkpt lat="38.61653" lon="-119.8996"><ele>2409.8542044446804</ele></trkpt><trkpt lat="38.61673" lon="-119.89972"><ele>2412.0</ele></trkpt><trkpt lat="38.61675" lon="-119.89989"><ele>2412.3691840004176</ele></trkpt><trkpt lat="38.61668" lon="-119.90004"><ele>2413.5508834542293</ele></trkpt><trkpt lat="38.61648" lon="-119.9003"><ele>2415.0</ele></trkpt><trkpt lat="38.61643" lon="-119.90062"><ele>2417.0</ele></trkpt><trkpt lat="38.61652" lon="-119.90099"><ele>2419.0</ele></trkpt><trkpt lat="38.61667" lon="-119.90111"><ele>2420.0</ele></trkpt><trkpt lat="38.61687" lon="-119.90118"><ele>2419.7579511220993</ele></trkpt><trkpt lat="38.61687" lon="-119.90118"><ele>2419.7579511220993</ele></trkpt><trkpt lat="38.61727" lon="-119.90132"><ele>2417.0</ele></trkpt><trkpt lat="38.61744" lon="-119.9013"><ele>2417.079946666956</ele></trkpt><trkpt lat="38.61756" lon="-119.90109"><ele>2417.184170676627</ele></trkpt><trkpt lat="38.61759" lon="-119.90094"><ele>2414.846553940575</ele></trkpt><trkpt lat="38.61762" lon="-119.90088"><ele>2414.104769288827</ele></trkpt><trkpt lat="38.61769" lon="-119.90082"><ele>2414.0</ele></trkpt><trkpt lat="38.61788" lon="-119.90079"><ele>2412.2232122422065</ele></trkpt><trkpt lat="38.61797" lon="-119.90082"><ele>2412.651295440202</ele></trkpt><trkpt lat="38.61817" lon="-119.90102"><ele>2415.0</ele></trkpt><trkpt lat="38.61844" lon="-119.9012"><ele>2412.0679659916427</ele></trkpt><trkpt lat="38.61856" lon="-119.90139"><ele>2412.0</ele></trkpt><trkpt lat="38.61863" lon="-119.90146"><ele>2414.0</ele></trkpt><trkpt lat="38.61866" lon="-119.90159"><ele>2413.0</ele></trkpt><trkpt lat="38.61871" lon="-119.90163"><ele>2412.778174176812</ele></trkpt><trkpt lat="38.61883" lon="-119.90172"><ele>2412.0</ele></trkpt><trkpt lat="38.61902" lon="-119.9018"><ele>2410.0</ele></trkpt><trkpt lat="38.61916" lon="-119.90211"><ele>2410.0</ele></trkpt><trkpt lat="38.61933" lon="-119.90229"><ele>2411.0</ele></trkpt><trkpt lat="38.61935" lon="-119.90236"><ele>2412.0</ele></trkpt><trkpt lat="38.61932" lon="-119.90251"><ele>2412.0</ele></trkpt><trkpt lat="38.61921" lon="-119.90283"><ele>2412.0</ele></trkpt><trkpt lat="38.61917" lon="-119.9031"><ele>2411.033973333426</ele></trkpt><trkpt lat="38.61919" lon="-119.90319"><ele>2411.0</ele></trkpt><trkpt lat="38.61952" lon="-119.90372"><ele>2417.935145848404</ele></trkpt><trkpt lat="38.61957" lon="-119.90386"><ele>2420.0</ele></trkpt><trkpt lat="38.6196" lon="-119.90413"><ele>2422.308190729469</ele></trkpt><trkpt lat="38.61963" lon="-119.90422"><ele>2422.0</ele></trkpt><trkpt lat="38.62005" lon="-119.90479"><ele>2425.0</ele></trkpt><trkpt lat="38.62005" lon="-119.90479"><ele>2425.0</ele></trkpt><trkpt lat="38.6204275732199" lon="-119.90525338531535"><ele>2428.0</ele></trkpt><trkpt lat="38.62045450113609" lon="-119.90528643232823"><ele>2428.0</ele></trkpt><trkpt lat="38.62071" lon="-119.9056"><ele>2431.5179509911686</ele></trkpt><trkpt lat="38.62074" lon="-119.90594"><ele>2431.0</ele></trkpt><trkpt lat="38.6208" lon="-119.90607"><ele>2431.0</ele></trkpt><trkpt lat="38.62089" lon="-119.9062"><ele>2431.2547654286027</ele></trkpt><trkpt lat="38.62089" lon="-119.90644"><ele>2430.3786915554665</ele></trkpt><trkpt lat="38.62093" lon="-119.90665"><ele>2430.0</ele></trkpt><trkpt lat="38.62109" lon="-119.9068"><ele>2432.0</ele></trkpt><trkpt lat="38.62121" lon="-119.90701"><ele>2431.7209408788326</ele></trkpt><trkpt lat="38.62114" lon="-119.90718"><ele>2432.256850819622</ele></trkpt><trkpt lat="38.62113" lon="-119.90752"><ele>2434.0</ele></trkpt><trkpt lat="38.62113" lon="-119.90752"><ele>2434.0</ele></trkpt><trkpt lat="38.62109" lon="-119.90749"><ele>2433.184590851888</ele></trkpt><trkpt lat="38.62101" lon="-119.90761"><ele>2432.4126566909254</ele></trkpt><trkpt lat="38.62087" lon="-119.90796"><ele>2427.0</ele></trkpt><trkpt lat="38.62074" lon="-119.90817"><ele>2430.0</ele></trkpt><trkpt lat="38.62062" lon="-119.9082"><ele>2429.0962010294284</ele></trkpt><trkpt lat="38.6203" lon="-119.90811"><ele>2428.5788739656755</ele></trkpt><trkpt lat="38.62015" lon="-119.90812"><ele>2429.0</ele></trkpt><trkpt lat="38.62008" lon="-119.90815"><ele>2428.9583129229213</ele></trkpt><trkpt lat="38.6200312767496" lon="-119.90821902460475"><ele>2429.0</ele></trkpt><trkpt lat="38.62003088560884" lon="-119.9082195788134"><ele>2429.0</ele></trkpt><trkpt lat="38.61988043209687" lon="-119.9084327211961"><ele>2429.0</ele></trkpt></trkseg></trk></gpx>