<?xml version="1.0"?>
<gpx xmlns="http://www.topografix.com/GPX/1/1" xmlns:gpxx="http://www.garmin.com/xmlschemas/GpxExtensions/v3" creator="CALTOPO" version="1.1"><metadata><name><![CDATA[Carson-Showers]]></name></metadata><wpt lat="38.69478122819461" lon="-119.98940843264324"><name>Carson Pass Trailhead</name></wpt><trk><name>Carson-Showers</name><trkseg><trkpt lat="38.69477613853108" lon="-119.98939803408325"><ele>2614.0</ele></trkpt><trkpt lat="38.694771523030205" lon="-119.98941089712281"><ele>2614.0</ele></trkpt><trkpt lat="38.69487149031481" lon="-119.98946978196625"><ele>2614.4587790109217</ele></trkpt><trkpt lat="38.694886811776655" lon="-119.98947880664201"><ele>2614.816988247675</ele></trkpt><trkpt lat="38.6955" lon="-119.98984000000002"><ele>2609.656984888017</ele></trkpt><trkpt lat="38.6957" lon="-119.98963000000003"><ele>2612.0</ele></trkpt><trkpt lat="38.6957" lon="-119.98963000000003"><ele>2612.0</ele></trkpt><trkpt lat="38.69603" lon="-119.98969999999997"><ele>2613.480431053017</ele></trkpt><trkpt lat="38.69603" lon="-119.98969999999997"><ele>2613.480431053017</ele></trkpt><trkpt lat="38.69603" lon="-119.98969999999997"><ele>2613.480431053017</ele></trkpt><trkpt lat="38.69617037200815" lon="-119.98986443578099"><ele>2612.0</ele></trkpt><trkpt lat="38.69617979531522" lon="-119.98987547383723"><ele>2612.0</ele></trkpt><trkpt lat="38.69673" lon="-119.99052"><ele>2605.4186841199053</ele></trkpt><trkpt lat="38.69681" lon="-119.9907"><ele>2605.0</ele></trkpt><trkpt lat="38.69681" lon="-119.9907"><ele>2605.0</ele></trkpt><trkpt lat="38.69681" lon="-119.9907"><ele>2605.0</ele></trkpt><trkpt lat="38.69683" lon="-119.99088"><ele>2605.0</ele></trkpt><trkpt lat="38.6968" lon="-119.99133"><ele>2605.0</ele></trkpt><trkpt lat="38.6968" lon="-119.99133"><ele>2605.0</ele></trkpt><trkpt lat="38.69681" lon="-119.99149"><ele>2604.0</ele></trkpt><trkpt lat="38.696762215985615" lon="-119.99166201880115"><ele>2604.0</ele></trkpt><trkpt lat="38.696758941801804" lon="-119.99167776012007"><ele>2604.0</ele></trkpt><trkpt lat="38.69673" lon="-119.99189000000001"><ele>2604.0</ele></trkpt><trkpt lat="38.69677" lon="-119.99194999999997"><ele>2604.821602176875</ele></trkpt><trkpt lat="38.69674" lon="-119.99214999999998"><ele>2604.0</ele></trkpt><trkpt lat="38.69677" lon="-119.99223999999998"><ele>2605.0</ele></trkpt><trkpt lat="38.6967" lon="-119.99255"><ele>2609.0</ele></trkpt><trkpt lat="38.69656507097887" lon="-119.99262626422933"><ele>2609.0</ele></trkpt><trkpt lat="38.696553250048154" lon="-119.99263294567322"><ele>2609.0</ele></trkpt><trkpt lat="38.69647" lon="-119.99268000000001"><ele>2609.0</ele></trkpt><trkpt lat="38.69647" lon="-119.99268000000001"><ele>2609.0</ele></trkpt><trkpt lat="38.69624" lon="-119.99295999999998"><ele>2611.0</ele></trkpt><trkpt lat="38.69606" lon="-119.99351999999999"><ele>2615.0</ele></trkpt><trkpt lat="38.6961" lon="-119.99367999999998"><ele>2617.244358509944</ele></trkpt><trkpt lat="38.69609" lon="-119.99388999999996"><ele>2619.0188518423847</ele></trkpt><trkpt lat="38.69604" lon="-119.99394000000001"><ele>2617.6797924631037</ele></trkpt><trkpt lat="38.69604" lon="-119.99412999999998"><ele>2619.2715057767928</ele></trkpt><trkpt lat="38.69592" lon="-119.99432000000002"><ele>2622.0</ele></trkpt><trkpt lat="38.69596" lon="-119.99455999999998"><ele>2621.3109582215548</ele></trkpt><trkpt lat="38.69593" lon="-119.99466000000001"><ele>2621.6635878123343</ele></trkpt><trkpt lat="38.69595" lon="-119.99482"><ele>2622.857819404453</ele></trkpt><trkpt lat="38.69591" lon="-119.99491"><ele>2621.0</ele></trkpt><trkpt lat="38.69592" lon="-119.99504999999999"><ele>2621.066472142935</ele></trkpt><trkpt lat="38.69573" lon="-119.99576000000002"><ele>2618.16951154693</ele></trkpt><trkpt lat="38.69576" lon="-119.99613999999997"><ele>2622.0</ele></trkpt><trkpt lat="38.69594" lon="-119.99619999999999"><ele>2625.0676531552263</ele></trkpt><trkpt lat="38.69595" lon="-119.99628000000001"><ele>2625.0</ele></trkpt><trkpt lat="38.69581" lon="-119.99664999999999"><ele>2621.642713234505</ele></trkpt><trkpt lat="38.69582" lon="-119.99703"><ele>2619.6188571213606</ele></trkpt><trkpt lat="38.69576" lon="-119.99725999999998"><ele>2618.3725545452908</ele></trkpt><trkpt lat="38.69577" lon="-119.99745999999999"><ele>2616.0505663920935</ele></trkpt><trkpt lat="38.69572" lon="-119.99754000000001"><ele>2615.0</ele></trkpt><trkpt lat="38.69563" lon="-119.99761000000001"><ele>2612.8872543852353</ele></trkpt><trkpt lat="38.69563" lon="-119.99775999999997"><ele>2612.0</ele></trkpt><trkpt lat="38.69568" lon="-119.99787000000003"><ele>2611.0</ele></trkpt><trkpt lat="38.69583" lon="-119.99806999999998"><ele>2609.7266317315043</ele></trkpt><trkpt lat="38.6959" lon="-119.99820999999997"><ele>2609.0</ele></trkpt><trkpt lat="38.69596" lon="-119.99842999999998"><ele>2606.1519346499836</ele></trkpt><trkpt lat="38.69607" lon="-119.99860999999999"><ele>2605.9685777444392</ele></trkpt><trkpt lat="38.69618" lon="-119.99892999999997"><ele>2603.019094362873</ele></trkpt><trkpt lat="38.69629" lon="-119.99909000000002"><ele>2602.6435403249243</ele></trkpt><trkpt lat="38.69664" lon="-119.99943999999999"><ele>2599.0156125876724</ele></trkpt><trkpt lat="38.69693" lon="-119.9998"><ele>2595.4873422225937</ele></trkpt><trkpt lat="38.69717" lon="-119.99993"><ele>2596.428903110791</ele></trkpt><trkpt lat="38.69731" lon="-120.00004999999999"><ele>2597.0</ele></trkpt><trkpt lat="38.69755" lon="-120.00017000000003"><ele>2596.544511785756</ele></trkpt><trkpt lat="38.69774" lon="-120.00034"><ele>2597.8255618262633</ele></trkpt><trkpt lat="38.69827" lon="-120.00054999999998"><ele>2599.674274716962</ele></trkpt><trkpt lat="38.69833" lon="-120.00062000000003"><ele>2601.0</ele></trkpt><trkpt lat="38.69839" lon="-120.00063999999998"><ele>2601.7075660992214</ele></trkpt><trkpt lat="38.69847" lon="-120.00060000000002"><ele>2602.204639999196</ele></trkpt><trkpt lat="38.69852" lon="-120.00062000000003"><ele>2603.5048818357386</ele></trkpt><trkpt lat="38.69866" lon="-120.00085999999999"><ele>2604.059615549222</ele></trkpt><trkpt lat="38.69885" lon="-120.00107000000003"><ele>2602.0</ele></trkpt><trkpt lat="38.69911" lon="-120.00112999999999"><ele>2600.5048497780226</ele></trkpt><trkpt lat="38.69964" lon="-120.00103000000001"><ele>2602.0</ele></trkpt><trkpt lat="38.6997" lon="-120.00112000000001"><ele>2602.0</ele></trkpt><trkpt lat="38.69979" lon="-120.00119000000001"><ele>2602.156472342089</ele></trkpt><trkpt lat="38.69987" lon="-120.00119999999998"><ele>2603.0</ele></trkpt><trkpt lat="38.70018" lon="-120.00107000000003"><ele>2605.0</ele></trkpt><trkpt lat="38.70042" lon="-120.00110999999998"><ele>2604.3394665077294</ele></trkpt><trkpt lat="38.70068" lon="-120.00106"><ele>2607.767086222302</ele></trkpt><trkpt lat="38.7008" lon="-120.00101000000001"><ele>2607.5767570211838</ele></trkpt><trkpt lat="38.70088" lon="-120.00087000000002"><ele>2606.0</ele></trkpt><trkpt lat="38.70102" lon="-120.00072"><ele>2605.0</ele></trkpt><trkpt lat="38.70112" lon="-120.00071000000003"><ele>2605.966961852885</ele></trkpt><trkpt lat="38.701284506343264" lon="-120.00080870380594"><ele>2606.0</ele></trkpt><trkpt lat="38.701284506343264" lon="-120.00080870380594"><ele>2606.0</ele></trkpt><trkpt lat="38.70132" lon="-120.00083000000001"><ele>2605.73209132004</ele></trkpt><trkpt lat="38.7014" lon="-120.00074999999998"><ele>2605.0</ele></trkpt><trkpt lat="38.70147" lon="-120.00074000000001"><ele>2606.0</ele></trkpt><trkpt lat="38.70151" lon="-120.00069000000002"><ele>2607.0</ele></trkpt><trkpt lat="38.70161" lon="-120.00072"><ele>2608.838780172169</ele></trkpt><trkpt lat="38.70165" lon="-120.00080000000003"><ele>2610.0</ele></trkpt><trkpt lat="38.70189" lon="-120.0007"><ele>2612.5443022227846</ele></trkpt><trkpt lat="38.70214" lon="-120.00074000000001"><ele>2612.0</ele></trkpt><trkpt lat="38.70219" lon="-120.00074999999998"><ele>2612.3728014150947</ele></trkpt><trkpt lat="38.70221" lon="-120.00085999999999"><ele>2613.0586879382085</ele></trkpt><trkpt lat="38.7022" lon="-120.0009"><ele>2613.0</ele></trkpt><trkpt lat="38.70206" lon="-120.00099"><ele>2614.6903513974303</ele></trkpt><trkpt lat="38.702" lon="-120.00106"><ele>2613.331258825136</ele></trkpt><trkpt lat="38.70198" lon="-120.00124"><ele>2614.0</ele></trkpt><trkpt lat="38.70203" lon="-120.00137999999998"><ele>2614.919705543667</ele></trkpt><trkpt lat="38.7021" lon="-120.00149999999996"><ele>2616.0261270631954</ele></trkpt><trkpt lat="38.70212" lon="-120.00146000000001"><ele>2617.294208718464</ele></trkpt><trkpt lat="38.70213" lon="-120.00121999999999"><ele>2620.0</ele></trkpt><trkpt lat="38.70217" lon="-120.00114000000002"><ele>2621.280046734959</ele></trkpt><trkpt lat="38.70224" lon="-120.00139999999999"><ele>2623.3821612480097</ele></trkpt><trkpt lat="38.70232" lon="-120.00151"><ele>2624.237573316321</ele></trkpt><trkpt lat="38.70234" lon="-120.00149999999996"><ele>2625.0</ele></trkpt><trkpt lat="38.70232" lon="-120.00134000000003"><ele>2626.1706110065934</ele></trkpt><trkpt lat="38.70236" lon="-120.00125000000003"><ele>2628.0</ele></trkpt><trkpt lat="38.70243" lon="-120.00124"><ele>2629.0</ele></trkpt><trkpt lat="38.70251" lon="-120.00128000000001"><ele>2630.485656889621</ele></trkpt><trkpt lat="38.70261" lon="-120.00142"><ele>2633.5600138933787</ele></trkpt><trkpt lat="38.70266" lon="-120.00179000000003"><ele>2637.5413697995245</ele></trkpt><trkpt lat="38.70266" lon="-120.00179000000003"><ele>2637.5413697995245</ele></trkpt><trkpt lat="38.70268" lon="-120.00198999999998"><ele>2640.7357137743384</ele></trkpt><trkpt lat="38.70266" lon="-120.00206000000003"><ele>2640.9249183638353</ele></trkpt><trkpt lat="38.70266" lon="-120.00206000000003"><ele>2640.9249183638353</ele></trkpt><trkpt lat="38.7026" lon="-120.00234"><ele>2642.848358236348</ele></trkpt><trkpt lat="38.70259" lon="-120.00251000000003"><ele>2643.3611685130745</ele></trkpt><trkpt lat="38.70261" lon="-120.00284999999997"><ele>2646.8457446485636</ele></trkpt><trkpt lat="38.70266" lon="-120.00295"><ele>2647.6850576222123</ele></trkpt><trkpt lat="38.70266" lon="-120.00295"><ele>2647.6850576222123</ele></trkpt><trkpt lat="38.70269" lon="-120.00299999999999"><ele>2648.332885887474</ele></trkpt><trkpt lat="38.70282" lon="-120.00302999999997"><ele>2650.9584320015274</ele></trkpt><trkpt lat="38.70293" lon="-120.00297"><ele>2652.0</ele></trkpt><trkpt lat="38.70299" lon="-120.00297999999998"><ele>2653.2480881158262</ele></trkpt><trkpt lat="38.70322" lon="-120.00322"><ele>2658.0</ele></trkpt><trkpt lat="38.7037" lon="-120.00335999999999"><ele>2664.0</ele></trkpt><trkpt lat="38.70408" lon="-120.00358"><ele>2671.0</ele></trkpt><trkpt lat="38.70436001051846" lon="-120.00358903259735"><ele>2672.0</ele></trkpt><trkpt lat="38.70436001051846" lon="-120.00358903259735"><ele>2672.0</ele></trkpt><trkpt lat="38.70439" lon="-120.00359000000003"><ele>2672.0</ele></trkpt><trkpt lat="38.7046" lon="-120.00351999999998"><ele>2672.0</ele></trkpt><trkpt lat="38.70476" lon="-120.00355000000002"><ele>2673.0</ele></trkpt><trkpt lat="38.70535" lon="-120.00387999999998"><ele>2674.0</ele></trkpt><trkpt lat="38.70571" lon="-120.00401"><ele>2674.0</ele></trkpt><trkpt lat="38.70587" lon="-120.00401"><ele>2673.237853758037</ele></trkpt><trkpt lat="38.70594" lon="-120.00414"><ele>2674.095645792472</ele></trkpt><trkpt lat="38.70601" lon="-120.00419999999997"><ele>2675.0</ele></trkpt><trkpt lat="38.70617" lon="-120.00407999999999"><ele>2677.0</ele></trkpt><trkpt lat="38.70676878620536" lon="-120.00419356290104"><ele>2676.0</ele></trkpt><trkpt lat="38.70678808142872" lon="-120.00419722189571"><ele>2676.0</ele></trkpt><trkpt lat="38.70733" lon="-120.0043"><ele>2676.7721422216855</ele></trkpt><trkpt lat="38.70779" lon="-120.00423999999998"><ele>2676.0</ele></trkpt><trkpt lat="38.70779" lon="-120.00423999999998"><ele>2676.0</ele></trkpt><trkpt lat="38.70779" lon="-120.00423999999998"><ele>2676.0</ele></trkpt><trkpt lat="38.70813" lon="-120.00434999999999"><ele>2674.4419733341783</ele></trkpt><trkpt lat="38.70823" lon="-120.00441999999998"><ele>2673.0</ele></trkpt><trkpt lat="38.70834" lon="-120.00443999999999"><ele>2672.2476693340577</ele></trkpt><trkpt lat="38.70849" lon="-120.00459000000001"><ele>2669.257162666414</ele></trkpt><trkpt lat="38.70868" lon="-120.00464999999997"><ele>2667.460960001219</ele></trkpt><trkpt lat="38.70905" lon="-120.00466"><ele>2662.0</ele></trkpt><trkpt lat="38.70909" lon="-120.00464"><ele>2661.0</ele></trkpt><trkpt lat="38.70919" lon="-120.00464"><ele>2660.4519745711864</ele></trkpt><trkpt lat="38.70946" lon="-120.00473"><ele>2658.0</ele></trkpt><trkpt lat="38.70969" lon="-120.00486999999998"><ele>2656.0</ele></trkpt><trkpt lat="38.70982" lon="-120.00502"><ele>2652.18769635267</ele></trkpt><trkpt lat="38.71009" lon="-120.00495999999998"><ele>2651.0</ele></trkpt><trkpt lat="38.71015" lon="-120.00493"><ele>2651.0</ele></trkpt><trkpt lat="38.71017" lon="-120.00488999999999"><ele>2651.2648210040356</ele></trkpt><trkpt lat="38.71032" lon="-120.00494000000003"><ele>2650.945980442688</ele></trkpt><trkpt lat="38.71049" lon="-120.00527"><ele>2648.6329505600215</ele></trkpt><trkpt lat="38.71059" lon="-120.00533000000001"><ele>2647.0</ele></trkpt><trkpt lat="38.71065" lon="-120.00529"><ele>2647.185119212596</ele></trkpt><trkpt lat="38.71107" lon="-120.00538"><ele>2644.0</ele></trkpt><trkpt lat="38.71131" lon="-120.00533000000001"><ele>2640.8736867047846</ele></trkpt><trkpt lat="38.7114" lon="-120.00536"><ele>2639.0</ele></trkpt><trkpt lat="38.71145" lon="-120.00545999999997"><ele>2637.512260345742</ele></trkpt><trkpt lat="38.71145" lon="-120.00554"><ele>2636.504040502359</ele></trkpt><trkpt lat="38.71125" lon="-120.00598000000002"><ele>2632.0</ele></trkpt><trkpt lat="38.71116" lon="-120.00612000000001"><ele>2630.7940475688383</ele></trkpt><trkpt lat="38.71118" lon="-120.00617"><ele>2629.8637698828074</ele></trkpt><trkpt lat="38.71138" lon="-120.00623000000002"><ele>2626.0</ele></trkpt><trkpt lat="38.71153" lon="-120.00623999999999"><ele>2623.8303711422254</ele></trkpt><trkpt lat="38.71167" lon="-120.00612999999998"><ele>2623.0</ele></trkpt><trkpt lat="38.71182" lon="-120.0061"><ele>2620.9332468345683</ele></trkpt><trkpt lat="38.71193" lon="-120.00594999999998"><ele>2618.9807927015304</ele></trkpt><trkpt lat="38.71205" lon="-120.00587000000002"><ele>2616.0</ele></trkpt><trkpt lat="38.71207698381197" lon="-120.00588349190599"><ele>2616.0</ele></trkpt><trkpt lat="38.71207698381197" lon="-120.00588349190599"><ele>2616.0</ele></trkpt><trkpt lat="38.71213" lon="-120.00590999999997"><ele>2614.899385103956</ele></trkpt><trkpt lat="38.71218" lon="-120.00599"><ele>2612.913129031658</ele></trkpt><trkpt lat="38.71224" lon="-120.00623999999999"><ele>2610.0</ele></trkpt><trkpt lat="38.71223" lon="-120.00634000000002"><ele>2609.6499696378555</ele></trkpt><trkpt lat="38.7124" lon="-120.00646"><ele>2606.0</ele></trkpt><trkpt lat="38.71252" lon="-120.00641000000002"><ele>2605.0</ele></trkpt><trkpt lat="38.71266" lon="-120.00643000000002"><ele>2603.0</ele></trkpt><trkpt lat="38.71274" lon="-120.00639000000001"><ele>2602.0</ele></trkpt><trkpt lat="38.71284" lon="-120.00641999999999"><ele>2601.0</ele></trkpt><trkpt lat="38.71299" lon="-120.00628"><ele>2598.0</ele></trkpt><trkpt lat="38.71306" lon="-120.00623999999999"><ele>2596.588020986773</ele></trkpt><trkpt lat="38.71321" lon="-120.00626999999997"><ele>2598.0</ele></trkpt><trkpt lat="38.71352" lon="-120.00621000000001"><ele>2596.0</ele></trkpt><trkpt lat="38.71415" lon="-120.00623000000002"><ele>2592.0</ele></trkpt><trkpt lat="38.71453" lon="-120.00608"><ele>2587.637353669721</ele></trkpt><trkpt lat="38.71461" lon="-120.00612000000001"><ele>2587.0</ele></trkpt><trkpt lat="38.71491" lon="-120.00643000000002"><ele>2582.0</ele></trkpt><trkpt lat="38.71504" lon="-120.00646999999998"><ele>2581.0</ele></trkpt><trkpt lat="38.71515" lon="-120.0068"><ele>2581.0</ele></trkpt><trkpt lat="38.71536" lon="-120.00702999999999"><ele>2579.0</ele></trkpt><trkpt lat="38.71567" lon="-120.00713000000002"><ele>2576.0</ele></trkpt><trkpt lat="38.71609" lon="-120.00740000000002"><ele>2573.2663674192</ele></trkpt><trkpt lat="38.71648" lon="-120.00756000000001"><ele>2571.0</ele></trkpt><trkpt lat="38.7167" lon="-120.00774999999999"><ele>2570.0</ele></trkpt><trkpt lat="38.71687" lon="-120.00779999999997"><ele>2569.0</ele></trkpt><trkpt lat="38.71704" lon="-120.00790999999998"><ele>2568.0</ele></trkpt><trkpt lat="38.71735" lon="-120.00822"><ele>2566.9237854672133</ele></trkpt><trkpt lat="38.71774" lon="-120.00873000000001"><ele>2565.0</ele></trkpt><trkpt lat="38.71789" lon="-120.00887999999998"><ele>2565.0</ele></trkpt><trkpt lat="38.71808" lon="-120.00902000000002"><ele>2564.0</ele></trkpt><trkpt lat="38.71813" lon="-120.00911000000002"><ele>2564.0</ele></trkpt><trkpt lat="38.71825" lon="-120.00954999999999"><ele>2563.0</ele></trkpt><trkpt lat="38.7183" lon="-120.00991999999997"><ele>2562.0</ele></trkpt><trkpt lat="38.7183" lon="-120.01008000000002"><ele>2562.0</ele></trkpt><trkpt lat="38.71849" lon="-120.01030000000003"><ele>2562.0</ele></trkpt><trkpt lat="38.71852" lon="-120.01044000000002"><ele>2561.0</ele></trkpt><trkpt lat="38.71852" lon="-120.01051000000001"><ele>2561.0</ele></trkpt><trkpt lat="38.71843" lon="-120.01071999999999"><ele>2561.0</ele></trkpt><trkpt lat="38.71839" lon="-120.01098999999999"><ele>2560.0</ele></trkpt><trkpt lat="38.71848" lon="-120.01120000000003"><ele>2560.0</ele></trkpt><trkpt lat="38.71859" lon="-120.01134000000002"><ele>2559.0</ele></trkpt><trkpt lat="38.71876" lon="-120.01143000000002"><ele>2559.0</ele></trkpt><trkpt lat="38.71893" lon="-120.01147000000003"><ele>2558.0</ele></trkpt><trkpt lat="38.71906" lon="-120.01146"><ele>2557.0</ele></trkpt><trkpt lat="38.71921" lon="-120.01150999999999"><ele>2557.0</ele></trkpt><trkpt lat="38.71946" lon="-120.01134000000002"><ele>2557.0</ele></trkpt><trkpt lat="38.71961" lon="-120.01135"><ele>2557.0</ele></trkpt><trkpt lat="38.71973" lon="-120.01126"><ele>2557.0</ele></trkpt><trkpt lat="38.7198" lon="-120.01123000000001"><ele>2557.041016695176</ele></trkpt><trkpt lat="38.7198" lon="-120.01123000000001"><ele>2557.041016695176</ele></trkpt><trkpt lat="38.71987" lon="-120.01121999999998"><ele>2558.0</ele></trkpt><trkpt lat="38.71999" lon="-120.01125000000002"><ele>2557.0</ele></trkpt><trkpt lat="38.72023" lon="-120.01138000000003"><ele>2556.1620363399134</ele></trkpt><trkpt lat="38.72038" lon="-120.01141000000001"><ele>2556.0</ele></trkpt><trkpt lat="38.72053" lon="-120.01153"><ele>2556.0</ele></trkpt><trkpt lat="38.7206" lon="-120.01159000000001"><ele>2557.0</ele></trkpt><trkpt lat="38.72073" lon="-120.01192000000003"><ele>2557.0</ele></trkpt><trkpt lat="38.72076" lon="-120.01195000000001"><ele>2557.0</ele></trkpt><trkpt lat="38.72076" lon="-120.01195000000001"><ele>2557.0</ele></trkpt><trkpt lat="38.72076" lon="-120.01195000000001"><ele>2557.0</ele></trkpt><trkpt lat="38.72088" lon="-120.01193999999998"><ele>2557.0</ele></trkpt><trkpt lat="38.72108" lon="-120.01177000000001"><ele>2557.0</ele></trkpt><trkpt lat="38.72128" lon="-120.01168999999999"><ele>2557.0</ele></trkpt><trkpt lat="38.72166" lon="-120.01168999999999"><ele>2557.0</ele></trkpt><trkpt lat="38.72175" lon="-120.01173"><ele>2557.0</ele></trkpt><trkpt lat="38.72183" lon="-120.01184"><ele>2556.0</ele></trkpt><trkpt lat="38.72203" lon="-120.01193999999998"><ele>2555.0</ele></trkpt><trkpt lat="38.72219840111299" lon="-120.01212443931422"><ele>2554.0</ele></trkpt><trkpt lat="38.72219840111299" lon="-120.01212443931422"><ele>2554.0</ele></trkpt><trkpt lat="38.72224" lon="-120.01216999999997"><ele>2554.0</ele></trkpt><trkpt lat="38.72224" lon="-120.01216999999997"><ele>2554.0</ele></trkpt><trkpt lat="38.72231" lon="-120.01220999999998"><ele>2554.0</ele></trkpt><trkpt lat="38.72255" lon="-120.01225"><ele>2554.0</ele></trkpt><trkpt lat="38.72262" lon="-120.01224000000002"><ele>2554.0</ele></trkpt><trkpt lat="38.7228" lon="-120.01213000000001"><ele>2555.0</ele></trkpt><trkpt lat="38.72284" lon="-120.01213999999999"><ele>2555.0</ele></trkpt><trkpt lat="38.72301" lon="-120.01228000000003"><ele>2554.0</ele></trkpt><trkpt lat="38.72327" lon="-120.01261"><ele>2553.0</ele></trkpt><trkpt lat="38.72341" lon="-120.01296000000002"><ele>2553.0</ele></trkpt><trkpt lat="38.72343" lon="-120.01321000000002"><ele>2552.0</ele></trkpt><trkpt lat="38.72365" lon="-120.01371"><ele>2549.0</ele></trkpt><trkpt lat="38.72369" lon="-120.01409999999998"><ele>2548.0</ele></trkpt><trkpt lat="38.72382" lon="-120.01436000000001"><ele>2548.32423435771</ele></trkpt><trkpt lat="38.72392" lon="-120.01449000000002"><ele>2549.0369331619386</ele></trkpt><trkpt lat="38.72414" lon="-120.01465000000002"><ele>2551.0</ele></trkpt><trkpt lat="38.72414" lon="-120.01465000000002"><ele>2551.0</ele></trkpt><trkpt lat="38.72426" lon="-120.01476000000002"><ele>2550.188777508468</ele></trkpt><trkpt lat="38.72453" lon="-120.01506"><ele>2549.0</ele></trkpt><trkpt lat="38.72475" lon="-120.01517999999999"><ele>2548.0</ele></trkpt><trkpt lat="38.72502" lon="-120.01526999999999"><ele>2549.0</ele></trkpt><trkpt lat="38.72509085169003" lon="-120.01530542584499"><ele>2549.0</ele></trkpt><trkpt lat="38.725164249024346" lon="-120.01534212445375"><ele>2549.0</ele></trkpt><trkpt lat="38.72528" lon="-120.0154"><ele>2549.0</ele></trkpt><trkpt lat="38.7256" lon="-120.01562000000001"><ele>2548.0</ele></trkpt><trkpt lat="38.72636" lon="-120.01647000000003"><ele>2545.0</ele></trkpt><trkpt lat="38.72652" lon="-120.01675999999998"><ele>2544.0</ele></trkpt><trkpt lat="38.72706" lon="-120.01711"><ele>2543.0</ele></trkpt><trkpt lat="38.72727" lon="-120.01734999999996"><ele>2542.0</ele></trkpt><trkpt lat="38.72755" lon="-120.01779999999997"><ele>2541.6265422236174</ele></trkpt><trkpt lat="38.72811100930655" lon="-120.01854167282886"><ele>2539.0</ele></trkpt><trkpt lat="38.72811100930655" lon="-120.01854167282886"><ele>2539.0</ele></trkpt><trkpt lat="38.72814" lon="-120.01857999999999"><ele>2538.593420786783</ele></trkpt><trkpt lat="38.72819" lon="-120.01859999999999"><ele>2538.393504355103</ele></trkpt><trkpt lat="38.72833" lon="-120.01875999999999"><ele>2540.0</ele></trkpt><trkpt lat="38.72875" lon="-120.01902999999999"><ele>2543.0</ele></trkpt><trkpt lat="38.729" lon="-120.01936"><ele>2544.723547608198</ele></trkpt><trkpt lat="38.7292" lon="-120.01972999999998"><ele>2545.729839876294</ele></trkpt><trkpt lat="38.72949" lon="-120.02010000000001"><ele>2546.0</ele></trkpt><trkpt lat="38.72976" lon="-120.02076"><ele>2546.0</ele></trkpt><trkpt lat="38.73024" lon="-120.02116999999998"><ele>2547.0</ele></trkpt><trkpt lat="38.73043011202365" lon="-120.02127968001366"><ele>2548.0</ele></trkpt><trkpt lat="38.73043011202365" lon="-120.02127968001366"><ele>2548.0</ele></trkpt><trkpt lat="38.7305" lon="-120.02132"><ele>2548.5826524444856</ele></trkpt><trkpt lat="38.73066" lon="-120.02151000000003"><ele>2548.0</ele></trkpt><trkpt lat="38.73093" lon="-120.02165000000002"><ele>2547.0</ele></trkpt><trkpt lat="38.73097" lon="-120.02179999999998"><ele>2545.1129423404855</ele></trkpt><trkpt lat="38.73135" lon="-120.02181000000002"><ele>2543.0</ele></trkpt><trkpt lat="38.73183" lon="-120.02161000000001"><ele>2540.0</ele></trkpt><trkpt lat="38.7321" lon="-120.02143999999998"><ele>2537.0</ele></trkpt><trkpt lat="38.7323" lon="-120.02143999999998"><ele>2537.0</ele></trkpt><trkpt lat="38.73249" lon="-120.02127000000002"><ele>2536.0</ele></trkpt><trkpt lat="38.73268" lon="-120.02124000000003"><ele>2536.0</ele></trkpt><trkpt lat="38.73284" lon="-120.02125000000001"><ele>2536.0</ele></trkpt><trkpt lat="38.73298" lon="-120.02133000000003"><ele>2535.3969682106717</ele></trkpt><trkpt lat="38.7331" lon="-120.02145000000002"><ele>2535.0</ele></trkpt><trkpt lat="38.73318" lon="-120.02160000000003"><ele>2534.267307484935</ele></trkpt><trkpt lat="38.73348" lon="-120.02172000000002"><ele>2532.0</ele></trkpt><trkpt lat="38.73354" lon="-120.02193"><ele>2531.0</ele></trkpt><trkpt lat="38.73355" lon="-120.02208000000002"><ele>2531.0</ele></trkpt><trkpt lat="38.73382" lon="-120.02251999999999"><ele>2530.516162639972</ele></trkpt><trkpt lat="38.73382" lon="-120.02265"><ele>2531.0</ele></trkpt><trkpt lat="38.73388" lon="-120.02274"><ele>2531.0</ele></trkpt><trkpt lat="38.7344" lon="-120.02303"><ele>2531.0</ele></trkpt><trkpt lat="38.73491" lon="-120.02375"><ele>2531.0</ele></trkpt><trkpt lat="38.735" lon="-120.02397000000002"><ele>2530.0</ele></trkpt><trkpt lat="38.73502" lon="-120.02418"><ele>2530.402734430773</ele></trkpt><trkpt lat="38.73541" lon="-120.02438000000001"><ele>2531.0</ele></trkpt><trkpt lat="38.73558" lon="-120.0247"><ele>2530.0559021250347</ele></trkpt><trkpt lat="38.73573" lon="-120.02481"><ele>2530.0</ele></trkpt><trkpt lat="38.73583" lon="-120.02494999999999"><ele>2531.0</ele></trkpt><trkpt lat="38.73608" lon="-120.02548999999999"><ele>2534.0</ele></trkpt><trkpt lat="38.73652" lon="-120.02607999999998"><ele>2538.0</ele></trkpt><trkpt lat="38.73664" lon="-120.02634999999998"><ele>2539.0</ele></trkpt><trkpt lat="38.7366" lon="-120.02656999999999"><ele>2541.01496885575</ele></trkpt><trkpt lat="38.73668" lon="-120.02683999999999"><ele>2544.0</ele></trkpt><trkpt lat="38.73659" lon="-120.02696000000003"><ele>2546.0590082447748</ele></trkpt><trkpt lat="38.73666" lon="-120.02732000000003"><ele>2549.0</ele></trkpt><trkpt lat="38.73652" lon="-120.02758"><ele>2553.1544924443588</ele></trkpt><trkpt lat="38.73658" lon="-120.02792999999997"><ele>2558.0</ele></trkpt><trkpt lat="38.73652" lon="-120.02828999999997"><ele>2562.0</ele></trkpt><trkpt lat="38.73659" lon="-120.02857"><ele>2566.0</ele></trkpt><trkpt lat="38.73675" lon="-120.02894000000003"><ele>2569.0</ele></trkpt><trkpt lat="38.73695" lon="-120.02915000000002"><ele>2574.3217955566943</ele></trkpt><trkpt lat="38.73695" lon="-120.02915000000002"><ele>2574.3217955566943</ele></trkpt><trkpt lat="38.73712" lon="-120.0292"><ele>2574.6519644442014</ele></trkpt><trkpt lat="38.73718" lon="-120.02927999999997"><ele>2575.704603005247</ele></trkpt><trkpt lat="38.73715" lon="-120.02936999999997"><ele>2577.0</ele></trkpt><trkpt lat="38.73706" lon="-120.02940000000001"><ele>2579.0</ele></trkpt><trkpt lat="38.73699" lon="-120.02936"><ele>2580.0</ele></trkpt><trkpt lat="38.73695" lon="-120.02938"><ele>2580.0</ele></trkpt><trkpt lat="38.73695" lon="-120.02938"><ele>2580.0</ele></trkpt><trkpt lat="38.73691" lon="-120.02939000000003"><ele>2580.3317124860114</ele></trkpt><trkpt lat="38.73684" lon="-120.02949000000001"><ele>2581.1669440004043</ele></trkpt><trkpt lat="38.73688" lon="-120.02960000000002"><ele>2582.609308042529</ele></trkpt><trkpt lat="38.73695" lon="-120.02971000000002"><ele>2583.0</ele></trkpt><trkpt lat="38.73695" lon="-120.02971000000002"><ele>2583.0</ele></trkpt><trkpt lat="38.73705" lon="-120.02992"><ele>2586.0</ele></trkpt><trkpt lat="38.73722" lon="-120.03005999999999"><ele>2587.7308693332598</ele></trkpt><trkpt lat="38.73752" lon="-120.03037999999998"><ele>2594.6439502215944</ele></trkpt><trkpt lat="38.73776" lon="-120.03046999999998"><ele>2595.8173125914827</ele></trkpt><trkpt lat="38.73787" lon="-120.03064999999998"><ele>2600.4575699358675</ele></trkpt><trkpt lat="38.73803" lon="-120.03082999999998"><ele>2603.4547922055253</ele></trkpt><trkpt lat="38.73807" lon="-120.03118"><ele>2608.0</ele></trkpt><trkpt lat="38.7382" lon="-120.03143999999998"><ele>2612.0435306658037</ele></trkpt><trkpt lat="38.73848" lon="-120.03163999999998"><ele>2615.3642062214203</ele></trkpt><trkpt lat="38.73862997017228" lon="-120.03179879194715"><ele>2619.0</ele></trkpt><trkpt lat="38.73866408007725" lon="-120.03184698679468"><ele>2620.010490010027</ele></trkpt><trkpt lat="38.73877" lon="-120.03205000000003"><ele>2624.7219999188856</ele></trkpt><trkpt lat="38.73895" lon="-120.03228999999999"><ele>2629.6564017771743</ele></trkpt><trkpt lat="38.73932" lon="-120.03251999999998"><ele>2634.0</ele></trkpt><trkpt lat="38.73949" lon="-120.03274999999996"><ele>2638.0</ele></trkpt><trkpt lat="38.73977" lon="-120.03271999999998"><ele>2640.7632781730695</ele></trkpt><trkpt lat="38.74008" lon="-120.03273999999999"><ele>2645.9046244683186</ele></trkpt><trkpt lat="38.74023" lon="-120.03280999999998"><ele>2647.890158222057</ele></trkpt><trkpt lat="38.74031" lon="-120.03289999999998"><ele>2649.0</ele></trkpt><trkpt lat="38.74027" lon="-120.03298000000001"><ele>2650.734797751789</ele></trkpt><trkpt lat="38.73998" lon="-120.03318000000002"><ele>2655.0</ele></trkpt><trkpt lat="38.73984" lon="-120.03336000000002"><ele>2656.0</ele></trkpt><trkpt lat="38.73985" lon="-120.03358000000003"><ele>2655.0</ele></trkpt><trkpt lat="38.74" lon="-120.03391999999997"><ele>2654.0</ele></trkpt><trkpt lat="38.74" lon="-120.03391999999997"><ele>2654.0</ele></trkpt><trkpt lat="38.74007" lon="-120.03397999999999"><ele>2653.4985347746556</ele></trkpt><trkpt lat="38.74045" lon="-120.03385000000003"><ele>2651.0</ele></trkpt><trkpt lat="38.74072" lon="-120.03381000000002"><ele>2647.0</ele></trkpt><trkpt lat="38.74083" lon="-120.03384"><ele>2645.0</ele></trkpt><trkpt lat="38.74088" lon="-120.03388000000001"><ele>2645.0</ele></trkpt><trkpt lat="38.74096" lon="-120.03404999999998"><ele>2642.7811352839385</ele></trkpt><trkpt lat="38.74107" lon="-120.03411"><ele>2640.525450666435</ele></trkpt><trkpt lat="38.7412" lon="-120.03412000000003"><ele>2641.0</ele></trkpt><trkpt lat="38.74139" lon="-120.03408000000002"><ele>2641.0</ele></trkpt><trkpt lat="38.741888209485964" lon="-120.03409748103456"><ele>2640.0</ele></trkpt></trkseg></trk></gpx>