<?xml version="1.0"?>
<gpx xmlns="http://www.topografix.com/GPX/1/1" xmlns:gpxx="http://www.garmin.com/xmlschemas/GpxExtensions/v3" creator="CALTOPO" version="1.1"><metadata><name><![CDATA[Donner-I-80]]></name></metadata><wpt lat="39.3391187426802" lon="-120.3432809658104"><name>Donner Summit SNO-Park</name></wpt><trk><name>Donner-I-80</name><trkseg><trkpt lat="39.3391347175251" lon="-120.34325516890118"><ele>2199.0</ele></trkpt><trkpt lat="39.339138640102504" lon="-120.34325687961928"><ele>2199.0</ele></trkpt><trkpt lat="39.33913" lon="-120.34329000000002"><ele>2199.0</ele></trkpt><trkpt lat="39.33913" lon="-120.34335851669312"><ele>2199.0</ele></trkpt><trkpt lat="39.33913000000002" lon="-120.34340537260601"><ele>2199.0</ele></trkpt><trkpt lat="39.33913" lon="-120.34350999999998"><ele>2199.0</ele></trkpt><trkpt lat="39.3392" lon="-120.34373"><ele>2198.9229466845945</ele></trkpt><trkpt lat="39.33933" lon="-120.34375"><ele>2199.0</ele></trkpt><trkpt lat="39.33955" lon="-120.34370999999999"><ele>2200.0</ele></trkpt><trkpt lat="39.33971" lon="-120.34374000000003"><ele>2200.459271378582</ele></trkpt><trkpt lat="39.33988" lon="-120.34388999999999"><ele>2200.643568793014</ele></trkpt><trkpt lat="39.33989" lon="-120.34411"><ele>2201.0</ele></trkpt><trkpt lat="39.33989" lon="-120.34411"><ele>2201.0</ele></trkpt><trkpt lat="39.33986" lon="-120.34424000000001"><ele>2200.60835244958</ele></trkpt><trkpt lat="39.33986" lon="-120.34424000000001"><ele>2200.60835244958</ele></trkpt><trkpt lat="39.33955857273133" lon="-120.34522543530147"><ele>2199.0</ele></trkpt><trkpt lat="39.33954723879934" lon="-120.34526249385931"><ele>2199.0</ele></trkpt><trkpt lat="39.33882" lon="-120.34764000000001"><ele>2193.0</ele></trkpt><trkpt lat="39.33855" lon="-120.34825000000001"><ele>2192.0</ele></trkpt><trkpt lat="39.33809" lon="-120.34919000000002"><ele>2191.0</ele></trkpt><trkpt lat="39.33809" lon="-120.34919000000002"><ele>2191.0</ele></trkpt><trkpt lat="39.33840901251046" lon="-120.34939261605393"><ele>2190.0</ele></trkpt><trkpt lat="39.33840901251046" lon="-120.34939261605393"><ele>2190.0</ele></trkpt><trkpt lat="39.33957" lon="-120.35012999999998"><ele>2193.0</ele></trkpt><trkpt lat="39.33957" lon="-120.35012999999998"><ele>2193.0</ele></trkpt><trkpt lat="39.33968" lon="-120.35019999999997"><ele>2194.0</ele></trkpt><trkpt lat="39.33978" lon="-120.35023000000001"><ele>2195.0</ele></trkpt><trkpt lat="39.33987" lon="-120.35019"><ele>2195.0</ele></trkpt><trkpt lat="39.33991" lon="-120.35012999999998"><ele>2195.9260053341277</ele></trkpt><trkpt lat="39.34029" lon="-120.34816000000001"><ele>2209.0</ele></trkpt><trkpt lat="39.3404" lon="-120.34789999999998"><ele>2211.0</ele></trkpt><trkpt lat="39.34058" lon="-120.34773999999999"><ele>2213.0</ele></trkpt><trkpt lat="39.34083" lon="-120.34764000000001"><ele>2216.0</ele></trkpt><trkpt lat="39.341" lon="-120.3476"><ele>2217.0</ele></trkpt><trkpt lat="39.341" lon="-120.3476"><ele>2217.0</ele></trkpt><trkpt lat="39.34105" lon="-120.34761000000003"><ele>2217.7737050262795</ele></trkpt><trkpt lat="39.34117" lon="-120.34769"><ele>2219.0</ele></trkpt><trkpt lat="39.34143" lon="-120.34800000000001"><ele>2223.8625295558786</ele></trkpt><trkpt lat="39.34161" lon="-120.34815000000003"><ele>2225.799306668807</ele></trkpt><trkpt lat="39.34176" lon="-120.34825000000001"><ele>2227.0</ele></trkpt><trkpt lat="39.34176" lon="-120.34825000000001"><ele>2227.0</ele></trkpt><trkpt lat="39.34217" lon="-120.34865000000002"><ele>2229.0</ele></trkpt><trkpt lat="39.34271" lon="-120.3494"><ele>2232.0</ele></trkpt><trkpt lat="39.34302" lon="-120.34964000000002"><ele>2232.0</ele></trkpt><trkpt lat="39.34326" lon="-120.34987999999998"><ele>2233.67881991979</ele></trkpt><trkpt lat="39.34358" lon="-120.35007999999999"><ele>2232.0</ele></trkpt><trkpt lat="39.34387" lon="-120.35046"><ele>2232.0</ele></trkpt><trkpt lat="39.34417" lon="-120.35070999999999"><ele>2231.0</ele></trkpt><trkpt lat="39.3443" lon="-120.35088999999999"><ele>2231.0</ele></trkpt><trkpt lat="39.3443938370948" lon="-120.35105890677062"><ele>2231.0</ele></trkpt><trkpt lat="39.34446167730991" lon="-120.35080826948712"><ele>2230.9714087210596</ele></trkpt><trkpt lat="39.34454464855034" lon="-120.35042203138897"><ele>2229.0</ele></trkpt><trkpt lat="39.34459443124731" lon="-120.35016453932354"><ele>2228.3359024404294</ele></trkpt><trkpt lat="39.3448101558578" lon="-120.35001433561871"><ele>2225.009045027484</ele></trkpt><trkpt lat="39.34514203857374" lon="-120.34986413191388"><ele>2230.9714087210596</ele></trkpt><trkpt lat="39.34513096667639" lon="-120.34986730559297"><ele>2230.304189717397</ele></trkpt><trkpt lat="39.345093340261045" lon="-120.3496478181894"><ele>2230.0367327649146</ele></trkpt><trkpt lat="39.345092398814565" lon="-120.34964232639379"><ele>2229.9869344844383</ele></trkpt><trkpt lat="39.34508" lon="-120.34956999999997"><ele>2230.0</ele></trkpt><trkpt lat="39.34509" lon="-120.34947999999997"><ele>2229.835440777242</ele></trkpt><trkpt lat="39.34527" lon="-120.34917999999999"><ele>2228.546678720539</ele></trkpt><trkpt lat="39.34523" lon="-120.34872000000001"><ele>2227.0988638745807</ele></trkpt><trkpt lat="39.34521" lon="-120.34811000000002"><ele>2225.0669290628284</ele></trkpt><trkpt lat="39.34518" lon="-120.34800999999999"><ele>2223.0711972909426</ele></trkpt><trkpt lat="39.345" lon="-120.34771999999998"><ele>2225.0</ele></trkpt><trkpt lat="39.34485" lon="-120.34735"><ele>2225.0</ele></trkpt><trkpt lat="39.3445" lon="-120.3467"><ele>2227.0</ele></trkpt><trkpt lat="39.34336" lon="-120.34572000000003"><ele>2220.0</ele></trkpt><trkpt lat="39.34331" lon="-120.34562"><ele>2220.6159544405255</ele></trkpt><trkpt lat="39.34328" lon="-120.34541999999999"><ele>2222.3260703378155</ele></trkpt><trkpt lat="39.34295" lon="-120.34483999999998"><ele>2221.875984746963</ele></trkpt><trkpt lat="39.34273" lon="-120.34471000000002"><ele>2220.0</ele></trkpt><trkpt lat="39.34272" lon="-120.34464000000003"><ele>2219.0035634254577</ele></trkpt><trkpt lat="39.34273" lon="-120.34456"><ele>2218.0</ele></trkpt><trkpt lat="39.34286" lon="-120.34424000000001"><ele>2218.0</ele></trkpt><trkpt lat="39.34286" lon="-120.34424000000001"><ele>2218.0</ele></trkpt><trkpt lat="39.34301" lon="-120.34406999999999"><ele>2217.0</ele></trkpt><trkpt lat="39.34298" lon="-120.34402"><ele>2217.0</ele></trkpt><trkpt lat="39.34289" lon="-120.344"><ele>2216.7076269328163</ele></trkpt><trkpt lat="39.34273" lon="-120.34386999999998"><ele>2215.0</ele></trkpt><trkpt lat="39.34256" lon="-120.34366999999997"><ele>2214.0</ele></trkpt><trkpt lat="39.34256" lon="-120.34348"><ele>2214.0</ele></trkpt><trkpt lat="39.34253" lon="-120.34336000000002"><ele>2213.0</ele></trkpt><trkpt lat="39.34256" lon="-120.34323999999998"><ele>2212.6109852167046</ele></trkpt><trkpt lat="39.34266" lon="-120.34309000000002"><ele>2210.0</ele></trkpt><trkpt lat="39.34272" lon="-120.34289000000001"><ele>2208.0053818977835</ele></trkpt><trkpt lat="39.3428" lon="-120.34235000000001"><ele>2207.8369186203927</ele></trkpt><trkpt lat="39.34286" lon="-120.34212000000002"><ele>2207.4525427427143</ele></trkpt><trkpt lat="39.34291" lon="-120.34172999999998"><ele>2207.0</ele></trkpt><trkpt lat="39.34296" lon="-120.34163000000001"><ele>2207.0</ele></trkpt><trkpt lat="39.34318" lon="-120.34131000000002"><ele>2207.0</ele></trkpt><trkpt lat="39.34329" lon="-120.34120999999999"><ele>2207.364606451243</ele></trkpt><trkpt lat="39.34362" lon="-120.34100000000001"><ele>2209.0</ele></trkpt><trkpt lat="39.343639946988475" lon="-120.34097672851345"><ele>2209.0</ele></trkpt><trkpt lat="39.343641392665546" lon="-120.34097504190783"><ele>2209.0</ele></trkpt><trkpt lat="39.34374" lon="-120.34086000000002"><ele>2210.4820531383157</ele></trkpt><trkpt lat="39.34378" lon="-120.34073000000001"><ele>2210.892501294613</ele></trkpt><trkpt lat="39.34377" lon="-120.3406"><ele>2211.0</ele></trkpt><trkpt lat="39.34376999569203" lon="-120.34059999583354"><ele>2211.0</ele></trkpt><trkpt lat="39.34376999569203" lon="-120.34059999583354"><ele>2211.0</ele></trkpt><trkpt lat="39.34373" lon="-120.34042"><ele>2211.879441315308</ele></trkpt><trkpt lat="39.34376" lon="-120.34037000000001"><ele>2212.0</ele></trkpt><trkpt lat="39.34396" lon="-120.34036000000003"><ele>2214.0</ele></trkpt><trkpt lat="39.344" lon="-120.34024"><ele>2215.0</ele></trkpt><trkpt lat="39.34403" lon="-120.34021000000001"><ele>2215.736082713645</ele></trkpt><trkpt lat="39.34427" lon="-120.34039000000001"><ele>2218.908979586797</ele></trkpt><trkpt lat="39.34422" lon="-120.34001"><ele>2222.2250289639464</ele></trkpt><trkpt lat="39.34428" lon="-120.33997"><ele>2224.0</ele></trkpt><trkpt lat="39.34435" lon="-120.33997"><ele>2224.0</ele></trkpt><trkpt lat="39.34466" lon="-120.34015999999997"><ele>2227.0</ele></trkpt><trkpt lat="39.34476" lon="-120.34017"><ele>2228.0</ele></trkpt><trkpt lat="39.34499" lon="-120.3401"><ele>2229.0</ele></trkpt><trkpt lat="39.345162849102685" lon="-120.33991805357613"><ele>2229.0</ele></trkpt><trkpt lat="39.34518026039529" lon="-120.33989929321314"><ele>2229.0</ele></trkpt><trkpt lat="39.34525" lon="-120.33970999999997"><ele>2227.721363634358</ele></trkpt><trkpt lat="39.34557" lon="-120.33952"><ele>2226.146018648529</ele></trkpt><trkpt lat="39.34562" lon="-120.33946000000003"><ele>2225.0</ele></trkpt><trkpt lat="39.34562" lon="-120.33940000000001"><ele>2224.0</ele></trkpt><trkpt lat="39.34554" lon="-120.33931999999999"><ele>2224.2914808886126</ele></trkpt><trkpt lat="39.34547" lon="-120.33904999999999"><ele>2220.0</ele></trkpt><trkpt lat="39.34529" lon="-120.33879999999999"><ele>2218.1697962936014</ele></trkpt><trkpt lat="39.34525" lon="-120.33870999999999"><ele>2217.0</ele></trkpt><trkpt lat="39.34528" lon="-120.33846"><ele>2213.0</ele></trkpt><trkpt lat="39.3452" lon="-120.33832999999998"><ele>2212.0</ele></trkpt><trkpt lat="39.3452" lon="-120.33832999999998"><ele>2212.0</ele></trkpt><trkpt lat="39.34514" lon="-120.33828"><ele>2212.0</ele></trkpt><trkpt lat="39.34496" lon="-120.33796000000001"><ele>2213.0</ele></trkpt><trkpt lat="39.3447" lon="-120.33762999999999"><ele>2212.0</ele></trkpt><trkpt lat="39.34452" lon="-120.33717999999999"><ele>2205.0</ele></trkpt><trkpt lat="39.34445" lon="-120.33706000000001"><ele>2204.0</ele></trkpt><trkpt lat="39.34440468264764" lon="-120.3370061856441"><ele>2204.7100784110903</ele></trkpt><trkpt lat="39.34439097511908" lon="-120.33698990790327"><ele>2204.701318648178</ele></trkpt><trkpt lat="39.34429" lon="-120.33686999999998"><ele>2204.042357338257</ele></trkpt><trkpt lat="39.3442" lon="-120.33686999999998"><ele>2204.113205332309</ele></trkpt><trkpt lat="39.34413" lon="-120.33683000000002"><ele>2204.0</ele></trkpt><trkpt lat="39.34408" lon="-120.33663000000001"><ele>2200.9283946678042</ele></trkpt><trkpt lat="39.34389" lon="-120.3363"><ele>2199.0</ele></trkpt><trkpt lat="39.34367" lon="-120.33616"><ele>2195.9817363143325</ele></trkpt><trkpt lat="39.34342" lon="-120.33618999999999"><ele>2193.3389536911545</ele></trkpt><trkpt lat="39.34342" lon="-120.33618999999999"><ele>2193.3389536911545</ele></trkpt><trkpt lat="39.34323889861056" lon="-120.33617126577451"><ele>2202.0</ele></trkpt><trkpt lat="39.34323889861056" lon="-120.33617126577451"><ele>2202.0</ele></trkpt><trkpt lat="39.34313" lon="-120.33616"><ele>2200.452653715345</ele></trkpt><trkpt lat="39.34313" lon="-120.33616"><ele>2200.452653715345</ele></trkpt><trkpt lat="39.34301" lon="-120.33623999999998"><ele>2192.491616629064</ele></trkpt><trkpt lat="39.34273" lon="-120.33618000000001"><ele>2192.0</ele></trkpt><trkpt lat="39.34273" lon="-120.33618000000001"><ele>2192.0</ele></trkpt><trkpt lat="39.342581070602414" lon="-120.33611729407721"><ele>2199.0</ele></trkpt><trkpt lat="39.342581070602414" lon="-120.33611729407721"><ele>2199.0</ele></trkpt><trkpt lat="39.34235" lon="-120.33602000000002"><ele>2192.8598246769147</ele></trkpt><trkpt lat="39.34235" lon="-120.33602000000002"><ele>2192.8598246769147</ele></trkpt><trkpt lat="39.34222" lon="-120.33596"><ele>2192.0</ele></trkpt><trkpt lat="39.34211" lon="-120.33598"><ele>2191.1637985489147</ele></trkpt><trkpt lat="39.3419" lon="-120.33618000000001"><ele>2192.0</ele></trkpt><trkpt lat="39.34163" lon="-120.33623999999998"><ele>2192.0</ele></trkpt><trkpt lat="39.34138" lon="-120.33611000000002"><ele>2191.508437916419</ele></trkpt><trkpt lat="39.34134" lon="-120.33604000000003"><ele>2191.0</ele></trkpt><trkpt lat="39.34131" lon="-120.33595000000003"><ele>2191.0</ele></trkpt><trkpt lat="39.34133" lon="-120.33577000000002"><ele>2191.038394724123</ele></trkpt><trkpt lat="39.34131" lon="-120.33569"><ele>2191.0</ele></trkpt><trkpt lat="39.34125" lon="-120.33562"><ele>2191.0</ele></trkpt><trkpt lat="39.34101" lon="-120.33544999999998"><ele>2191.0</ele></trkpt><trkpt lat="39.34077" lon="-120.33521000000002"><ele>2190.0</ele></trkpt><trkpt lat="39.3405" lon="-120.33515999999997"><ele>2190.181095627602</ele></trkpt><trkpt lat="39.34042" lon="-120.33508"><ele>2189.6931591117755</ele></trkpt><trkpt lat="39.34031" lon="-120.33508"><ele>2189.6931591117755</ele></trkpt><trkpt lat="39.34015" lon="-120.33512999999999"><ele>2189.3465536702424</ele></trkpt><trkpt lat="39.34001" lon="-120.33510000000001"><ele>2188.6252266676165</ele></trkpt><trkpt lat="39.33992" lon="-120.33512000000002"><ele>2189.0</ele></trkpt><trkpt lat="39.33984" lon="-120.33508999999998"><ele>2188.1591928876005</ele></trkpt><trkpt lat="39.33973" lon="-120.33514000000002"><ele>2188.91912837717</ele></trkpt><trkpt lat="39.3397" lon="-120.33510999999999"><ele>2188.030801617972</ele></trkpt><trkpt lat="39.33969" lon="-120.33481"><ele>2189.0</ele></trkpt><trkpt lat="39.3396" lon="-120.33465999999999"><ele>2190.0</ele></trkpt><trkpt lat="39.3396" lon="-120.33465999999999"><ele>2190.0</ele></trkpt><trkpt lat="39.3396" lon="-120.33465999999999"><ele>2190.0</ele></trkpt><trkpt lat="39.33959" lon="-120.33452"><ele>2189.8358596683197</ele></trkpt><trkpt lat="39.33965" lon="-120.33428000000004"><ele>2189.589543109294</ele></trkpt><trkpt lat="39.33962" lon="-120.33415000000002"><ele>2190.7230610456563</ele></trkpt><trkpt lat="39.33958" lon="-120.33393000000001"><ele>2192.0</ele></trkpt><trkpt lat="39.33943" lon="-120.33366999999998"><ele>2193.013455213012</ele></trkpt><trkpt lat="39.3394" lon="-120.33350000000002"><ele>2195.0</ele></trkpt><trkpt lat="39.33937" lon="-120.33347000000003"><ele>2195.0</ele></trkpt><trkpt lat="39.33916" lon="-120.33344999999997"><ele>2195.6389233437794</ele></trkpt><trkpt lat="39.33867" lon="-120.33317999999997"><ele>2199.0</ele></trkpt><trkpt lat="39.33834" lon="-120.33312000000001"><ele>2200.6494613331743</ele></trkpt><trkpt lat="39.33805" lon="-120.33281"><ele>2201.0</ele></trkpt><trkpt lat="39.33765" lon="-120.33179999999999"><ele>2202.0</ele></trkpt><trkpt lat="39.33747" lon="-120.33145999999999"><ele>2203.0</ele></trkpt><trkpt lat="39.33743" lon="-120.33096"><ele>2206.0</ele></trkpt><trkpt lat="39.33743" lon="-120.33096"><ele>2206.0</ele></trkpt><trkpt lat="39.33743" lon="-120.33096"><ele>2206.0</ele></trkpt><trkpt lat="39.33737" lon="-120.33087999999998"><ele>2206.3902996615498</ele></trkpt><trkpt lat="39.33735" lon="-120.33076"><ele>2206.208697171097</ele></trkpt><trkpt lat="39.33742" lon="-120.33051"><ele>2204.9000966701433</ele></trkpt><trkpt lat="39.33738" lon="-120.33035000000001"><ele>2202.8234319774474</ele></trkpt><trkpt lat="39.33741" lon="-120.33031"><ele>2202.0</ele></trkpt><trkpt lat="39.33745" lon="-120.33032000000003"><ele>2202.0</ele></trkpt><trkpt lat="39.33757" lon="-120.33053999999998"><ele>2200.391249060439</ele></trkpt><trkpt lat="39.33769" lon="-120.33060999999998"><ele>2200.0</ele></trkpt><trkpt lat="39.33789" lon="-120.33083999999997"><ele>2200.0</ele></trkpt><trkpt lat="39.33812" lon="-120.33089999999999"><ele>2195.9098030253695</ele></trkpt><trkpt lat="39.33817" lon="-120.33089999999999"><ele>2195.8910399996676</ele></trkpt><trkpt lat="39.33819" lon="-120.33085"><ele>2193.535214064799</ele></trkpt><trkpt lat="39.33802" lon="-120.33065999999997"><ele>2192.0</ele></trkpt><trkpt lat="39.33803" lon="-120.33046000000002"><ele>2191.2486858579496</ele></trkpt><trkpt lat="39.33801" lon="-120.33038999999997"><ele>2191.0</ele></trkpt><trkpt lat="39.33791" lon="-120.33022"><ele>2189.1658165820227</ele></trkpt><trkpt lat="39.33785" lon="-120.33002999999997"><ele>2188.0</ele></trkpt><trkpt lat="39.33786" lon="-120.32996000000003"><ele>2188.0</ele></trkpt><trkpt lat="39.33794" lon="-120.32981999999998"><ele>2188.0</ele></trkpt><trkpt lat="39.33796" lon="-120.32958000000002"><ele>2188.0</ele></trkpt><trkpt lat="39.33788" lon="-120.32945000000001"><ele>2188.0</ele></trkpt><trkpt lat="39.33777" lon="-120.32936000000001"><ele>2188.1218382227235</ele></trkpt><trkpt lat="39.33768" lon="-120.32933000000003"><ele>2188.7237368905917</ele></trkpt><trkpt lat="39.33762" lon="-120.32925"><ele>2188.2989029878227</ele></trkpt><trkpt lat="39.33759" lon="-120.32893000000001"><ele>2186.1814340881483</ele></trkpt><trkpt lat="39.33759" lon="-120.32873000000001"><ele>2185.1079411227256</ele></trkpt><trkpt lat="39.33769" lon="-120.32835"><ele>2181.0823483187705</ele></trkpt><trkpt lat="39.33769" lon="-120.32776999999999"><ele>2177.0</ele></trkpt><trkpt lat="39.33772" lon="-120.32756"><ele>2177.0</ele></trkpt><trkpt lat="39.33776" lon="-120.32749000000001"><ele>2177.8680179272005</ele></trkpt><trkpt lat="39.33785" lon="-120.32742999999999"><ele>2177.822680889163</ele></trkpt><trkpt lat="39.3379" lon="-120.32736999999997"><ele>2177.428575374186</ele></trkpt><trkpt lat="39.33789" lon="-120.32726000000002"><ele>2180.0</ele></trkpt><trkpt lat="39.33775" lon="-120.32720999999998"><ele>2182.0</ele></trkpt><trkpt lat="39.33769" lon="-120.32713000000001"><ele>2183.0823483187705</ele></trkpt><trkpt lat="39.33766" lon="-120.32702"><ele>2185.0</ele></trkpt><trkpt lat="39.33754" lon="-120.32682999999997"><ele>2185.0</ele></trkpt><trkpt lat="39.33746" lon="-120.32663000000002"><ele>2186.0</ele></trkpt><trkpt lat="39.33746" lon="-120.32641999999998"><ele>2186.8984375298432</ele></trkpt><trkpt lat="39.33742" lon="-120.32627000000002"><ele>2188.0</ele></trkpt><trkpt lat="39.33736596032924" lon="-120.32620515239506"><ele>2188.0</ele></trkpt><trkpt lat="39.33737888443522" lon="-120.32622066123088"><ele>2188.0</ele></trkpt><trkpt lat="39.33712" lon="-120.32591000000002"><ele>2190.0</ele></trkpt><trkpt lat="39.33702" lon="-120.32568000000003"><ele>2192.0</ele></trkpt><trkpt lat="39.3368" lon="-120.32551999999998"><ele>2194.1170264975826</ele></trkpt><trkpt lat="39.33676" lon="-120.32544000000001"><ele>2194.0</ele></trkpt><trkpt lat="39.33676" lon="-120.3252"><ele>2193.0</ele></trkpt><trkpt lat="39.33671" lon="-120.32517999999999"><ele>2192.0</ele></trkpt><trkpt lat="39.33663" lon="-120.32520999999997"><ele>2192.0</ele></trkpt><trkpt lat="39.33653" lon="-120.32520999999997"><ele>2192.717820443213</ele></trkpt><trkpt lat="39.33642" lon="-120.32513"><ele>2191.9895502226427</ele></trkpt><trkpt lat="39.33636" lon="-120.32511999999997"><ele>2191.523516443558</ele></trkpt><trkpt lat="39.33634" lon="-120.32506999999998"><ele>2189.193347554654</ele></trkpt><trkpt lat="39.33635" lon="-120.32504"><ele>2189.0</ele></trkpt><trkpt lat="39.33643" lon="-120.32502"><ele>2188.999427024209</ele></trkpt><trkpt lat="39.33652" lon="-120.32483000000002"><ele>2187.423717405327</ele></trkpt><trkpt lat="39.33649" lon="-120.32481000000001"><ele>2186.0467309368755</ele></trkpt><trkpt lat="39.33645" lon="-120.32481000000001"><ele>2186.0</ele></trkpt><trkpt lat="39.33642" lon="-120.32487000000003"><ele>2185.922745446576</ele></trkpt><trkpt lat="39.33619" lon="-120.32497000000001"><ele>2183.7826929284383</ele></trkpt><trkpt lat="39.33609" lon="-120.32506999999998"><ele>2184.7974434233756</ele></trkpt><trkpt lat="39.33597" lon="-120.32511"><ele>2185.0574826668017</ele></trkpt><trkpt lat="39.33583" lon="-120.3252"><ele>2184.8430362846702</ele></trkpt><trkpt lat="39.3356" lon="-120.32520999999997"><ele>2183.0</ele></trkpt><trkpt lat="39.33544" lon="-120.32529"><ele>2181.789988970384</ele></trkpt><trkpt lat="39.3355" lon="-120.32488000000001"><ele>2177.9591417666525</ele></trkpt><trkpt lat="39.33548" lon="-120.32484"><ele>2177.0</ele></trkpt><trkpt lat="39.33537" lon="-120.32481999999999"><ele>2176.0</ele></trkpt><trkpt lat="39.33516" lon="-120.32466999999997"><ele>2174.21181749437</ele></trkpt><trkpt lat="39.33511" lon="-120.32466999999997"><ele>2174.0</ele></trkpt><trkpt lat="39.33506" lon="-120.32472999999999"><ele>2174.0</ele></trkpt><trkpt lat="39.335" lon="-120.32477"><ele>2174.0</ele></trkpt><trkpt lat="39.33491" lon="-120.32475"><ele>2173.0</ele></trkpt><trkpt lat="39.33474" lon="-120.32463000000001"><ele>2173.0</ele></trkpt><trkpt lat="39.33462" lon="-120.32461999999998"><ele>2172.0</ele></trkpt><trkpt lat="39.33453" lon="-120.32457"><ele>2171.0</ele></trkpt><trkpt lat="39.3343" lon="-120.32441"><ele>2167.8498241442117</ele></trkpt><trkpt lat="39.3343" lon="-120.32441"><ele>2167.8498241442117</ele></trkpt><trkpt lat="39.3339" lon="-120.32418000000001"><ele>2162.0</ele></trkpt><trkpt lat="39.33385" lon="-120.32412"><ele>2161.0</ele></trkpt><trkpt lat="39.33386" lon="-120.32405"><ele>2161.1436036210507</ele></trkpt><trkpt lat="39.33393" lon="-120.32391999999999"><ele>2160.5994631107897</ele></trkpt><trkpt lat="39.33426" lon="-120.32388000000003"><ele>2156.800104001233</ele></trkpt><trkpt lat="39.33426" lon="-120.32382999999999"><ele>2156.0991589078953</ele></trkpt><trkpt lat="39.33417" lon="-120.32382999999999"><ele>2154.810318221338</ele></trkpt><trkpt lat="39.33396" lon="-120.32375000000002"><ele>2152.676888889633</ele></trkpt><trkpt lat="39.3339" lon="-120.32367999999997"><ele>2151.0</ele></trkpt><trkpt lat="39.33384" lon="-120.32367999999997"><ele>2150.389172210697</ele></trkpt><trkpt lat="39.33379" lon="-120.32373999999999"><ele>2150.1367739229463</ele></trkpt><trkpt lat="39.33361" lon="-120.32376999999997"><ele>2146.6894194297493</ele></trkpt><trkpt lat="39.33356" lon="-120.32385999999997"><ele>2147.0678413230926</ele></trkpt><trkpt lat="39.3335" lon="-120.32385"><ele>2146.699963722815</ele></trkpt><trkpt lat="39.33342" lon="-120.32379000000003"><ele>2146.541024001781</ele></trkpt><trkpt lat="39.33319" lon="-120.32334000000003"><ele>2142.5695040016435</ele></trkpt><trkpt lat="39.33301" lon="-120.32316000000003"><ele>2141.0</ele></trkpt><trkpt lat="39.33286" lon="-120.32289000000003"><ele>2140.0</ele></trkpt><trkpt lat="39.33277" lon="-120.32281"><ele>2139.869713777676</ele></trkpt><trkpt lat="39.33264" lon="-120.32277999999997"><ele>2140.471612443216</ele></trkpt><trkpt lat="39.33252" lon="-120.32265000000001"><ele>2139.4131733342074</ele></trkpt><trkpt lat="39.33229" lon="-120.32267999999999"><ele>2139.6225493336096</ele></trkpt><trkpt lat="39.33226" lon="-120.3227"><ele>2139.100792084112</ele></trkpt><trkpt lat="39.33224" lon="-120.32276000000002"><ele>2139.2888769726515</ele></trkpt><trkpt lat="39.33219" lon="-120.32276999999999"><ele>2139.0055786664598</ele></trkpt><trkpt lat="39.33211" lon="-120.32272999999998"><ele>2139.0</ele></trkpt><trkpt lat="39.33195" lon="-120.32259999999997"><ele>2138.0</ele></trkpt><trkpt lat="39.33191" lon="-120.32252"><ele>2138.0</ele></trkpt><trkpt lat="39.3319" lon="-120.32241999999997"><ele>2137.0</ele></trkpt><trkpt lat="39.3318" lon="-120.32227"><ele>2136.0</ele></trkpt><trkpt lat="39.3318" lon="-120.32227"><ele>2136.0</ele></trkpt><trkpt lat="39.33153" lon="-120.32220999999998"><ele>2133.9300987346637</ele></trkpt><trkpt lat="39.33133" lon="-120.32195000000002"><ele>2131.0</ele></trkpt><trkpt lat="39.33121" lon="-120.32186999999999"><ele>2130.0625386666507</ele></trkpt><trkpt lat="39.33083" lon="-120.32184999999998"><ele>2131.4939616047523</ele></trkpt><trkpt lat="39.33064" lon="-120.32191999999998"><ele>2132.0</ele></trkpt><trkpt lat="39.3305" lon="-120.32191"><ele>2132.9487086140975</ele></trkpt><trkpt lat="39.33038" lon="-120.32177000000001"><ele>2133.0</ele></trkpt><trkpt lat="39.33035" lon="-120.32164999999998"><ele>2132.273679096321</ele></trkpt><trkpt lat="39.33034" lon="-120.32146999999998"><ele>2131.0</ele></trkpt><trkpt lat="39.33029" lon="-120.32130999999998"><ele>2130.0</ele></trkpt><trkpt lat="39.33016" lon="-120.32118000000003"><ele>2130.0</ele></trkpt><trkpt lat="39.330015157682205" lon="-120.32110757884112"><ele>2131.771215407225</ele></trkpt><trkpt lat="39.33001495000438" lon="-120.32110747499445"><ele>2131.7747810665496</ele></trkpt><trkpt lat="39.33" lon="-120.3211"><ele>2132.07567408126</ele></trkpt><trkpt lat="39.32994" lon="-120.32103999999998"><ele>2132.015362185177</ele></trkpt><trkpt lat="39.3299" lon="-120.32098000000002"><ele>2132.0</ele></trkpt><trkpt lat="39.32991" lon="-120.32089000000002"><ele>2133.0</ele></trkpt><trkpt lat="39.32972" lon="-120.32055000000003"><ele>2136.0</ele></trkpt><trkpt lat="39.32965" lon="-120.32051000000001"><ele>2136.4874983709306</ele></trkpt><trkpt lat="39.32944" lon="-120.32027"><ele>2136.0</ele></trkpt><trkpt lat="39.32924" lon="-120.31999000000002"><ele>2137.5665722602507</ele></trkpt><trkpt lat="39.32919" lon="-120.32002"><ele>2138.0</ele></trkpt><trkpt lat="39.32906" lon="-120.32056"><ele>2143.0</ele></trkpt><trkpt lat="39.32891" lon="-120.32085000000001"><ele>2145.0</ele></trkpt><trkpt lat="39.32886" lon="-120.32087999999999"><ele>2145.0</ele></trkpt><trkpt lat="39.32872" lon="-120.32085000000001"><ele>2145.0</ele></trkpt><trkpt lat="39.32856" lon="-120.32092999999998"><ele>2145.2553635546938</ele></trkpt><trkpt lat="39.32847" lon="-120.3209"><ele>2144.8572622220963</ele></trkpt><trkpt lat="39.32839" lon="-120.32083"><ele>2143.5950257778168</ele></trkpt><trkpt lat="39.32827" lon="-120.32078000000001"><ele>2143.264856889844</ele></trkpt><trkpt lat="39.32818" lon="-120.32067999999998"><ele>2143.077663347125</ele></trkpt><trkpt lat="39.32811" lon="-120.32051000000001"><ele>2145.295005561784</ele></trkpt><trkpt lat="39.32806" lon="-120.32047999999998"><ele>2146.0</ele></trkpt><trkpt lat="39.32803" lon="-120.32051999999999"><ele>2147.0</ele></trkpt><trkpt lat="39.32805" lon="-120.32076"><ele>2147.0</ele></trkpt><trkpt lat="39.32796" lon="-120.32094000000001"><ele>2148.0</ele></trkpt><trkpt lat="39.32791" lon="-120.32098000000002"><ele>2149.0</ele></trkpt><trkpt lat="39.32788" lon="-120.32096999999999"><ele>2149.0181587075535</ele></trkpt><trkpt lat="39.32787" lon="-120.32067"><ele>2152.0</ele></trkpt><trkpt lat="39.32782" lon="-120.32060000000001"><ele>2153.0</ele></trkpt><trkpt lat="39.32781" lon="-120.32053000000002"><ele>2153.3692815303802</ele></trkpt><trkpt lat="39.32783" lon="-120.32037000000003"><ele>2152.321804212872</ele></trkpt><trkpt lat="39.32788" lon="-120.32028000000003"><ele>2153.0055968951146</ele></trkpt><trkpt lat="39.32794" lon="-120.31974000000002"><ele>2156.537104798481</ele></trkpt><trkpt lat="39.32792" lon="-120.31954999999999"><ele>2158.4841120243073</ele></trkpt><trkpt lat="39.3279" lon="-120.31954000000002"><ele>2159.947006881237</ele></trkpt><trkpt lat="39.32781" lon="-120.31988000000001"><ele>2163.3692815303802</ele></trkpt><trkpt lat="39.32778" lon="-120.31995"><ele>2163.5191517309277</ele></trkpt><trkpt lat="39.32772" lon="-120.31995999999998"><ele>2165.0</ele></trkpt><trkpt lat="39.32763" lon="-120.32006999999999"><ele>2167.0</ele></trkpt><trkpt lat="39.32752" lon="-120.31988999999999"><ele>2168.337411341444</ele></trkpt><trkpt lat="39.32765" lon="-120.31986"><ele>2169.6137052789454</ele></trkpt><trkpt lat="39.32766" lon="-120.31984"><ele>2169.7283157202273</ele></trkpt><trkpt lat="39.32756" lon="-120.31981999999999"><ele>2170.7733977520716</ele></trkpt><trkpt lat="39.32755" lon="-120.31975999999997"><ele>2172.261499023225</ele></trkpt><trkpt lat="39.32746" lon="-120.31963000000002"><ele>2173.0</ele></trkpt><trkpt lat="39.32737" lon="-120.31961000000001"><ele>2173.0318328814014</ele></trkpt><trkpt lat="39.32721" lon="-120.31977999999998"><ele>2174.5176008623093</ele></trkpt><trkpt lat="39.32717" lon="-120.32008000000002"><ele>2177.0</ele></trkpt><trkpt lat="39.32712" lon="-120.32010000000002"><ele>2178.0</ele></trkpt><trkpt lat="39.32704" lon="-120.31993"><ele>2180.0</ele></trkpt><trkpt lat="39.32697" lon="-120.31986999999998"><ele>2181.0</ele></trkpt><trkpt lat="39.32691" lon="-120.31986999999998"><ele>2182.0</ele></trkpt><trkpt lat="39.32687" lon="-120.31988999999999"><ele>2183.0</ele></trkpt><trkpt lat="39.32693" lon="-120.32"><ele>2184.0</ele></trkpt><trkpt lat="39.32691" lon="-120.32004"><ele>2185.0</ele></trkpt><trkpt lat="39.32677" lon="-120.32004999999998"><ele>2185.0261712633073</ele></trkpt><trkpt lat="39.32661" lon="-120.32002"><ele>2188.0</ele></trkpt><trkpt lat="39.32655" lon="-120.32006999999999"><ele>2188.0</ele></trkpt><trkpt lat="39.32647" lon="-120.32024999999999"><ele>2190.5085029765614</ele></trkpt><trkpt lat="39.32643" lon="-120.32058999999998"><ele>2192.69923781535</ele></trkpt><trkpt lat="39.32633" lon="-120.32078000000001"><ele>2193.123271048435</ele></trkpt><trkpt lat="39.32633" lon="-120.32103999999998"><ele>2193.0</ele></trkpt><trkpt lat="39.3263" lon="-120.32114000000001"><ele>2192.6303543877934</ele></trkpt><trkpt lat="39.32618" lon="-120.32126"><ele>2192.0</ele></trkpt><trkpt lat="39.32604" lon="-120.32132000000001"><ele>2193.4306808896363</ele></trkpt><trkpt lat="39.32576" lon="-120.32132000000001"><ele>2194.37674193371</ele></trkpt><trkpt lat="39.32567" lon="-120.32123999999999"><ele>2193.7907553013556</ele></trkpt><trkpt lat="39.32558" lon="-120.32121999999998"><ele>2194.770343110431</ele></trkpt><trkpt lat="39.32541" lon="-120.32101999999998"><ele>2194.0</ele></trkpt><trkpt lat="39.32544" lon="-120.32081"><ele>2196.0</ele></trkpt><trkpt lat="39.32540036716215" lon="-120.32081495410472"><ele>2196.54103211686</ele></trkpt><trkpt lat="39.32540036716215" lon="-120.32081495410472"><ele>2196.54103211686</ele></trkpt><trkpt lat="39.32536" lon="-120.32082000000003"><ele>2197.0</ele></trkpt><trkpt lat="39.32532" lon="-120.32085999999998"><ele>2197.3827796839178</ele></trkpt><trkpt lat="39.32525" lon="-120.32098000000002"><ele>2198.0</ele></trkpt><trkpt lat="39.32524" lon="-120.32107000000002"><ele>2199.8243979695026</ele></trkpt><trkpt lat="39.3252" lon="-120.32105999999999"><ele>2200.7339001942382</ele></trkpt><trkpt lat="39.32515" lon="-120.32098000000002"><ele>2201.0</ele></trkpt><trkpt lat="39.32514" lon="-120.32080000000002"><ele>2202.0</ele></trkpt><trkpt lat="39.32509" lon="-120.32076"><ele>2203.0</ele></trkpt><trkpt lat="39.32501" lon="-120.32081"><ele>2203.0</ele></trkpt><trkpt lat="39.32493" lon="-120.32096999999999"><ele>2204.0</ele></trkpt><trkpt lat="39.32492" lon="-120.32109000000003"><ele>2205.0</ele></trkpt><trkpt lat="39.32502" lon="-120.32125000000002"><ele>2206.0</ele></trkpt><trkpt lat="39.32493" lon="-120.32136000000003"><ele>2207.0</ele></trkpt><trkpt lat="39.32489" lon="-120.32135"><ele>2207.2388420584484</ele></trkpt><trkpt lat="39.32453" lon="-120.32103999999998"><ele>2210.0</ele></trkpt><trkpt lat="39.32447" lon="-120.32107000000002"><ele>2211.0</ele></trkpt><trkpt lat="39.32445" lon="-120.32112000000001"><ele>2211.8183301950758</ele></trkpt><trkpt lat="39.3244" lon="-120.32112000000001"><ele>2213.0</ele></trkpt><trkpt lat="39.32433" lon="-120.32103999999998"><ele>2213.0</ele></trkpt><trkpt lat="39.32416" lon="-120.32101"><ele>2212.7332375757396</ele></trkpt><trkpt lat="39.3241" lon="-120.32116000000002"><ele>2213.1216467723484</ele></trkpt><trkpt lat="39.32408" lon="-120.32148000000001"><ele>2214.9136952850968</ele></trkpt><trkpt lat="39.32396" lon="-120.32155"><ele>2214.0</ele></trkpt><trkpt lat="39.32392" lon="-120.32164999999998"><ele>2212.41259635921</ele></trkpt><trkpt lat="39.32384" lon="-120.32168000000001"><ele>2210.5683841882988</ele></trkpt><trkpt lat="39.32381" lon="-120.32173"><ele>2209.1097149662673</ele></trkpt><trkpt lat="39.3238" lon="-120.32177999999999"><ele>2208.0453406721354</ele></trkpt><trkpt lat="39.32377" lon="-120.32172000000003"><ele>2207.945113125327</ele></trkpt><trkpt lat="39.32373" lon="-120.32171"><ele>2206.0</ele></trkpt><trkpt lat="39.32376" lon="-120.32184000000001"><ele>2206.0</ele></trkpt><trkpt lat="39.32376" lon="-120.32190000000003"><ele>2205.6355812381953</ele></trkpt><trkpt lat="39.32368" lon="-120.32199000000003"><ele>2205.189421865606</ele></trkpt><trkpt lat="39.32363" lon="-120.32168999999999"><ele>2201.803872603923</ele></trkpt><trkpt lat="39.32361" lon="-120.32168000000001"><ele>2200.598995644599</ele></trkpt><trkpt lat="39.3236" lon="-120.32171"><ele>2200.0</ele></trkpt><trkpt lat="39.32359" lon="-120.32184999999998"><ele>2199.5245901388116</ele></trkpt><trkpt lat="39.32357" lon="-120.32182999999998"><ele>2199.0</ele></trkpt><trkpt lat="39.32351" lon="-120.32152000000002"><ele>2198.255001012628</ele></trkpt><trkpt lat="39.32344" lon="-120.32143000000002"><ele>2195.3575553949922</ele></trkpt><trkpt lat="39.32342" lon="-120.32114999999999"><ele>2195.227784820088</ele></trkpt><trkpt lat="39.32345" lon="-120.32096999999999"><ele>2192.9647732264702</ele></trkpt><trkpt lat="39.32339" lon="-120.32085000000001"><ele>2192.8182784919627</ele></trkpt><trkpt lat="39.32336" lon="-120.32083999999998"><ele>2191.477003159467</ele></trkpt><trkpt lat="39.32336" lon="-120.32094000000001"><ele>2190.5380627140403</ele></trkpt><trkpt lat="39.32333" lon="-120.32092999999998"><ele>2188.7307543810457</ele></trkpt><trkpt lat="39.32319" lon="-120.32058999999998"><ele>2185.8864439642057</ele></trkpt><trkpt lat="39.32313" lon="-120.32053000000002"><ele>2184.068039520178</ele></trkpt><trkpt lat="39.32312" lon="-120.32060000000001"><ele>2182.203368860297</ele></trkpt><trkpt lat="39.32309" lon="-120.32060000000001"><ele>2181.0336993600627</ele></trkpt><trkpt lat="39.32296" lon="-120.32038999999997"><ele>2180.401223531563</ele></trkpt><trkpt lat="39.3228" lon="-120.32022"><ele>2176.9669021784457</ele></trkpt><trkpt lat="39.32279" lon="-120.32027"><ele>2175.5028657778166</ele></trkpt><trkpt lat="39.32308" lon="-120.32082000000003"><ele>2173.2107714912854</ele></trkpt><trkpt lat="39.32307" lon="-120.32087000000001"><ele>2172.0674479603767</ele></trkpt><trkpt lat="39.32306" lon="-120.32087999999999"><ele>2171.465014262125</ele></trkpt><trkpt lat="39.32272" lon="-120.32042000000001"><ele>2165.485620181054</ele></trkpt><trkpt lat="39.32268" lon="-120.3204"><ele>2163.7625465670512</ele></trkpt><trkpt lat="39.32267" lon="-120.32042999999999"><ele>2163.0</ele></trkpt><trkpt lat="39.32274" lon="-120.32051999999999"><ele>2163.3466638566424</ele></trkpt><trkpt lat="39.3228" lon="-120.32067"><ele>2163.8017683029175</ele></trkpt><trkpt lat="39.32277" lon="-120.32067999999998"><ele>2161.7887765251166</ele></trkpt><trkpt lat="39.32275" lon="-120.32062000000002"><ele>2162.0</ele></trkpt><trkpt lat="39.32266" lon="-120.32051999999999"><ele>2160.0</ele></trkpt><trkpt lat="39.32264" lon="-120.32055000000003"><ele>2160.0</ele></trkpt><trkpt lat="39.32275" lon="-120.32074"><ele>2159.4731974510364</ele></trkpt><trkpt lat="39.32274" lon="-120.32099"><ele>2159.1871813517064</ele></trkpt><trkpt lat="39.32272" lon="-120.32105000000001"><ele>2158.979628233595</ele></trkpt><trkpt lat="39.32269" lon="-120.32107000000002"><ele>2157.9548643711023</ele></trkpt><trkpt lat="39.32265" lon="-120.32098000000002"><ele>2155.0</ele></trkpt><trkpt lat="39.32263" lon="-120.32098000000002"><ele>2155.0</ele></trkpt><trkpt lat="39.32263" lon="-120.32114999999999"><ele>2154.0</ele></trkpt><trkpt lat="39.32267" lon="-120.32128"><ele>2153.0</ele></trkpt><trkpt lat="39.32265" lon="-120.32128999999998"><ele>2152.7403733823985</ele></trkpt><trkpt lat="39.32255" lon="-120.32117"><ele>2150.4148363814074</ele></trkpt><trkpt lat="39.32242" lon="-120.32092"><ele>2149.0</ele></trkpt><trkpt lat="39.32241742658812" lon="-120.32089169246922"><ele>2149.0</ele></trkpt><trkpt lat="39.322418006953036" lon="-120.32089807648038"><ele>2149.0</ele></trkpt><trkpt lat="39.3224" lon="-120.32069999999999"><ele>2149.378068512815</ele></trkpt><trkpt lat="39.32237" lon="-120.32064000000003"><ele>2149.0</ele></trkpt><trkpt lat="39.32219" lon="-120.32056999999998"><ele>2147.0</ele></trkpt><trkpt lat="39.32215" lon="-120.32060999999999"><ele>2146.0</ele></trkpt><trkpt lat="39.32211" lon="-120.32078999999999"><ele>2147.0</ele></trkpt><trkpt lat="39.32207" lon="-120.32085000000001"><ele>2147.0</ele></trkpt><trkpt lat="39.32195" lon="-120.32092"><ele>2147.125434942778</ele></trkpt><trkpt lat="39.3218" lon="-120.32094999999998"><ele>2149.0</ele></trkpt><trkpt lat="39.32175" lon="-120.32091000000003"><ele>2149.0</ele></trkpt><trkpt lat="39.32167" lon="-120.32074"><ele>2149.436015685545</ele></trkpt><trkpt lat="39.32161" lon="-120.32071000000002"><ele>2149.0</ele></trkpt><trkpt lat="39.32161" lon="-120.32071000000002"><ele>2149.0</ele></trkpt><trkpt lat="39.32161" lon="-120.32071000000002"><ele>2149.0</ele></trkpt><trkpt lat="39.32144" lon="-120.32082000000003"><ele>2148.01652489723</ele></trkpt><trkpt lat="39.32126" lon="-120.32055000000003"><ele>2144.0283513572067</ele></trkpt><trkpt lat="39.32123" lon="-120.32060999999999"><ele>2143.0</ele></trkpt><trkpt lat="39.32119" lon="-120.32082000000003"><ele>2141.0</ele></trkpt><trkpt lat="39.3213" lon="-120.32110999999998"><ele>2141.6439715544693</ele></trkpt><trkpt lat="39.32128" lon="-120.32118000000003"><ele>2142.233187839389</ele></trkpt><trkpt lat="39.32109" lon="-120.32143000000002"><ele>2141.78725518845</ele></trkpt><trkpt lat="39.32104" lon="-120.32155"><ele>2142.0</ele></trkpt><trkpt lat="39.32095" lon="-120.32155"><ele>2142.1494577778503</ele></trkpt><trkpt lat="39.32085" lon="-120.32143000000002"><ele>2140.183425918263</ele></trkpt><trkpt lat="39.32059" lon="-120.32141000000001"><ele>2138.624984889291</ele></trkpt><trkpt lat="39.32044" lon="-120.32144"><ele>2138.0</ele></trkpt><trkpt lat="39.32035" lon="-120.32139999999998"><ele>2138.0</ele></trkpt><trkpt lat="39.32004" lon="-120.32159999999999"><ele>2137.479626665823</ele></trkpt><trkpt lat="39.31977" lon="-120.32168999999999"><ele>2138.8552196565215</ele></trkpt><trkpt lat="39.319670000056206" lon="-120.3217899999438"><ele>2139.5792227322236</ele></trkpt><trkpt lat="39.319670000056206" lon="-120.3217899999438"><ele>2139.5792227322236</ele></trkpt><trkpt lat="39.31946" lon="-120.322"><ele>2138.71545661008</ele></trkpt><trkpt lat="39.31934" lon="-120.32202999999998"><ele>2139.0</ele></trkpt><trkpt lat="39.31935" lon="-120.32220000000001"><ele>2143.44165333407</ele></trkpt><trkpt lat="39.31925" lon="-120.32222000000002"><ele>2144.4087661383464</ele></trkpt><trkpt lat="39.31922" lon="-120.32227"><ele>2145.0963202620633</ele></trkpt><trkpt lat="39.31922" lon="-120.32227"><ele>2145.0963202620633</ele></trkpt><trkpt lat="39.31894" lon="-120.32295999999997"><ele>2149.1298777828924</ele></trkpt><trkpt lat="39.318939999067695" lon="-120.32296000234504"><ele>2149.1299309092574</ele></trkpt><trkpt lat="39.318939999067695" lon="-120.32296000234504"><ele>2149.1299309092574</ele></trkpt><trkpt lat="39.31885" lon="-120.32310000000001"><ele>2149.3262496678035</ele></trkpt><trkpt lat="39.31862" lon="-120.32326"><ele>2150.0</ele></trkpt><trkpt lat="39.31826" lon="-120.32378"><ele>2157.763541586697</ele></trkpt><trkpt lat="39.31817" lon="-120.32398"><ele>2159.6311833595264</ele></trkpt><trkpt lat="39.31804" lon="-120.32407999999998"><ele>2160.110173947178</ele></trkpt><trkpt lat="39.31788" lon="-120.32441"><ele>2163.105190334249</ele></trkpt><trkpt lat="39.3174" lon="-120.32490999999999"><ele>2166.7368071107194</ele></trkpt><trkpt lat="39.31734" lon="-120.32502"><ele>2167.0</ele></trkpt><trkpt lat="39.3173" lon="-120.32515999999998"><ele>2166.8651663023047</ele></trkpt><trkpt lat="39.3173" lon="-120.32515999999998"><ele>2166.8651663023047</ele></trkpt><trkpt lat="39.31707" lon="-120.32549"><ele>2164.4896434950783</ele></trkpt><trkpt lat="39.31699" lon="-120.32578000000001"><ele>2163.803650494665</ele></trkpt><trkpt lat="39.31674" lon="-120.32619999999997"><ele>2162.0</ele></trkpt><trkpt lat="39.31674" lon="-120.32619999999997"><ele>2162.0</ele></trkpt><trkpt lat="39.31675670762122" lon="-120.32614152332576"><ele>2162.0</ele></trkpt><trkpt lat="39.31675568607836" lon="-120.32614509873929"><ele>2162.0</ele></trkpt><trkpt lat="39.31674" lon="-120.32619999999997"><ele>2162.0</ele></trkpt><trkpt lat="39.31674" lon="-120.32619999999997"><ele>2162.0</ele></trkpt><trkpt lat="39.31652" lon="-120.32614999999998"><ele>2161.0</ele></trkpt><trkpt lat="39.3164" lon="-120.32618000000002"><ele>2161.0</ele></trkpt><trkpt lat="39.316253168679005" lon="-120.3262421209435"><ele>2161.0</ele></trkpt><trkpt lat="39.316253168679005" lon="-120.3262421209435"><ele>2161.0</ele></trkpt><trkpt lat="39.31614" lon="-120.32628999999997"><ele>2162.0</ele></trkpt><trkpt lat="39.31546" lon="-120.32695999999999"><ele>2157.0</ele></trkpt><trkpt lat="39.31527" lon="-120.32708000000002"><ele>2156.0</ele></trkpt><trkpt lat="39.31483" lon="-120.32718999999997"><ele>2153.0</ele></trkpt><trkpt lat="39.31472684874272" lon="-120.32725347769679"><ele>2152.0</ele></trkpt><trkpt lat="39.31472839791641" lon="-120.32725252437183"><ele>2152.0</ele></trkpt><trkpt lat="39.31483" lon="-120.32718999999997"><ele>2153.0</ele></trkpt><trkpt lat="39.31527" lon="-120.32708000000002"><ele>2156.0</ele></trkpt><trkpt lat="39.31546" lon="-120.32695999999999"><ele>2157.0</ele></trkpt><trkpt lat="39.31614" lon="-120.32628999999997"><ele>2162.0</ele></trkpt><trkpt lat="39.316253168679005" lon="-120.3262421209435"><ele>2161.0</ele></trkpt><trkpt lat="39.316253168679005" lon="-120.3262421209435"><ele>2161.0</ele></trkpt><trkpt lat="39.3164" lon="-120.32618000000002"><ele>2161.0</ele></trkpt><trkpt lat="39.31652" lon="-120.32614999999998"><ele>2161.0</ele></trkpt><trkpt lat="39.31674" lon="-120.32619999999997"><ele>2162.0</ele></trkpt><trkpt lat="39.31674" lon="-120.32619999999997"><ele>2162.0</ele></trkpt><trkpt lat="39.31699" lon="-120.32578000000001"><ele>2163.803650494665</ele></trkpt><trkpt lat="39.31707" lon="-120.32549"><ele>2164.4896434950783</ele></trkpt><trkpt lat="39.3173" lon="-120.32515999999998"><ele>2166.8651663023047</ele></trkpt><trkpt lat="39.3173" lon="-120.32515999999998"><ele>2166.8651663023047</ele></trkpt><trkpt lat="39.31734" lon="-120.32502"><ele>2167.0</ele></trkpt><trkpt lat="39.3174" lon="-120.32490999999999"><ele>2166.7368071107194</ele></trkpt><trkpt lat="39.31769158326762" lon="-120.32460626742954"><ele>2168.6477757147513</ele></trkpt><trkpt lat="39.3176951901766" lon="-120.32460251063884"><ele>2168.6899722465314</ele></trkpt><trkpt lat="39.31788" lon="-120.32441"><ele>2163.105190334249</ele></trkpt><trkpt lat="39.31804" lon="-120.32407999999998"><ele>2160.110173947178</ele></trkpt><trkpt lat="39.31817" lon="-120.32398"><ele>2159.6311833595264</ele></trkpt><trkpt lat="39.31826" lon="-120.32378"><ele>2157.763541586697</ele></trkpt><trkpt lat="39.31862" lon="-120.32326"><ele>2150.0</ele></trkpt><trkpt lat="39.31885" lon="-120.32310000000001"><ele>2149.3262496678035</ele></trkpt><trkpt lat="39.318939999067695" lon="-120.32296000234504"><ele>2149.1299309092574</ele></trkpt><trkpt lat="39.318939999067695" lon="-120.32296000234504"><ele>2149.1299309092574</ele></trkpt><trkpt lat="39.31894" lon="-120.32295999999997"><ele>2149.1298777828924</ele></trkpt><trkpt lat="39.31922" lon="-120.32227"><ele>2145.0963202620633</ele></trkpt><trkpt lat="39.31922" lon="-120.32227"><ele>2145.0963202620633</ele></trkpt><trkpt lat="39.31925" lon="-120.32222000000002"><ele>2144.4087661383464</ele></trkpt><trkpt lat="39.31935" lon="-120.32220000000001"><ele>2143.44165333407</ele></trkpt><trkpt lat="39.31934" lon="-120.32202999999998"><ele>2139.0</ele></trkpt><trkpt lat="39.31946" lon="-120.322"><ele>2138.71545661008</ele></trkpt><trkpt lat="39.319670000056206" lon="-120.3217899999438"><ele>2139.5792227322236</ele></trkpt><trkpt lat="39.319670000056206" lon="-120.3217899999438"><ele>2139.5792227322236</ele></trkpt><trkpt lat="39.31977" lon="-120.32168999999999"><ele>2138.8552196565215</ele></trkpt><trkpt lat="39.32004" lon="-120.32159999999999"><ele>2137.479626665823</ele></trkpt><trkpt lat="39.32035" lon="-120.32139999999998"><ele>2138.0</ele></trkpt><trkpt lat="39.32044" lon="-120.32144"><ele>2138.0</ele></trkpt><trkpt lat="39.32059" lon="-120.32141000000001"><ele>2138.624984889291</ele></trkpt><trkpt lat="39.32085" lon="-120.32143000000002"><ele>2140.183425918263</ele></trkpt><trkpt lat="39.32095" lon="-120.32155"><ele>2142.1494577778503</ele></trkpt><trkpt lat="39.32104" lon="-120.32155"><ele>2142.0</ele></trkpt><trkpt lat="39.32109" lon="-120.32143000000002"><ele>2141.78725518845</ele></trkpt><trkpt lat="39.32123117031685" lon="-120.32124424958306"><ele>2140.2625721915006</ele></trkpt><trkpt lat="39.32123089613713" lon="-120.32124461041099"><ele>2140.2523250228187</ele></trkpt><trkpt lat="39.32128" lon="-120.32118000000003"><ele>2142.233187839389</ele></trkpt><trkpt lat="39.3213" lon="-120.32110999999998"><ele>2141.6439715544693</ele></trkpt><trkpt lat="39.32119" lon="-120.32082000000003"><ele>2141.0</ele></trkpt><trkpt lat="39.32123" lon="-120.32060999999999"><ele>2143.0</ele></trkpt><trkpt lat="39.32126" lon="-120.32055000000003"><ele>2144.0283513572067</ele></trkpt><trkpt lat="39.32144" lon="-120.32082000000003"><ele>2148.01652489723</ele></trkpt><trkpt lat="39.32161" lon="-120.32071000000002"><ele>2149.0</ele></trkpt><trkpt lat="39.32161" lon="-120.32071000000002"><ele>2149.0</ele></trkpt><trkpt lat="39.32161" lon="-120.32071000000002"><ele>2149.0</ele></trkpt><trkpt lat="39.32167" lon="-120.32074"><ele>2149.436015685545</ele></trkpt><trkpt lat="39.32175" lon="-120.32091000000003"><ele>2149.0</ele></trkpt><trkpt lat="39.3218" lon="-120.32094999999998"><ele>2149.0</ele></trkpt><trkpt lat="39.32195" lon="-120.32092"><ele>2147.125434942778</ele></trkpt><trkpt lat="39.32207" lon="-120.32085000000001"><ele>2147.0</ele></trkpt><trkpt lat="39.32211" lon="-120.32078999999999"><ele>2147.0</ele></trkpt><trkpt lat="39.32215" lon="-120.32060999999999"><ele>2146.0</ele></trkpt><trkpt lat="39.32219" lon="-120.32056999999998"><ele>2147.0</ele></trkpt><trkpt lat="39.32237" lon="-120.32064000000003"><ele>2149.0</ele></trkpt><trkpt lat="39.3224" lon="-120.32069999999999"><ele>2149.378068512815</ele></trkpt><trkpt lat="39.32242" lon="-120.32092"><ele>2149.0</ele></trkpt><trkpt lat="39.32255" lon="-120.32117"><ele>2150.4148363814074</ele></trkpt><trkpt lat="39.32265" lon="-120.32128999999998"><ele>2152.7403733823985</ele></trkpt><trkpt lat="39.32267" lon="-120.32128"><ele>2153.0</ele></trkpt><trkpt lat="39.32263" lon="-120.32114999999999"><ele>2154.0</ele></trkpt><trkpt lat="39.32263" lon="-120.32098000000002"><ele>2155.0</ele></trkpt><trkpt lat="39.32265" lon="-120.32098000000002"><ele>2155.0</ele></trkpt><trkpt lat="39.32269" lon="-120.32107000000002"><ele>2157.9548643711023</ele></trkpt><trkpt lat="39.32272" lon="-120.32105000000001"><ele>2158.979628233595</ele></trkpt><trkpt lat="39.32274" lon="-120.32099"><ele>2159.1871813517064</ele></trkpt><trkpt lat="39.32275" lon="-120.32074"><ele>2159.4731974510364</ele></trkpt><trkpt lat="39.32264" lon="-120.32055000000003"><ele>2160.0</ele></trkpt><trkpt lat="39.32266" lon="-120.32051999999999"><ele>2160.0</ele></trkpt><trkpt lat="39.32275" lon="-120.32062000000002"><ele>2162.0</ele></trkpt><trkpt lat="39.32277" lon="-120.32067999999998"><ele>2161.7887765251166</ele></trkpt><trkpt lat="39.3228" lon="-120.32067"><ele>2163.8017683029175</ele></trkpt><trkpt lat="39.32274" lon="-120.32051999999999"><ele>2163.3466638566424</ele></trkpt><trkpt lat="39.32267" lon="-120.32042999999999"><ele>2163.0</ele></trkpt><trkpt lat="39.32268" lon="-120.3204"><ele>2163.7625465670512</ele></trkpt><trkpt lat="39.32272" lon="-120.32042000000001"><ele>2165.485620181054</ele></trkpt><trkpt lat="39.32306" lon="-120.32087999999999"><ele>2171.465014262125</ele></trkpt><trkpt lat="39.32307" lon="-120.32087000000001"><ele>2172.0674479603767</ele></trkpt><trkpt lat="39.32308" lon="-120.32082000000003"><ele>2173.2107714912854</ele></trkpt><trkpt lat="39.32279" lon="-120.32027"><ele>2175.5028657778166</ele></trkpt><trkpt lat="39.3228" lon="-120.32022"><ele>2176.9669021784457</ele></trkpt><trkpt lat="39.32296" lon="-120.32038999999997"><ele>2180.401223531563</ele></trkpt><trkpt lat="39.32309" lon="-120.32060000000001"><ele>2181.0336993600627</ele></trkpt><trkpt lat="39.32312" lon="-120.32060000000001"><ele>2182.203368860297</ele></trkpt><trkpt lat="39.32313" lon="-120.32053000000002"><ele>2184.068039520178</ele></trkpt><trkpt lat="39.32319" lon="-120.32058999999998"><ele>2185.8864439642057</ele></trkpt><trkpt lat="39.32333" lon="-120.32092999999998"><ele>2188.7307543810457</ele></trkpt><trkpt lat="39.32336" lon="-120.32094000000001"><ele>2190.5380627140403</ele></trkpt><trkpt lat="39.32336" lon="-120.32083999999998"><ele>2191.477003159467</ele></trkpt><trkpt lat="39.32339" lon="-120.32085000000001"><ele>2192.8182784919627</ele></trkpt><trkpt lat="39.32345" lon="-120.32096999999999"><ele>2192.9647732264702</ele></trkpt><trkpt lat="39.32342" lon="-120.32114999999999"><ele>2195.227784820088</ele></trkpt><trkpt lat="39.32344" lon="-120.32143000000002"><ele>2195.3575553949922</ele></trkpt><trkpt lat="39.32351" lon="-120.32152000000002"><ele>2198.255001012628</ele></trkpt><trkpt lat="39.32357" lon="-120.32182999999998"><ele>2199.0</ele></trkpt><trkpt lat="39.32359" lon="-120.32184999999998"><ele>2199.5245901388116</ele></trkpt><trkpt lat="39.3236" lon="-120.32171"><ele>2200.0</ele></trkpt><trkpt lat="39.32361" lon="-120.32168000000001"><ele>2200.598995644599</ele></trkpt><trkpt lat="39.32363" lon="-120.32168999999999"><ele>2201.803872603923</ele></trkpt><trkpt lat="39.32368" lon="-120.32199000000003"><ele>2205.189421865606</ele></trkpt><trkpt lat="39.32376" lon="-120.32190000000003"><ele>2205.6355812381953</ele></trkpt><trkpt lat="39.32376" lon="-120.32184000000001"><ele>2206.0</ele></trkpt><trkpt lat="39.32373" lon="-120.32171"><ele>2206.0</ele></trkpt><trkpt lat="39.32377" lon="-120.32172000000003"><ele>2207.945113125327</ele></trkpt><trkpt lat="39.3238" lon="-120.32177999999999"><ele>2208.0453406721354</ele></trkpt><trkpt lat="39.32381" lon="-120.32173"><ele>2209.1097149662673</ele></trkpt><trkpt lat="39.32384" lon="-120.32168000000001"><ele>2210.5683841882988</ele></trkpt><trkpt lat="39.32392" lon="-120.32164999999998"><ele>2212.41259635921</ele></trkpt><trkpt lat="39.32396" lon="-120.32155"><ele>2214.0</ele></trkpt><trkpt lat="39.32408" lon="-120.32148000000001"><ele>2214.9136952850968</ele></trkpt><trkpt lat="39.3241" lon="-120.32116000000002"><ele>2213.1216467723484</ele></trkpt><trkpt lat="39.32416" lon="-120.32101"><ele>2212.7332375757396</ele></trkpt><trkpt lat="39.32433" lon="-120.32103999999998"><ele>2213.0</ele></trkpt><trkpt lat="39.3244" lon="-120.32112000000001"><ele>2213.0</ele></trkpt><trkpt lat="39.32445" lon="-120.32112000000001"><ele>2211.8183301950758</ele></trkpt><trkpt lat="39.32447" lon="-120.32107000000002"><ele>2211.0</ele></trkpt><trkpt lat="39.32453" lon="-120.32103999999998"><ele>2210.0</ele></trkpt><trkpt lat="39.32489" lon="-120.32135"><ele>2207.2388420584484</ele></trkpt><trkpt lat="39.32493" lon="-120.32136000000003"><ele>2207.0</ele></trkpt><trkpt lat="39.32502" lon="-120.32125000000002"><ele>2206.0</ele></trkpt><trkpt lat="39.32492" lon="-120.32109000000003"><ele>2205.0</ele></trkpt><trkpt lat="39.32493" lon="-120.32096999999999"><ele>2204.0</ele></trkpt><trkpt lat="39.32501" lon="-120.32081"><ele>2203.0</ele></trkpt><trkpt lat="39.32509" lon="-120.32076"><ele>2203.0</ele></trkpt><trkpt lat="39.32514" lon="-120.32080000000002"><ele>2202.0</ele></trkpt><trkpt lat="39.32515" lon="-120.32098000000002"><ele>2201.0</ele></trkpt><trkpt lat="39.3252" lon="-120.32105999999999"><ele>2200.7339001942382</ele></trkpt><trkpt lat="39.32524" lon="-120.32107000000002"><ele>2199.8243979695026</ele></trkpt><trkpt lat="39.32525" lon="-120.32098000000002"><ele>2198.0</ele></trkpt><trkpt lat="39.32532" lon="-120.32085999999998"><ele>2197.3827796839178</ele></trkpt><trkpt lat="39.32536" lon="-120.32082000000003"><ele>2197.0</ele></trkpt><trkpt lat="39.32540036716215" lon="-120.32081495410472"><ele>2196.54103211686</ele></trkpt><trkpt lat="39.32540036716215" lon="-120.32081495410472"><ele>2196.54103211686</ele></trkpt><trkpt lat="39.32544" lon="-120.32081"><ele>2196.0</ele></trkpt><trkpt lat="39.32541" lon="-120.32101999999998"><ele>2194.0</ele></trkpt><trkpt lat="39.32558" lon="-120.32121999999998"><ele>2194.770343110431</ele></trkpt><trkpt lat="39.32567" lon="-120.32123999999999"><ele>2193.7907553013556</ele></trkpt><trkpt lat="39.32576" lon="-120.32132000000001"><ele>2194.37674193371</ele></trkpt><trkpt lat="39.32604" lon="-120.32132000000001"><ele>2193.4306808896363</ele></trkpt><trkpt lat="39.32618" lon="-120.32126"><ele>2192.0</ele></trkpt><trkpt lat="39.3263" lon="-120.32114000000001"><ele>2192.6303543877934</ele></trkpt><trkpt lat="39.32633" lon="-120.32103999999998"><ele>2193.0</ele></trkpt><trkpt lat="39.32633" lon="-120.32078000000001"><ele>2193.123271048435</ele></trkpt><trkpt lat="39.32643" lon="-120.32058999999998"><ele>2192.69923781535</ele></trkpt><trkpt lat="39.32647" lon="-120.32024999999999"><ele>2190.5085029765614</ele></trkpt><trkpt lat="39.32655" lon="-120.32006999999999"><ele>2188.0</ele></trkpt><trkpt lat="39.32661" lon="-120.32002"><ele>2188.0</ele></trkpt><trkpt lat="39.32677" lon="-120.32004999999998"><ele>2185.0261712633073</ele></trkpt><trkpt lat="39.32691" lon="-120.32004"><ele>2185.0</ele></trkpt><trkpt lat="39.32693" lon="-120.32"><ele>2184.0</ele></trkpt><trkpt lat="39.32687" lon="-120.31988999999999"><ele>2183.0</ele></trkpt><trkpt lat="39.32691" lon="-120.31986999999998"><ele>2182.0</ele></trkpt><trkpt lat="39.32697" lon="-120.31986999999998"><ele>2181.0</ele></trkpt><trkpt lat="39.32704" lon="-120.31993"><ele>2180.0</ele></trkpt><trkpt lat="39.32712" lon="-120.32010000000002"><ele>2178.0</ele></trkpt><trkpt lat="39.32717" lon="-120.32008000000002"><ele>2177.0</ele></trkpt><trkpt lat="39.32721" lon="-120.31977999999998"><ele>2174.5176008623093</ele></trkpt><trkpt lat="39.32737" lon="-120.31961000000001"><ele>2173.0318328814014</ele></trkpt><trkpt lat="39.32746" lon="-120.31963000000002"><ele>2173.0</ele></trkpt><trkpt lat="39.32755" lon="-120.31975999999997"><ele>2172.261499023225</ele></trkpt><trkpt lat="39.32756" lon="-120.31981999999999"><ele>2170.7733977520716</ele></trkpt><trkpt lat="39.32766" lon="-120.31984"><ele>2169.7283157202273</ele></trkpt><trkpt lat="39.32765" lon="-120.31986"><ele>2169.6137052789454</ele></trkpt><trkpt lat="39.32752" lon="-120.31988999999999"><ele>2168.337411341444</ele></trkpt><trkpt lat="39.32763" lon="-120.32006999999999"><ele>2167.0</ele></trkpt><trkpt lat="39.32772" lon="-120.31995999999998"><ele>2165.0</ele></trkpt><trkpt lat="39.32778" lon="-120.31995"><ele>2163.5191517309277</ele></trkpt><trkpt lat="39.32781" lon="-120.31988000000001"><ele>2163.3692815303802</ele></trkpt><trkpt lat="39.3279" lon="-120.31954000000002"><ele>2159.947006881237</ele></trkpt><trkpt lat="39.32792" lon="-120.31954999999999"><ele>2158.4841120243073</ele></trkpt><trkpt lat="39.32794" lon="-120.31974000000002"><ele>2156.537104798481</ele></trkpt><trkpt lat="39.32788" lon="-120.32028000000003"><ele>2153.0055968951146</ele></trkpt><trkpt lat="39.32783" lon="-120.32037000000003"><ele>2152.321804212872</ele></trkpt><trkpt lat="39.32781" lon="-120.32053000000002"><ele>2153.3692815303802</ele></trkpt><trkpt lat="39.32782" lon="-120.32060000000001"><ele>2153.0</ele></trkpt><trkpt lat="39.32787" lon="-120.32067"><ele>2152.0</ele></trkpt><trkpt lat="39.32788" lon="-120.32096999999999"><ele>2149.0181587075535</ele></trkpt><trkpt lat="39.32791" lon="-120.32098000000002"><ele>2149.0</ele></trkpt><trkpt lat="39.32796" lon="-120.32094000000001"><ele>2148.0</ele></trkpt><trkpt lat="39.32805" lon="-120.32076"><ele>2147.0</ele></trkpt><trkpt lat="39.32803" lon="-120.32051999999999"><ele>2147.0</ele></trkpt><trkpt lat="39.32806" lon="-120.32047999999998"><ele>2146.0</ele></trkpt><trkpt lat="39.32811" lon="-120.32051000000001"><ele>2145.295005561784</ele></trkpt><trkpt lat="39.32818" lon="-120.32067999999998"><ele>2143.077663347125</ele></trkpt><trkpt lat="39.32827" lon="-120.32078000000001"><ele>2143.264856889844</ele></trkpt><trkpt lat="39.32839" lon="-120.32083"><ele>2143.5950257778168</ele></trkpt><trkpt lat="39.32847" lon="-120.3209"><ele>2144.8572622220963</ele></trkpt><trkpt lat="39.32856" lon="-120.32092999999998"><ele>2145.2553635546938</ele></trkpt><trkpt lat="39.32872" lon="-120.32085000000001"><ele>2145.0</ele></trkpt><trkpt lat="39.32886" lon="-120.32087999999999"><ele>2145.0</ele></trkpt><trkpt lat="39.32891" lon="-120.32085000000001"><ele>2145.0</ele></trkpt><trkpt lat="39.32906" lon="-120.32056"><ele>2143.0</ele></trkpt><trkpt lat="39.32919" lon="-120.32002"><ele>2138.0</ele></trkpt><trkpt lat="39.32924" lon="-120.31999000000002"><ele>2137.5665722602507</ele></trkpt><trkpt lat="39.32944" lon="-120.32027"><ele>2136.0</ele></trkpt><trkpt lat="39.32965" lon="-120.32051000000001"><ele>2136.4874983709306</ele></trkpt><trkpt lat="39.32972" lon="-120.32055000000003"><ele>2136.0</ele></trkpt><trkpt lat="39.32991" lon="-120.32089000000002"><ele>2133.0</ele></trkpt><trkpt lat="39.3299" lon="-120.32098000000002"><ele>2132.0</ele></trkpt><trkpt lat="39.32994" lon="-120.32103999999998"><ele>2132.015362185177</ele></trkpt><trkpt lat="39.33" lon="-120.3211"><ele>2132.07567408126</ele></trkpt><trkpt lat="39.33016" lon="-120.32118000000003"><ele>2130.0</ele></trkpt><trkpt lat="39.33029" lon="-120.32130999999998"><ele>2130.0</ele></trkpt><trkpt lat="39.33031952838704" lon="-120.32140449083852"><ele>2131.0</ele></trkpt><trkpt lat="39.33033052982385" lon="-120.3214396954275"><ele>2131.0</ele></trkpt><trkpt lat="39.33034" lon="-120.32146999999998"><ele>2131.0</ele></trkpt><trkpt lat="39.33035" lon="-120.32164999999998"><ele>2132.273679096321</ele></trkpt><trkpt lat="39.33038" lon="-120.32177000000001"><ele>2133.0</ele></trkpt><trkpt lat="39.3305" lon="-120.32191"><ele>2132.9487086140975</ele></trkpt><trkpt lat="39.33064" lon="-120.32191999999998"><ele>2132.0</ele></trkpt><trkpt lat="39.33083" lon="-120.32184999999998"><ele>2131.4939616047523</ele></trkpt><trkpt lat="39.33121" lon="-120.32186999999999"><ele>2130.0625386666507</ele></trkpt><trkpt lat="39.33133" lon="-120.32195000000002"><ele>2131.0</ele></trkpt><trkpt lat="39.33153" lon="-120.32220999999998"><ele>2133.9300987346637</ele></trkpt><trkpt lat="39.3318" lon="-120.32227"><ele>2136.0</ele></trkpt><trkpt lat="39.3318" lon="-120.32227"><ele>2136.0</ele></trkpt><trkpt lat="39.3319" lon="-120.32241999999997"><ele>2137.0</ele></trkpt><trkpt lat="39.33191" lon="-120.32252"><ele>2138.0</ele></trkpt><trkpt lat="39.33195" lon="-120.32259999999997"><ele>2138.0</ele></trkpt><trkpt lat="39.33211" lon="-120.32272999999998"><ele>2139.0</ele></trkpt><trkpt lat="39.33219" lon="-120.32276999999999"><ele>2139.0055786664598</ele></trkpt><trkpt lat="39.33224" lon="-120.32276000000002"><ele>2139.2888769726515</ele></trkpt><trkpt lat="39.33226" lon="-120.3227"><ele>2139.100792084112</ele></trkpt><trkpt lat="39.33229" lon="-120.32267999999999"><ele>2139.6225493336096</ele></trkpt><trkpt lat="39.33252" lon="-120.32265000000001"><ele>2139.4131733342074</ele></trkpt><trkpt lat="39.33264" lon="-120.32277999999997"><ele>2140.471612443216</ele></trkpt><trkpt lat="39.33277" lon="-120.32281"><ele>2139.869713777676</ele></trkpt><trkpt lat="39.33286" lon="-120.32289000000003"><ele>2140.0</ele></trkpt><trkpt lat="39.33301" lon="-120.32316000000003"><ele>2141.0</ele></trkpt><trkpt lat="39.33319" lon="-120.32334000000003"><ele>2142.5695040016435</ele></trkpt><trkpt lat="39.33342" lon="-120.32379000000003"><ele>2146.541024001781</ele></trkpt><trkpt lat="39.3335" lon="-120.32385"><ele>2146.699963722815</ele></trkpt><trkpt lat="39.33356" lon="-120.32385999999997"><ele>2147.0678413230926</ele></trkpt><trkpt lat="39.33361" lon="-120.32376999999997"><ele>2146.6894194297493</ele></trkpt><trkpt lat="39.33379" lon="-120.32373999999999"><ele>2150.1367739229463</ele></trkpt><trkpt lat="39.33384" lon="-120.32367999999997"><ele>2150.389172210697</ele></trkpt><trkpt lat="39.3339" lon="-120.32367999999997"><ele>2151.0</ele></trkpt><trkpt lat="39.33396" lon="-120.32375000000002"><ele>2152.676888889633</ele></trkpt><trkpt lat="39.33417" lon="-120.32382999999999"><ele>2154.810318221338</ele></trkpt><trkpt lat="39.33426" lon="-120.32382999999999"><ele>2156.0991589078953</ele></trkpt><trkpt lat="39.33426" lon="-120.32388000000003"><ele>2156.800104001233</ele></trkpt><trkpt lat="39.33393" lon="-120.32391999999999"><ele>2160.5994631107897</ele></trkpt><trkpt lat="39.33386" lon="-120.32405"><ele>2161.1436036210507</ele></trkpt><trkpt lat="39.33385" lon="-120.32412"><ele>2161.0</ele></trkpt><trkpt lat="39.3339" lon="-120.32418000000001"><ele>2162.0</ele></trkpt><trkpt lat="39.3343" lon="-120.32441"><ele>2167.8498241442117</ele></trkpt><trkpt lat="39.3343" lon="-120.32441"><ele>2167.8498241442117</ele></trkpt><trkpt lat="39.33453" lon="-120.32457"><ele>2171.0</ele></trkpt><trkpt lat="39.33462" lon="-120.32461999999998"><ele>2172.0</ele></trkpt><trkpt lat="39.33474" lon="-120.32463000000001"><ele>2173.0</ele></trkpt><trkpt lat="39.33491" lon="-120.32475"><ele>2173.0</ele></trkpt><trkpt lat="39.335" lon="-120.32477"><ele>2174.0</ele></trkpt><trkpt lat="39.33506" lon="-120.32472999999999"><ele>2174.0</ele></trkpt><trkpt lat="39.33511" lon="-120.32466999999997"><ele>2174.0</ele></trkpt><trkpt lat="39.33516" lon="-120.32466999999997"><ele>2174.21181749437</ele></trkpt><trkpt lat="39.33537" lon="-120.32481999999999"><ele>2176.0</ele></trkpt><trkpt lat="39.33548" lon="-120.32484"><ele>2177.0</ele></trkpt><trkpt lat="39.3355" lon="-120.32488000000001"><ele>2177.9591417666525</ele></trkpt><trkpt lat="39.33544" lon="-120.32529"><ele>2181.789988970384</ele></trkpt><trkpt lat="39.3356" lon="-120.32520999999997"><ele>2183.0</ele></trkpt><trkpt lat="39.33583" lon="-120.3252"><ele>2184.8430362846702</ele></trkpt><trkpt lat="39.33597" lon="-120.32511"><ele>2185.0574826668017</ele></trkpt><trkpt lat="39.33609" lon="-120.32506999999998"><ele>2184.7974434233756</ele></trkpt><trkpt lat="39.33619" lon="-120.32497000000001"><ele>2183.7826929284383</ele></trkpt><trkpt lat="39.33642" lon="-120.32487000000003"><ele>2185.922745446576</ele></trkpt><trkpt lat="39.33645" lon="-120.32481000000001"><ele>2186.0</ele></trkpt><trkpt lat="39.33649" lon="-120.32481000000001"><ele>2186.0467309368755</ele></trkpt><trkpt lat="39.33652" lon="-120.32483000000002"><ele>2187.423717405327</ele></trkpt><trkpt lat="39.33643" lon="-120.32502"><ele>2188.999427024209</ele></trkpt><trkpt lat="39.33635" lon="-120.32504"><ele>2189.0</ele></trkpt><trkpt lat="39.33634" lon="-120.32506999999998"><ele>2189.193347554654</ele></trkpt><trkpt lat="39.33636" lon="-120.32511999999997"><ele>2191.523516443558</ele></trkpt><trkpt lat="39.33642" lon="-120.32513"><ele>2191.9895502226427</ele></trkpt><trkpt lat="39.33653" lon="-120.32520999999997"><ele>2192.717820443213</ele></trkpt><trkpt lat="39.33663" lon="-120.32520999999997"><ele>2192.0</ele></trkpt><trkpt lat="39.33671" lon="-120.32517999999999"><ele>2192.0</ele></trkpt><trkpt lat="39.33676" lon="-120.3252"><ele>2193.0</ele></trkpt><trkpt lat="39.33676" lon="-120.32544000000001"><ele>2194.0</ele></trkpt><trkpt lat="39.3368" lon="-120.32551999999998"><ele>2194.1170264975826</ele></trkpt><trkpt lat="39.33702" lon="-120.32568000000003"><ele>2192.0</ele></trkpt><trkpt lat="39.33712" lon="-120.32591000000002"><ele>2190.0</ele></trkpt><trkpt lat="39.33742" lon="-120.32627000000002"><ele>2188.0</ele></trkpt><trkpt lat="39.33746" lon="-120.32641999999998"><ele>2186.8984375298432</ele></trkpt><trkpt lat="39.33746" lon="-120.32663000000002"><ele>2186.0</ele></trkpt><trkpt lat="39.33754" lon="-120.32682999999997"><ele>2185.0</ele></trkpt><trkpt lat="39.337540518483664" lon="-120.32683082093251"><ele>2185.0</ele></trkpt><trkpt lat="39.33755244548064" lon="-120.32684970532921"><ele>2185.0</ele></trkpt><trkpt lat="39.33766" lon="-120.32702"><ele>2185.0</ele></trkpt><trkpt lat="39.33769" lon="-120.32713000000001"><ele>2183.0823483187705</ele></trkpt><trkpt lat="39.33775" lon="-120.32720999999998"><ele>2182.0</ele></trkpt><trkpt lat="39.33789" lon="-120.32726000000002"><ele>2180.0</ele></trkpt><trkpt lat="39.3379" lon="-120.32736999999997"><ele>2177.428575374186</ele></trkpt><trkpt lat="39.33785" lon="-120.32742999999999"><ele>2177.822680889163</ele></trkpt><trkpt lat="39.33776" lon="-120.32749000000001"><ele>2177.8680179272005</ele></trkpt><trkpt lat="39.33772" lon="-120.32756"><ele>2177.0</ele></trkpt><trkpt lat="39.33769" lon="-120.32776999999999"><ele>2177.0</ele></trkpt><trkpt lat="39.33769" lon="-120.32835"><ele>2181.0823483187705</ele></trkpt><trkpt lat="39.33759" lon="-120.32873000000001"><ele>2185.1079411227256</ele></trkpt><trkpt lat="39.33759" lon="-120.32893000000001"><ele>2186.1814340881483</ele></trkpt><trkpt lat="39.33762" lon="-120.32925"><ele>2188.2989029878227</ele></trkpt><trkpt lat="39.33768" lon="-120.32933000000003"><ele>2188.7237368905917</ele></trkpt><trkpt lat="39.33777" lon="-120.32936000000001"><ele>2188.1218382227235</ele></trkpt><trkpt lat="39.33788" lon="-120.32945000000001"><ele>2188.0</ele></trkpt><trkpt lat="39.33796" lon="-120.32958000000002"><ele>2188.0</ele></trkpt><trkpt lat="39.33794" lon="-120.32981999999998"><ele>2188.0</ele></trkpt><trkpt lat="39.33786" lon="-120.32996000000003"><ele>2188.0</ele></trkpt><trkpt lat="39.33785" lon="-120.33002999999997"><ele>2188.0</ele></trkpt><trkpt lat="39.33791" lon="-120.33022"><ele>2189.1658165820227</ele></trkpt><trkpt lat="39.33801" lon="-120.33038999999997"><ele>2191.0</ele></trkpt><trkpt lat="39.33803" lon="-120.33046000000002"><ele>2191.2486858579496</ele></trkpt><trkpt lat="39.33802" lon="-120.33065999999997"><ele>2192.0</ele></trkpt><trkpt lat="39.33819" lon="-120.33085"><ele>2193.535214064799</ele></trkpt><trkpt lat="39.33817" lon="-120.33089999999999"><ele>2195.8910399996676</ele></trkpt><trkpt lat="39.33812" lon="-120.33089999999999"><ele>2195.9098030253695</ele></trkpt><trkpt lat="39.33789" lon="-120.33083999999997"><ele>2200.0</ele></trkpt><trkpt lat="39.33769" lon="-120.33060999999998"><ele>2200.0</ele></trkpt><trkpt lat="39.33757" lon="-120.33053999999998"><ele>2200.391249060439</ele></trkpt><trkpt lat="39.33745" lon="-120.33032000000003"><ele>2202.0</ele></trkpt><trkpt lat="39.33741" lon="-120.33031"><ele>2202.0</ele></trkpt><trkpt lat="39.33738" lon="-120.33035000000001"><ele>2202.8234319774474</ele></trkpt><trkpt lat="39.33742" lon="-120.33051"><ele>2204.9000966701433</ele></trkpt><trkpt lat="39.33735" lon="-120.33076"><ele>2206.208697171097</ele></trkpt><trkpt lat="39.33737" lon="-120.33087999999998"><ele>2206.3902996615498</ele></trkpt><trkpt lat="39.33743" lon="-120.33096"><ele>2206.0</ele></trkpt><trkpt lat="39.33743" lon="-120.33096"><ele>2206.0</ele></trkpt><trkpt lat="39.33743" lon="-120.33096"><ele>2206.0</ele></trkpt><trkpt lat="39.33747" lon="-120.33145999999999"><ele>2203.0</ele></trkpt><trkpt lat="39.33765" lon="-120.33179999999999"><ele>2202.0</ele></trkpt><trkpt lat="39.33805" lon="-120.33281"><ele>2201.0</ele></trkpt><trkpt lat="39.33834" lon="-120.33312000000001"><ele>2200.6494613331743</ele></trkpt><trkpt lat="39.33867" lon="-120.33317999999997"><ele>2199.0</ele></trkpt><trkpt lat="39.33916" lon="-120.33344999999997"><ele>2195.6389233437794</ele></trkpt><trkpt lat="39.33937" lon="-120.33347000000003"><ele>2195.0</ele></trkpt><trkpt lat="39.3394" lon="-120.33350000000002"><ele>2195.0</ele></trkpt><trkpt lat="39.33943" lon="-120.33366999999998"><ele>2193.013455213012</ele></trkpt><trkpt lat="39.33958" lon="-120.33393000000001"><ele>2192.0</ele></trkpt><trkpt lat="39.33962" lon="-120.33415000000002"><ele>2190.7230610456563</ele></trkpt><trkpt lat="39.33965" lon="-120.33428000000004"><ele>2189.589543109294</ele></trkpt><trkpt lat="39.33959" lon="-120.33452"><ele>2189.8358596683197</ele></trkpt><trkpt lat="39.3396" lon="-120.33465999999999"><ele>2190.0</ele></trkpt><trkpt lat="39.3396" lon="-120.33465999999999"><ele>2190.0</ele></trkpt><trkpt lat="39.33946" lon="-120.33517"><ele>2194.492308251283</ele></trkpt><trkpt lat="39.33922" lon="-120.33573999999999"><ele>2197.0</ele></trkpt><trkpt lat="39.33913" lon="-120.33607999999998"><ele>2197.0</ele></trkpt><trkpt lat="39.33911" lon="-120.33623"><ele>2197.4819997232407</ele></trkpt><trkpt lat="39.33914" lon="-120.33641999999998"><ele>2197.2897159662098</ele></trkpt><trkpt lat="39.33921" lon="-120.33654999999999"><ele>2197.901483448063</ele></trkpt><trkpt lat="39.33949" lon="-120.33695999999998"><ele>2197.2630052632862</ele></trkpt><trkpt lat="39.33967" lon="-120.33730000000003"><ele>2196.0</ele></trkpt><trkpt lat="39.33967" lon="-120.33730000000003"><ele>2196.0</ele></trkpt><trkpt lat="39.33972" lon="-120.33747"><ele>2196.0</ele></trkpt><trkpt lat="39.33976" lon="-120.33781999999997"><ele>2197.0</ele></trkpt><trkpt lat="39.33987" lon="-120.33821999999998"><ele>2199.0</ele></trkpt><trkpt lat="39.33989" lon="-120.33835999999997"><ele>2199.5522382212803</ele></trkpt><trkpt lat="39.33986" lon="-120.33850999999999"><ele>2201.0</ele></trkpt><trkpt lat="39.3398" lon="-120.33870000000002"><ele>2204.0596695654094</ele></trkpt><trkpt lat="39.33974" lon="-120.33879000000002"><ele>2204.5916906674393</ele></trkpt><trkpt lat="39.3396" lon="-120.33889999999997"><ele>2207.0</ele></trkpt><trkpt lat="39.33933" lon="-120.33904999999999"><ele>2207.0</ele></trkpt><trkpt lat="39.3391" lon="-120.33929"><ele>2209.0</ele></trkpt><trkpt lat="39.33884" lon="-120.33985000000001"><ele>2207.7874115426093</ele></trkpt><trkpt lat="39.33885" lon="-120.34019"><ele>2206.0</ele></trkpt><trkpt lat="39.33887" lon="-120.34028"><ele>2206.0</ele></trkpt><trkpt lat="39.33887" lon="-120.34028"><ele>2206.0</ele></trkpt><trkpt lat="39.33915" lon="-120.34120000000001"><ele>2205.097568683886</ele></trkpt><trkpt lat="39.33938" lon="-120.34163999999998"><ele>2202.897776878313</ele></trkpt><trkpt lat="39.3396" lon="-120.34188"><ele>2202.0</ele></trkpt><trkpt lat="39.33968" lon="-120.34201999999999"><ele>2201.0</ele></trkpt><trkpt lat="39.33972" lon="-120.34217000000001"><ele>2200.6764034792063</ele></trkpt><trkpt lat="39.3396" lon="-120.34269"><ele>2199.0</ele></trkpt><trkpt lat="39.339592095524885" lon="-120.34295084767865"><ele>2199.0</ele></trkpt><trkpt lat="39.33959147416007" lon="-120.3429713527205"><ele>2199.0</ele></trkpt><trkpt lat="39.33959" lon="-120.34302000000002"><ele>2199.72397866752</ele></trkpt><trkpt lat="39.33958249563752" lon="-120.34302373473133"><ele>2199.8980297618546</ele></trkpt><trkpt lat="39.33955" lon="-120.34291000000002"><ele>2199.0</ele></trkpt><trkpt lat="39.33946" lon="-120.34284000000002"><ele>2199.0</ele></trkpt><trkpt lat="39.33933" lon="-120.34287"><ele>2199.0</ele></trkpt><trkpt lat="39.33919" lon="-120.34305999999998"><ele>2199.0</ele></trkpt><trkpt lat="39.33914829421014" lon="-120.34321987219442"><ele>2199.0</ele></trkpt></trkseg></trk></gpx>