<?xml version="1.0"?>
<gpx xmlns="http://www.topografix.com/GPX/1/1" xmlns:gpxx="http://www.garmin.com/xmlschemas/GpxExtensions/v3" creator="CALTOPO" version="1.1"><metadata><name><![CDATA[Ducks-Reds]]></name></metadata><wpt lat="37.59958894524879" lon="-118.99672072087913"><name>Lake Mary Shuttle Stop - Ducks Lake TH</name></wpt><wpt lat="37.55870660272033" lon="-118.9626039213507"><name>Duck Pass</name></wpt><wpt lat="37.61464954738363" lon="-119.0749092342314"><name>Reds Meadow Trailhead Shuttle Stop</name></wpt><trk><name>Ducks-Reds</name><trkseg><trkpt lat="37.59960359203647" lon="-118.99671771231425"><ele>2722.0</ele></trkpt><trkpt lat="37.599612449893066" lon="-118.99672207388426"><ele>2722.0</ele></trkpt><trkpt lat="37.59961" lon="-118.99673000000001"><ele>2722.0</ele></trkpt><trkpt lat="37.59961" lon="-118.99673000000001"><ele>2722.0</ele></trkpt><trkpt lat="37.59961" lon="-118.99673000000001"><ele>2722.0</ele></trkpt><trkpt lat="37.599554894699935" lon="-118.99669728122808"><ele>2721.0</ele></trkpt><trkpt lat="37.59956006587574" lon="-118.99670035155987"><ele>2721.0</ele></trkpt><trkpt lat="37.59929" lon="-118.99653999999998"><ele>2723.357193862218</ele></trkpt><trkpt lat="37.59929" lon="-118.99653999999998"><ele>2723.357193862218</ele></trkpt><trkpt lat="37.59909" lon="-118.99648000000002"><ele>2726.0</ele></trkpt><trkpt lat="37.598644518681425" lon="-118.99617822233256"><ele>2729.6521928627044</ele></trkpt><trkpt lat="37.598647920476594" lon="-118.99618052641642"><ele>2729.5448147719726</ele></trkpt><trkpt lat="37.59847" lon="-118.99606"><ele>2731.0</ele></trkpt><trkpt lat="37.59811" lon="-118.99595999999997"><ele>2732.8220906676725</ele></trkpt><trkpt lat="37.59798" lon="-118.99586999999997"><ele>2733.0163946682587</ele></trkpt><trkpt lat="37.59768" lon="-118.99553000000003"><ele>2735.0</ele></trkpt><trkpt lat="37.59768" lon="-118.99553000000003"><ele>2735.0</ele></trkpt><trkpt lat="37.59732" lon="-118.99541999999997"><ele>2736.9879146679305</ele></trkpt><trkpt lat="37.59682" lon="-118.995"><ele>2740.7353382371366</ele></trkpt><trkpt lat="37.59682" lon="-118.995"><ele>2740.7353382371366</ele></trkpt><trkpt lat="37.59654" lon="-118.99464"><ele>2742.0</ele></trkpt><trkpt lat="37.59642" lon="-118.99441000000002"><ele>2744.0</ele></trkpt><trkpt lat="37.59642" lon="-118.99441000000002"><ele>2744.0</ele></trkpt><trkpt lat="37.59608" lon="-118.99423000000002"><ele>2745.0</ele></trkpt><trkpt lat="37.59578" lon="-118.99414999999999"><ele>2747.0</ele></trkpt><trkpt lat="37.59578" lon="-118.99414999999999"><ele>2747.0</ele></trkpt><trkpt lat="37.59561" lon="-118.99412000000001"><ele>2747.0</ele></trkpt><trkpt lat="37.59545" lon="-118.99401999999998"><ele>2748.0</ele></trkpt><trkpt lat="37.59522" lon="-118.99385000000001"><ele>2749.0</ele></trkpt><trkpt lat="37.5949" lon="-118.99342999999999"><ele>2750.0</ele></trkpt><trkpt lat="37.59436" lon="-118.99313999999998"><ele>2753.0</ele></trkpt><trkpt lat="37.59402" lon="-118.99286000000001"><ele>2754.292561776936</ele></trkpt><trkpt lat="37.59386" lon="-118.99250999999998"><ele>2756.6691261545807</ele></trkpt><trkpt lat="37.59386" lon="-118.99250999999998"><ele>2756.6691261545807</ele></trkpt><trkpt lat="37.59386" lon="-118.99250999999998"><ele>2756.6691261545807</ele></trkpt><trkpt lat="37.5936" lon="-118.99229000000003"><ele>2757.747535754357</ele></trkpt><trkpt lat="37.59346" lon="-118.99203"><ele>2759.0</ele></trkpt><trkpt lat="37.59309" lon="-118.99155000000002"><ele>2761.0</ele></trkpt><trkpt lat="37.59271" lon="-118.99128999999999"><ele>2762.0</ele></trkpt><trkpt lat="37.59256" lon="-118.99110999999999"><ele>2762.0</ele></trkpt><trkpt lat="37.5922" lon="-118.99101999999999"><ele>2764.0</ele></trkpt><trkpt lat="37.59209" lon="-118.99103000000002"><ele>2764.0</ele></trkpt><trkpt lat="37.59209" lon="-118.99103000000002"><ele>2764.0</ele></trkpt><trkpt lat="37.59197" lon="-118.99106999999998"><ele>2765.0</ele></trkpt><trkpt lat="37.59181" lon="-118.99103000000002"><ele>2766.0</ele></trkpt><trkpt lat="37.59165" lon="-118.99079"><ele>2767.0</ele></trkpt><trkpt lat="37.59165" lon="-118.99079"><ele>2767.0</ele></trkpt><trkpt lat="37.59165" lon="-118.99079"><ele>2767.0</ele></trkpt><trkpt lat="37.59162" lon="-118.99059999999997"><ele>2768.0</ele></trkpt><trkpt lat="37.59162" lon="-118.99043"><ele>2768.0</ele></trkpt><trkpt lat="37.59173" lon="-118.99005"><ele>2768.0</ele></trkpt><trkpt lat="37.59173" lon="-118.99005"><ele>2768.0</ele></trkpt><trkpt lat="37.59169" lon="-118.98990000000003"><ele>2768.0</ele></trkpt><trkpt lat="37.59162" lon="-118.98973999999998"><ele>2769.0</ele></trkpt><trkpt lat="37.59149" lon="-118.98955999999998"><ele>2770.083708445076</ele></trkpt><trkpt lat="37.59126" lon="-118.98930999999999"><ele>2772.0</ele></trkpt><trkpt lat="37.59122" lon="-118.98923000000002"><ele>2772.0</ele></trkpt><trkpt lat="37.59122" lon="-118.98912000000001"><ele>2772.0</ele></trkpt><trkpt lat="37.59122" lon="-118.98912000000001"><ele>2772.0</ele></trkpt><trkpt lat="37.59077" lon="-118.98894999999999"><ele>2775.0</ele></trkpt><trkpt lat="37.59077" lon="-118.98894999999999"><ele>2775.0</ele></trkpt><trkpt lat="37.59077" lon="-118.98894999999999"><ele>2775.0</ele></trkpt><trkpt lat="37.5906" lon="-118.98854"><ele>2776.571885049343</ele></trkpt><trkpt lat="37.59057320308396" lon="-118.98825595269"><ele>2778.877910837716</ele></trkpt><trkpt lat="37.5905752093285" lon="-118.98827721883765"><ele>2778.029916100204</ele></trkpt><trkpt lat="37.59055" lon="-118.98801000000003"><ele>2783.806374578271</ele></trkpt><trkpt lat="37.59031" lon="-118.98759000000001"><ele>2791.3321133753207</ele></trkpt><trkpt lat="37.58992" lon="-118.9871"><ele>2798.846323723841</ele></trkpt><trkpt lat="37.58987" lon="-118.98696999999999"><ele>2802.280776145868</ele></trkpt><trkpt lat="37.58992" lon="-118.98687000000001"><ele>2805.446794665884</ele></trkpt><trkpt lat="37.5899" lon="-118.98674"><ele>2807.505233777687</ele></trkpt><trkpt lat="37.58979" lon="-118.98657000000003"><ele>2809.210728637874</ele></trkpt><trkpt lat="37.58956" lon="-118.98649"><ele>2811.1560782222077</ele></trkpt><trkpt lat="37.58923" lon="-118.98604999999998"><ele>2817.0493853006956</ele></trkpt><trkpt lat="37.58911" lon="-118.98602"><ele>2819.0121379035413</ele></trkpt><trkpt lat="37.58892" lon="-118.98617000000002"><ele>2821.026128171994</ele></trkpt><trkpt lat="37.58887" lon="-118.98609999999996"><ele>2823.105521638889</ele></trkpt><trkpt lat="37.5889" lon="-118.98586"><ele>2824.554045410827</ele></trkpt><trkpt lat="37.58885" lon="-118.98561999999998"><ele>2827.0</ele></trkpt><trkpt lat="37.58888" lon="-118.98511000000002"><ele>2831.0</ele></trkpt><trkpt lat="37.58899" lon="-118.98484000000002"><ele>2833.260929465294</ele></trkpt><trkpt lat="37.58897" lon="-118.98466000000002"><ele>2836.4402595544234</ele></trkpt><trkpt lat="37.58885" lon="-118.98467"><ele>2839.986975321874</ele></trkpt><trkpt lat="37.58865" lon="-118.98477000000003"><ele>2844.0</ele></trkpt><trkpt lat="37.58861" lon="-118.98473999999999"><ele>2845.7119893333875</ele></trkpt><trkpt lat="37.58861" lon="-118.98459000000003"><ele>2847.8838537535503</ele></trkpt><trkpt lat="37.58868" lon="-118.98422"><ele>2851.0</ele></trkpt><trkpt lat="37.58866" lon="-118.98405000000002"><ele>2852.956412599565</ele></trkpt><trkpt lat="37.58862" lon="-118.98397999999997"><ele>2854.021476313472</ele></trkpt><trkpt lat="37.58853" lon="-118.98401999999999"><ele>2856.497180201577</ele></trkpt><trkpt lat="37.58839" lon="-118.98430000000002"><ele>2859.548248210922</ele></trkpt><trkpt lat="37.58824" lon="-118.98444999999998"><ele>2862.597002340015</ele></trkpt><trkpt lat="37.5882" lon="-118.98442"><ele>2864.895959427356</ele></trkpt><trkpt lat="37.58829" lon="-118.98428000000001"><ele>2864.429440345615</ele></trkpt><trkpt lat="37.58826" lon="-118.98415"><ele>2867.1937964446843</ele></trkpt><trkpt lat="37.5882" lon="-118.98415"><ele>2869.7802202228677</ele></trkpt><trkpt lat="37.58797" lon="-118.98439000000002"><ele>2873.272373636719</ele></trkpt><trkpt lat="37.58774" lon="-118.98473999999999"><ele>2878.5524010910776</ele></trkpt><trkpt lat="37.58757" lon="-118.98475000000002"><ele>2880.190318064272</ele></trkpt><trkpt lat="37.5875" lon="-118.98471"><ele>2882.0</ele></trkpt><trkpt lat="37.58755" lon="-118.98451"><ele>2884.409235050083</ele></trkpt><trkpt lat="37.58751" lon="-118.98444"><ele>2886.0</ele></trkpt><trkpt lat="37.58738" lon="-118.98442999999997"><ele>2889.0</ele></trkpt><trkpt lat="37.58717" lon="-118.98449"><ele>2891.108216060073</ele></trkpt><trkpt lat="37.58695" lon="-118.98451"><ele>2894.0</ele></trkpt><trkpt lat="37.58687" lon="-118.98444999999998"><ele>2896.2269688895904</ele></trkpt><trkpt lat="37.58689" lon="-118.98435"><ele>2898.0</ele></trkpt><trkpt lat="37.58701" lon="-118.98419000000001"><ele>2900.0</ele></trkpt><trkpt lat="37.58702" lon="-118.9839"><ele>2902.875752373621</ele></trkpt><trkpt lat="37.58707" lon="-118.98374999999999"><ele>2906.0</ele></trkpt><trkpt lat="37.58719" lon="-118.98363999999998"><ele>2907.9786696790957</ele></trkpt><trkpt lat="37.58724" lon="-118.98342000000002"><ele>2909.368469813105</ele></trkpt><trkpt lat="37.58722" lon="-118.98322999999999"><ele>2912.0</ele></trkpt><trkpt lat="37.58712" lon="-118.98307999999997"><ele>2913.0</ele></trkpt><trkpt lat="37.58681" lon="-118.98283000000004"><ele>2918.1295569079416</ele></trkpt><trkpt lat="37.58648" lon="-118.98274000000004"><ele>2925.0713137304506</ele></trkpt><trkpt lat="37.58631288703402" lon="-118.98262859135605"><ele>2929.0</ele></trkpt><trkpt lat="37.58628078747226" lon="-118.98259044224301"><ele>2929.0</ele></trkpt><trkpt lat="37.58617" lon="-118.98241999999999"><ele>2932.0</ele></trkpt><trkpt lat="37.58591" lon="-118.98230999999998"><ele>2936.0</ele></trkpt><trkpt lat="37.58564" lon="-118.98193000000003"><ele>2942.0</ele></trkpt><trkpt lat="37.58564" lon="-118.98193000000003"><ele>2942.0</ele></trkpt><trkpt lat="37.58563" lon="-118.98190999999997"><ele>2941.91981087174</ele></trkpt><trkpt lat="37.58541" lon="-118.98193000000003"><ele>2946.0</ele></trkpt><trkpt lat="37.58541" lon="-118.98193000000003"><ele>2946.0</ele></trkpt><trkpt lat="37.58535" lon="-118.98193000000003"><ele>2946.778195878911</ele></trkpt><trkpt lat="37.58535" lon="-118.98193000000003"><ele>2946.778195878911</ele></trkpt><trkpt lat="37.58525" lon="-118.98163999999997"><ele>2950.0</ele></trkpt><trkpt lat="37.58507" lon="-118.98139000000003"><ele>2952.133290050271</ele></trkpt><trkpt lat="37.58453" lon="-118.98122999999998"><ele>2959.0</ele></trkpt><trkpt lat="37.58402" lon="-118.98097999999999"><ele>2964.0</ele></trkpt><trkpt lat="37.58402" lon="-118.98097999999999"><ele>2964.0</ele></trkpt><trkpt lat="37.58402" lon="-118.98097999999999"><ele>2964.0</ele></trkpt><trkpt lat="37.58374" lon="-118.98088000000001"><ele>2967.408182800926</ele></trkpt><trkpt lat="37.58325" lon="-118.98084"><ele>2972.0</ele></trkpt><trkpt lat="37.583" lon="-118.98091999999997"><ele>2975.0</ele></trkpt><trkpt lat="37.58276" lon="-118.98104999999998"><ele>2980.0</ele></trkpt><trkpt lat="37.58251" lon="-118.98097000000001"><ele>2982.207005955669</ele></trkpt><trkpt lat="37.58181" lon="-118.98066"><ele>2988.1462293332443</ele></trkpt><trkpt lat="37.58164" lon="-118.98063000000002"><ele>2989.7481280011125</ele></trkpt><trkpt lat="37.58139" lon="-118.98070999999999"><ele>2991.0</ele></trkpt><trkpt lat="37.58121" lon="-118.98068"><ele>2993.813597077614</ele></trkpt><trkpt lat="37.58102" lon="-118.98061000000001"><ele>2996.0</ele></trkpt><trkpt lat="37.58085" lon="-118.98052000000001"><ele>2999.9800883864364</ele></trkpt><trkpt lat="37.58055" lon="-118.98045000000002"><ele>3004.8596940638736</ele></trkpt><trkpt lat="37.58033" lon="-118.98027000000002"><ele>3007.5310797718857</ele></trkpt><trkpt lat="37.58024" lon="-118.98028999999997"><ele>3009.0</ele></trkpt><trkpt lat="37.5801980377249" lon="-118.9803372075595"><ele>3008.6215201927016</ele></trkpt><trkpt lat="37.5801980377249" lon="-118.9803372075595"><ele>3008.6215201927016</ele></trkpt><trkpt lat="37.58016" lon="-118.98037999999997"><ele>3008.0972835542634</ele></trkpt><trkpt lat="37.57979" lon="-118.98007000000001"><ele>3007.0</ele></trkpt><trkpt lat="37.57954" lon="-118.97996999999998"><ele>3010.0</ele></trkpt><trkpt lat="37.57941" lon="-118.97985"><ele>3009.0</ele></trkpt><trkpt lat="37.57941" lon="-118.97985"><ele>3009.0</ele></trkpt><trkpt lat="37.57932" lon="-118.97971999999999"><ele>3008.0</ele></trkpt><trkpt lat="37.57923" lon="-118.97950000000003"><ele>3007.0</ele></trkpt><trkpt lat="37.5791" lon="-118.97928000000002"><ele>3004.268733135647</ele></trkpt><trkpt lat="37.57887" lon="-118.97897999999998"><ele>3005.0</ele></trkpt><trkpt lat="37.57863" lon="-118.97872000000001"><ele>3007.0</ele></trkpt><trkpt lat="37.57843" lon="-118.97836999999998"><ele>3007.0</ele></trkpt><trkpt lat="37.57821114805411" lon="-118.97819674220949"><ele>3008.350095958449</ele></trkpt><trkpt lat="37.578233369656445" lon="-118.978214334266"><ele>3008.142557934777</ele></trkpt><trkpt lat="37.57819" lon="-118.97818000000001"><ele>3008.2217593619216</ele></trkpt><trkpt lat="37.57787" lon="-118.97784000000001"><ele>3010.781514328335</ele></trkpt><trkpt lat="37.57764" lon="-118.97779000000003"><ele>3013.3945351121947</ele></trkpt><trkpt lat="37.57737" lon="-118.97779000000003"><ele>3014.3945351121947</ele></trkpt><trkpt lat="37.57737" lon="-118.97779000000003"><ele>3014.3945351121947</ele></trkpt><trkpt lat="37.57737" lon="-118.97779000000003"><ele>3014.3945351121947</ele></trkpt><trkpt lat="37.57715" lon="-118.97786000000002"><ele>3015.6567715564743</ele></trkpt><trkpt lat="37.577" lon="-118.97788000000003"><ele>3012.849828389956</ele></trkpt><trkpt lat="37.57684" lon="-118.97787"><ele>3011.1228053332306</ele></trkpt><trkpt lat="37.57684" lon="-118.97787"><ele>3011.1228053332306</ele></trkpt><trkpt lat="37.57684" lon="-118.97787"><ele>3011.1228053332306</ele></trkpt><trkpt lat="37.57665" lon="-118.97778"><ele>3013.0714986664243</ele></trkpt><trkpt lat="37.57645" lon="-118.97762"><ele>3014.0</ele></trkpt><trkpt lat="37.57631" lon="-118.97755999999998"><ele>3014.0</ele></trkpt><trkpt lat="37.57611" lon="-118.97755000000001"><ele>3010.4471525410554</ele></trkpt><trkpt lat="37.576" lon="-118.97751"><ele>3009.0</ele></trkpt><trkpt lat="37.576" lon="-118.97751"><ele>3009.0</ele></trkpt><trkpt lat="37.576" lon="-118.97751"><ele>3009.0</ele></trkpt><trkpt lat="37.57573462512182" lon="-118.97730069023692"><ele>3009.0</ele></trkpt><trkpt lat="37.57573462512182" lon="-118.97730069023692"><ele>3009.0</ele></trkpt><trkpt lat="37.57549080545189" lon="-118.97710838176488"><ele>3011.0</ele></trkpt><trkpt lat="37.57549080545189" lon="-118.97710838176488"><ele>3011.0</ele></trkpt><trkpt lat="37.57529" lon="-118.97694999999999"><ele>3011.0</ele></trkpt><trkpt lat="37.57503" lon="-118.97638999999998"><ele>3016.3245584411957</ele></trkpt><trkpt lat="37.5749" lon="-118.97595000000001"><ele>3020.84972034581</ele></trkpt><trkpt lat="37.57469" lon="-118.97554000000002"><ele>3027.0</ele></trkpt><trkpt lat="37.57452" lon="-118.97528999999997"><ele>3029.0</ele></trkpt><trkpt lat="37.57436" lon="-118.97514000000001"><ele>3030.0</ele></trkpt><trkpt lat="37.57402" lon="-118.97495000000004"><ele>3029.635505480692</ele></trkpt><trkpt lat="37.57376" lon="-118.97476"><ele>3031.882695281878</ele></trkpt><trkpt lat="37.57360220869394" lon="-118.97450358912766"><ele>3035.160878174007</ele></trkpt><trkpt lat="37.57358077924456" lon="-118.97446876615356"><ele>3036.0</ele></trkpt><trkpt lat="37.57352" lon="-118.97437000000002"><ele>3037.0</ele></trkpt><trkpt lat="37.57346" lon="-118.97437000000002"><ele>3038.517039526355</ele></trkpt><trkpt lat="37.57334" lon="-118.97446000000002"><ele>3041.794712888077</ele></trkpt><trkpt lat="37.57325" lon="-118.97446000000002"><ele>3042.0</ele></trkpt><trkpt lat="37.57309" lon="-118.97435000000002"><ele>3042.0</ele></trkpt><trkpt lat="37.57287" lon="-118.97415999999998"><ele>3043.0</ele></trkpt><trkpt lat="37.57265" lon="-118.97405000000003"><ele>3044.233810988444</ele></trkpt><trkpt lat="37.57242" lon="-118.97375999999997"><ele>3046.0</ele></trkpt><trkpt lat="37.57234" lon="-118.97359"><ele>3046.832627545584</ele></trkpt><trkpt lat="37.57212" lon="-118.9733"><ele>3046.0</ele></trkpt><trkpt lat="37.57207" lon="-118.97309000000001"><ele>3046.0</ele></trkpt><trkpt lat="37.57182" lon="-118.97287"><ele>3046.0</ele></trkpt><trkpt lat="37.57152" lon="-118.97276"><ele>3046.0</ele></trkpt><trkpt lat="37.57144" lon="-118.97267999999997"><ele>3046.0</ele></trkpt><trkpt lat="37.57135" lon="-118.97243000000003"><ele>3047.1640718298927</ele></trkpt><trkpt lat="37.57124" lon="-118.97234000000003"><ele>3046.976765817464</ele></trkpt><trkpt lat="37.57107" lon="-118.97210999999999"><ele>3047.0</ele></trkpt><trkpt lat="37.57091" lon="-118.97201999999999"><ele>3048.0</ele></trkpt><trkpt lat="37.57067" lon="-118.97183000000001"><ele>3051.0</ele></trkpt><trkpt lat="37.5706" lon="-118.97176000000002"><ele>3051.62383288797</ele></trkpt><trkpt lat="37.57054" lon="-118.97163999999998"><ele>3053.0</ele></trkpt><trkpt lat="37.57046" lon="-118.97158000000002"><ele>3054.0</ele></trkpt><trkpt lat="37.5704" lon="-118.97162000000003"><ele>3055.4475997798145</ele></trkpt><trkpt lat="37.57017" lon="-118.97188"><ele>3059.0305181033805</ele></trkpt><trkpt lat="37.57014" lon="-118.97185000000002"><ele>3060.0</ele></trkpt><trkpt lat="37.57015" lon="-118.97165999999999"><ele>3063.0417768403818</ele></trkpt><trkpt lat="37.57007" lon="-118.97147999999999"><ele>3065.572410233305</ele></trkpt><trkpt lat="37.56998" lon="-118.97145"><ele>3067.1425861474127</ele></trkpt><trkpt lat="37.56974" lon="-118.97152"><ele>3072.2053505090457</ele></trkpt><trkpt lat="37.56966" lon="-118.97149000000002"><ele>3073.9664614814055</ele></trkpt><trkpt lat="37.56954" lon="-118.97131000000002"><ele>3075.0</ele></trkpt><trkpt lat="37.56944" lon="-118.97072000000003"><ele>3077.081578929384</ele></trkpt><trkpt lat="37.56938" lon="-118.97062"><ele>3078.0</ele></trkpt><trkpt lat="37.56935" lon="-118.97060999999997"><ele>3078.0</ele></trkpt><trkpt lat="37.56929" lon="-118.97075000000001"><ele>3080.0</ele></trkpt><trkpt lat="37.56908" lon="-118.97111999999998"><ele>3087.032970157977</ele></trkpt><trkpt lat="37.56898" lon="-118.97149999999999"><ele>3088.984342127118</ele></trkpt><trkpt lat="37.56895" lon="-118.97147999999999"><ele>3090.703510835767</ele></trkpt><trkpt lat="37.56888" lon="-118.97127999999998"><ele>3093.0</ele></trkpt><trkpt lat="37.56847" lon="-118.97068000000002"><ele>3103.9257916044444</ele></trkpt><trkpt lat="37.56829" lon="-118.97059000000002"><ele>3105.509100003168</ele></trkpt><trkpt lat="37.56805" lon="-118.97039000000001"><ele>3110.0</ele></trkpt><trkpt lat="37.56791" lon="-118.97033999999996"><ele>3112.1697752799455</ele></trkpt><trkpt lat="37.56774" lon="-118.97019"><ele>3114.0</ele></trkpt><trkpt lat="37.56754" lon="-118.97019"><ele>3115.0</ele></trkpt><trkpt lat="37.56729" lon="-118.97005999999999"><ele>3113.590631368016</ele></trkpt><trkpt lat="37.56679" lon="-118.96965999999998"><ele>3106.0</ele></trkpt><trkpt lat="37.56664" lon="-118.96946000000003"><ele>3103.0</ele></trkpt><trkpt lat="37.56671" lon="-118.96927"><ele>3100.7295505712527</ele></trkpt><trkpt lat="37.56658" lon="-118.96931999999998"><ele>3099.0</ele></trkpt><trkpt lat="37.56654" lon="-118.96928000000003"><ele>3098.880082971634</ele></trkpt><trkpt lat="37.56639" lon="-118.96893999999998"><ele>3097.0</ele></trkpt><trkpt lat="37.56639" lon="-118.96893999999998"><ele>3097.0</ele></trkpt><trkpt lat="37.56639" lon="-118.96893999999998"><ele>3097.0</ele></trkpt><trkpt lat="37.56631" lon="-118.96888999999999"><ele>3096.0</ele></trkpt><trkpt lat="37.56625" lon="-118.96870999999999"><ele>3096.3449874952908</ele></trkpt><trkpt lat="37.56625" lon="-118.96870999999999"><ele>3096.3449874952908</ele></trkpt><trkpt lat="37.56625" lon="-118.96870999999999"><ele>3096.3449874952908</ele></trkpt><trkpt lat="37.56614" lon="-118.96854000000002"><ele>3099.0</ele></trkpt><trkpt lat="37.56596" lon="-118.96848999999997"><ele>3099.0</ele></trkpt><trkpt lat="37.56593" lon="-118.96834000000001"><ele>3100.0</ele></trkpt><trkpt lat="37.56596" lon="-118.96818999999999"><ele>3101.0</ele></trkpt><trkpt lat="37.56588" lon="-118.96802000000002"><ele>3101.0</ele></trkpt><trkpt lat="37.56572" lon="-118.96800000000002"><ele>3101.147466667928</ele></trkpt><trkpt lat="37.56559" lon="-118.96791000000002"><ele>3101.0</ele></trkpt><trkpt lat="37.56543" lon="-118.96789000000001"><ele>3101.0210951115005</ele></trkpt><trkpt lat="37.56538" lon="-118.96773999999999"><ele>3101.0</ele></trkpt><trkpt lat="37.56526" lon="-118.96767"><ele>3102.0</ele></trkpt><trkpt lat="37.56514" lon="-118.9674"><ele>3102.0</ele></trkpt><trkpt lat="37.56496" lon="-118.96713999999997"><ele>3102.6560189681336</ele></trkpt><trkpt lat="37.56486" lon="-118.96683000000002"><ele>3103.0</ele></trkpt><trkpt lat="37.56473" lon="-118.96668999999997"><ele>3106.0</ele></trkpt><trkpt lat="37.5647" lon="-118.96641"><ele>3108.9798941861036</ele></trkpt><trkpt lat="37.564583935232946" lon="-118.96619897315077"><ele>3113.0</ele></trkpt><trkpt lat="37.56459640854549" lon="-118.96622165175376"><ele>3112.4905905333653</ele></trkpt><trkpt lat="37.56448" lon="-118.96600999999998"><ele>3116.0</ele></trkpt><trkpt lat="37.56448" lon="-118.96578999999997"><ele>3119.0</ele></trkpt><trkpt lat="37.56435" lon="-118.96562"><ele>3119.8773702566345</ele></trkpt><trkpt lat="37.56426" lon="-118.96542999999997"><ele>3117.5490800533444</ele></trkpt><trkpt lat="37.5641" lon="-118.96526"><ele>3114.0</ele></trkpt><trkpt lat="37.56401" lon="-118.96526"><ele>3114.0</ele></trkpt><trkpt lat="37.56395" lon="-118.96515"><ele>3114.0</ele></trkpt><trkpt lat="37.56375" lon="-118.96505000000002"><ele>3114.3324977769516</ele></trkpt><trkpt lat="37.56354" lon="-118.96485000000001"><ele>3118.6531733325683</ele></trkpt><trkpt lat="37.56324" lon="-118.96449000000001"><ele>3124.011115902569</ele></trkpt><trkpt lat="37.56323" lon="-118.96445"><ele>3125.0</ele></trkpt><trkpt lat="37.56325" lon="-118.96445"><ele>3125.049670845704</ele></trkpt><trkpt lat="37.56343" lon="-118.96456999999998"><ele>3127.7021191120148</ele></trkpt><trkpt lat="37.56332" lon="-118.96438999999998"><ele>3129.374824280385</ele></trkpt><trkpt lat="37.56308" lon="-118.96413999999999"><ele>3133.7415715558454</ele></trkpt><trkpt lat="37.56296" lon="-118.96406999999999"><ele>3137.0</ele></trkpt><trkpt lat="37.56304" lon="-118.96406000000002"><ele>3136.9396835537627</ele></trkpt><trkpt lat="37.56306" lon="-118.96402"><ele>3138.333976888098</ele></trkpt><trkpt lat="37.56318" lon="-118.96402999999998"><ele>3140.9211450465955</ele></trkpt><trkpt lat="37.56325" lon="-118.96410000000003"><ele>3140.7743542818353</ele></trkpt><trkpt lat="37.56335" lon="-118.96411"><ele>3142.180850249466</ele></trkpt><trkpt lat="37.56347" lon="-118.96418"><ele>3144.0903151102175</ele></trkpt><trkpt lat="37.5635" lon="-118.96418"><ele>3144.983662214962</ele></trkpt><trkpt lat="37.5635" lon="-118.96410000000003"><ele>3145.6057066647336</ele></trkpt><trkpt lat="37.56327" lon="-118.96395999999999"><ele>3148.4298239592317</ele></trkpt><trkpt lat="37.56303" lon="-118.96373"><ele>3153.0</ele></trkpt><trkpt lat="37.56271" lon="-118.96366"><ele>3159.514598065365</ele></trkpt><trkpt lat="37.56262" lon="-118.96377000000001"><ele>3160.9980301783967</ele></trkpt><trkpt lat="37.56261" lon="-118.96384"><ele>3162.127095073434</ele></trkpt><trkpt lat="37.562616738562994" lon="-118.96390064706696"><ele>3162.0619694665074</ele></trkpt><trkpt lat="37.56262" lon="-118.96389999999997"><ele>3162.0</ele></trkpt><trkpt lat="37.56254" lon="-118.96379999999999"><ele>3164.237037050691</ele></trkpt><trkpt lat="37.56246" lon="-118.96377999999999"><ele>3167.758084542118</ele></trkpt><trkpt lat="37.56235" lon="-118.96357999999998"><ele>3172.74393071793</ele></trkpt><trkpt lat="37.56231" lon="-118.96364"><ele>3174.9608746497893</ele></trkpt><trkpt lat="37.56231" lon="-118.96379999999999"><ele>3175.0</ele></trkpt><trkpt lat="37.56231177374381" lon="-118.96380103351737"><ele>3174.995317379683</ele></trkpt><trkpt lat="37.56228" lon="-118.96388999999999"><ele>3176.0</ele></trkpt><trkpt lat="37.56222" lon="-118.96383000000003"><ele>3176.313847061165</ele></trkpt><trkpt lat="37.56217" lon="-118.96391"><ele>3176.6364743502477</ele></trkpt><trkpt lat="37.56214" lon="-118.96389999999997"><ele>3178.0</ele></trkpt><trkpt lat="37.56213" lon="-118.96371999999997"><ele>3178.779440081621</ele></trkpt><trkpt lat="37.56224" lon="-118.96362999999997"><ele>3178.318430574849</ele></trkpt><trkpt lat="37.56221" lon="-118.96361000000002"><ele>3180.0</ele></trkpt><trkpt lat="37.562" lon="-118.96370999999999"><ele>3183.1018958915956</ele></trkpt><trkpt lat="37.562" lon="-118.96370999999999"><ele>3183.1018958915956</ele></trkpt><trkpt lat="37.56186" lon="-118.96384999999998"><ele>3187.0</ele></trkpt><trkpt lat="37.56192" lon="-118.96370999999999"><ele>3186.799892882089</ele></trkpt><trkpt lat="37.562" lon="-118.96359999999999"><ele>3187.519425175941</ele></trkpt><trkpt lat="37.562" lon="-118.96359999999999"><ele>3187.519425175941</ele></trkpt><trkpt lat="37.56197" lon="-118.96357999999998"><ele>3190.0710229509145</ele></trkpt><trkpt lat="37.56159" lon="-118.96388000000002"><ele>3194.4251657500863</ele></trkpt><trkpt lat="37.56156" lon="-118.96398999999997"><ele>3195.4568111384287</ele></trkpt><trkpt lat="37.56157" lon="-118.96422000000001"><ele>3196.0</ele></trkpt><trkpt lat="37.56141" lon="-118.96445"><ele>3197.3020212054253</ele></trkpt><trkpt lat="37.5613" lon="-118.96443999999997"><ele>3199.521116447635</ele></trkpt><trkpt lat="37.56135" lon="-118.96438999999998"><ele>3201.0907271117903</ele></trkpt><trkpt lat="37.56135" lon="-118.96437000000003"><ele>3202.022794665303</ele></trkpt><trkpt lat="37.56113" lon="-118.96440000000001"><ele>3202.2493866654113</ele></trkpt><trkpt lat="37.5611" lon="-118.96436"><ele>3204.0</ele></trkpt><trkpt lat="37.56103" lon="-118.96437000000003"><ele>3204.022794665303</ele></trkpt><trkpt lat="37.56091" lon="-118.96458999999999"><ele>3205.8626578965564</ele></trkpt><trkpt lat="37.56069" lon="-118.96465999999998"><ele>3209.0</ele></trkpt><trkpt lat="37.56058" lon="-118.96452999999997"><ele>3211.914755996893</ele></trkpt><trkpt lat="37.56051" lon="-118.96438999999998"><ele>3214.0907271117903</ele></trkpt><trkpt lat="37.56052" lon="-118.96436"><ele>3215.327090354542</ele></trkpt><trkpt lat="37.56061" lon="-118.96438"><ele>3215.0221422206555</ele></trkpt><trkpt lat="37.56072" lon="-118.9642"><ele>3218.9766649832018</ele></trkpt><trkpt lat="37.56072" lon="-118.96415999999999"><ele>3219.3457698163015</ele></trkpt><trkpt lat="37.56069" lon="-118.96411999999998"><ele>3220.0</ele></trkpt><trkpt lat="37.56059" lon="-118.96422999999999"><ele>3220.6448631198823</ele></trkpt><trkpt lat="37.56056" lon="-118.96422999999999"><ele>3221.535922702815</ele></trkpt><trkpt lat="37.56055" lon="-118.9642"><ele>3222.0</ele></trkpt><trkpt lat="37.56061" lon="-118.96411"><ele>3222.173887850167</ele></trkpt><trkpt lat="37.56071" lon="-118.96402"><ele>3223.441048903773</ele></trkpt><trkpt lat="37.56074" lon="-118.96393"><ele>3225.2097590627313</ele></trkpt><trkpt lat="37.56072" lon="-118.96388000000002"><ele>3226.0</ele></trkpt><trkpt lat="37.56054" lon="-118.96383000000003"><ele>3229.1550695709884</ele></trkpt><trkpt lat="37.56057" lon="-118.96377999999999"><ele>3229.0</ele></trkpt><trkpt lat="37.56056" lon="-118.96370999999999"><ele>3231.01619062315</ele></trkpt><trkpt lat="37.56044" lon="-118.96365000000003"><ele>3233.59162744785</ele></trkpt><trkpt lat="37.56012" lon="-118.96373"><ele>3236.8489564443007</ele></trkpt><trkpt lat="37.55991" lon="-118.96398999999997"><ele>3240.4089158592997</ele></trkpt><trkpt lat="37.55992" lon="-118.96404999999999"><ele>3241.0387760201947</ele></trkpt><trkpt lat="37.56002" lon="-118.96413999999999"><ele>3242.0</ele></trkpt><trkpt lat="37.55998" lon="-118.96418"><ele>3242.0</ele></trkpt><trkpt lat="37.55982" lon="-118.96407999999997"><ele>3244.2235525759756</ele></trkpt><trkpt lat="37.55985" lon="-118.96418"><ele>3245.088241011924</ele></trkpt><trkpt lat="37.55982" lon="-118.96422999999999"><ele>3246.0</ele></trkpt><trkpt lat="37.55973" lon="-118.96425999999997"><ele>3247.850833776407</ele></trkpt><trkpt lat="37.55969" lon="-118.96424000000002"><ele>3248.0</ele></trkpt><trkpt lat="37.55955591821731" lon="-118.96406357660169"><ele>3251.0</ele></trkpt><trkpt lat="37.55956376645911" lon="-118.9640739031646"><ele>3250.919401404233</ele></trkpt><trkpt lat="37.5595" lon="-118.96398999999997"><ele>3252.0</ele></trkpt><trkpt lat="37.55953" lon="-118.96386000000001"><ele>3253.790517332498</ele></trkpt><trkpt lat="37.55943" lon="-118.96388999999999"><ele>3255.0</ele></trkpt><trkpt lat="37.55945" lon="-118.96379999999999"><ele>3256.448448582641</ele></trkpt><trkpt lat="37.5595" lon="-118.96377999999999"><ele>3257.0</ele></trkpt><trkpt lat="37.55951" lon="-118.96374000000003"><ele>3258.382922665216</ele></trkpt><trkpt lat="37.55949" lon="-118.96370000000002"><ele>3259.028633144171</ele></trkpt><trkpt lat="37.55943" lon="-118.96370000000002"><ele>3258.1454057212086</ele></trkpt><trkpt lat="37.55934" lon="-118.96361000000002"><ele>3260.0</ele></trkpt><trkpt lat="37.55927" lon="-118.96359000000001"><ele>3261.0</ele></trkpt><trkpt lat="37.55927" lon="-118.96347000000003"><ele>3262.99377150769</ele></trkpt><trkpt lat="37.55922" lon="-118.96339999999998"><ele>3263.8125316531473</ele></trkpt><trkpt lat="37.55915" lon="-118.96341999999999"><ele>3264.0</ele></trkpt><trkpt lat="37.559084227055955" lon="-118.96354332427006"><ele>3265.7390816509724</ele></trkpt><trkpt lat="37.559084227055955" lon="-118.96354332427006"><ele>3265.7390816509724</ele></trkpt><trkpt lat="37.5590765588404" lon="-118.96355770217423"><ele>3265.9016661406854</ele></trkpt><trkpt lat="37.5590568272651" lon="-118.9635420211689"><ele>3266.0</ele></trkpt><trkpt lat="37.55903" lon="-118.96339"><ele>3267.0</ele></trkpt><trkpt lat="37.55903" lon="-118.96328"><ele>3267.986899306956</ele></trkpt><trkpt lat="37.55906" lon="-118.96321"><ele>3269.082712888252</ele></trkpt><trkpt lat="37.55918" lon="-118.9631"><ele>3272.0</ele></trkpt><trkpt lat="37.55915" lon="-118.96303"><ele>3273.5387982831844</ele></trkpt><trkpt lat="37.55891" lon="-118.96299999999997"><ele>3275.853488322661</ele></trkpt><trkpt lat="37.55874" lon="-118.96263999999996"><ele>3278.0</ele></trkpt><trkpt lat="37.55874" lon="-118.96263999999996"><ele>3278.0</ele></trkpt><trkpt lat="37.55852" lon="-118.96244000000002"><ele>3276.9121677519347</ele></trkpt><trkpt lat="37.55843" lon="-118.96231999999998"><ele>3276.0</ele></trkpt><trkpt lat="37.55831" lon="-118.96228000000002"><ele>3275.0</ele></trkpt><trkpt lat="37.55821" lon="-118.96221000000003"><ele>3274.0</ele></trkpt><trkpt lat="37.55821" lon="-118.96221000000003"><ele>3274.0</ele></trkpt><trkpt lat="37.55821" lon="-118.96221000000003"><ele>3274.0</ele></trkpt><trkpt lat="37.55809" lon="-118.96221000000003"><ele>3275.3139093345962</ele></trkpt><trkpt lat="37.558" lon="-118.96224999999998"><ele>3275.6062430549673</ele></trkpt><trkpt lat="37.55786" lon="-118.96238"><ele>3276.068732410883</ele></trkpt><trkpt lat="37.55762" lon="-118.96274"><ele>3278.0</ele></trkpt><trkpt lat="37.55743" lon="-118.96290999999997"><ele>3277.0111776689337</ele></trkpt><trkpt lat="37.55692544547695" lon="-118.96325522151574"><ele>3276.366613977247</ele></trkpt><trkpt lat="37.556932600283425" lon="-118.96325032672155"><ele>3276.6143291521985</ele></trkpt><trkpt lat="37.55667" lon="-118.96343000000002"><ele>3275.4469527434953</ele></trkpt><trkpt lat="37.55653" lon="-118.96365000000003"><ele>3278.0</ele></trkpt><trkpt lat="37.55653" lon="-118.96365000000003"><ele>3278.0</ele></trkpt><trkpt lat="37.55653" lon="-118.96365000000003"><ele>3278.0</ele></trkpt><trkpt lat="37.55634" lon="-118.96384999999998"><ele>3276.9830712446023</ele></trkpt><trkpt lat="37.5562" lon="-118.96406000000002"><ele>3276.8608751083484</ele></trkpt><trkpt lat="37.55595" lon="-118.96438"><ele>3278.4472912280917</ele></trkpt><trkpt lat="37.5558" lon="-118.96452"><ele>3280.15704655461</ele></trkpt><trkpt lat="37.55564" lon="-118.96474999999998"><ele>3279.783547753468</ele></trkpt><trkpt lat="37.55543" lon="-118.96494000000001"><ele>3279.2372767203533</ele></trkpt><trkpt lat="37.55531" lon="-118.96497999999997"><ele>3278.4052657764405</ele></trkpt><trkpt lat="37.55528" lon="-118.96501999999998"><ele>3278.722811638854</ele></trkpt><trkpt lat="37.55517" lon="-118.96542"><ele>3279.064917817712</ele></trkpt><trkpt lat="37.55513" lon="-118.96546999999998"><ele>3279.8027371019125</ele></trkpt><trkpt lat="37.5551" lon="-118.96548999999999"><ele>3279.1729884445667</ele></trkpt><trkpt lat="37.55505" lon="-118.96545000000003"><ele>3279.2780039940412</ele></trkpt><trkpt lat="37.55495" lon="-118.96546999999998"><ele>3280.0533214563256</ele></trkpt><trkpt lat="37.55458" lon="-118.9656"><ele>3281.1409148219236</ele></trkpt><trkpt lat="37.55453" lon="-118.96564000000001"><ele>3280.5314578507096</ele></trkpt><trkpt lat="37.55449" lon="-118.96582999999998"><ele>3279.198186220601</ele></trkpt><trkpt lat="37.5544" lon="-118.96587999999997"><ele>3278.3097778549127</ele></trkpt><trkpt lat="37.55428" lon="-118.96589"><ele>3276.8143395562656</ele></trkpt><trkpt lat="37.55416" lon="-118.96595000000002"><ele>3274.6105422228575</ele></trkpt><trkpt lat="37.55404" lon="-118.96596"><ele>3274.055654705258</ele></trkpt><trkpt lat="37.55372" lon="-118.96586000000002"><ele>3268.331919540651</ele></trkpt><trkpt lat="37.55354" lon="-118.96593999999999"><ele>3268.1445084442385</ele></trkpt><trkpt lat="37.55334" lon="-118.96596999999997"><ele>3264.8560179987508</ele></trkpt><trkpt lat="37.5532" lon="-118.96605999999997"><ele>3262.828415493443</ele></trkpt><trkpt lat="37.55315" lon="-118.96623999999997"><ele>3261.4598806011945</ele></trkpt><trkpt lat="37.55307" lon="-118.96636000000001"><ele>3260.506759301763</ele></trkpt><trkpt lat="37.553" lon="-118.96644000000003"><ele>3265.993165811808</ele></trkpt><trkpt lat="37.55285" lon="-118.96647999999999"><ele>3259.0837191222236</ele></trkpt><trkpt lat="37.55262" lon="-118.96692999999999"><ele>3253.534962156322</ele></trkpt><trkpt lat="37.55255" lon="-118.96699000000001"><ele>3253.0</ele></trkpt><trkpt lat="37.55238" lon="-118.96728999999999"><ele>3250.1450391039252</ele></trkpt><trkpt lat="37.55237" lon="-118.96737999999999"><ele>3249.6983839068153</ele></trkpt><trkpt lat="37.55196020669913" lon="-118.96736218289999"><ele>3246.4230354013853</ele></trkpt><trkpt lat="37.55197087293708" lon="-118.96736264664236"><ele>3246.4446473624557</ele></trkpt><trkpt lat="37.55191" lon="-118.96735999999999"><ele>3245.32130488893</ele></trkpt><trkpt lat="37.55179" lon="-118.96726000000001"><ele>3239.817902716931</ele></trkpt><trkpt lat="37.55159" lon="-118.96719999999999"><ele>3236.86476444453</ele></trkpt><trkpt lat="37.55136" lon="-118.96717000000001"><ele>3232.933326222934</ele></trkpt><trkpt lat="37.55125" lon="-118.96710000000002"><ele>3229.631494127542</ele></trkpt><trkpt lat="37.55091" lon="-118.96701000000002"><ele>3229.2834557552687</ele></trkpt><trkpt lat="37.55053" lon="-118.96722"><ele>3228.1936849649064</ele></trkpt><trkpt lat="37.55024" lon="-118.96751"><ele>3224.420972020333</ele></trkpt><trkpt lat="37.54978" lon="-118.96776"><ele>3220.962656000629</ele></trkpt><trkpt lat="37.54954" lon="-118.96805999999998"><ele>3219.8987730251397</ele></trkpt><trkpt lat="37.54951" lon="-118.96803"><ele>3217.5455680000596</ele></trkpt><trkpt lat="37.54945" lon="-118.96803"><ele>3216.4582412331365</ele></trkpt><trkpt lat="37.54882" lon="-118.96846"><ele>3209.515204018047</ele></trkpt><trkpt lat="37.54858" lon="-118.96850999999998"><ele>3204.980774143638</ele></trkpt><trkpt lat="37.54817" lon="-118.96866"><ele>3199.579051056411</ele></trkpt><trkpt lat="37.54801" lon="-118.96865000000003"><ele>3197.8793244473636</ele></trkpt><trkpt lat="37.54772" lon="-118.96852000000001"><ele>3194.381223111879</ele></trkpt><trkpt lat="37.54706" lon="-118.9685"><ele>3188.449155556038</ele></trkpt><trkpt lat="37.54662" lon="-118.96866999999997"><ele>3189.3717297771946</ele></trkpt><trkpt lat="37.54646" lon="-118.96868"><ele>3188.8377635562792</ele></trkpt><trkpt lat="37.54623" lon="-118.96879999999999"><ele>3186.795559679674</ele></trkpt><trkpt lat="37.54587" lon="-118.96879000000001"><ele>3186.9641351117752</ele></trkpt><trkpt lat="37.54572" lon="-118.96875999999997"><ele>3185.5660337768495</ele></trkpt><trkpt lat="37.54566" lon="-118.96868"><ele>3184.11519695439</ele></trkpt><trkpt lat="37.54557" lon="-118.96870999999999"><ele>3183.0</ele></trkpt><trkpt lat="37.54552" lon="-118.96848"><ele>3182.0472823290634</ele></trkpt><trkpt lat="37.54545" lon="-118.96837"><ele>3181.3907164442353</ele></trkpt><trkpt lat="37.54506" lon="-118.96818000000002"><ele>3182.0599822013573</ele></trkpt><trkpt lat="37.54469" lon="-118.96836000000002"><ele>3184.0</ele></trkpt><trkpt lat="37.54466" lon="-118.96841999999998"><ele>3184.8212734307954</ele></trkpt><trkpt lat="37.54458" lon="-118.96847000000002"><ele>3183.0</ele></trkpt><trkpt lat="37.54458" lon="-118.96847000000002"><ele>3183.0</ele></trkpt><trkpt lat="37.54435" lon="-118.96846"><ele>3183.585020444356</ele></trkpt><trkpt lat="37.54423" lon="-118.96852000000001"><ele>3182.0</ele></trkpt><trkpt lat="37.54391" lon="-118.96839999999997"><ele>3182.788817776367</ele></trkpt><trkpt lat="37.54376" lon="-118.96829000000002"><ele>3181.0</ele></trkpt><trkpt lat="37.54369" lon="-118.96805999999998"><ele>3181.0</ele></trkpt><trkpt lat="37.54347" lon="-118.96780999999999"><ele>3180.0</ele></trkpt><trkpt lat="37.54336" lon="-118.96762999999999"><ele>3179.0</ele></trkpt><trkpt lat="37.54329" lon="-118.9676"><ele>3178.4227615945865</ele></trkpt><trkpt lat="37.54322" lon="-118.96762000000001"><ele>3177.4050491059584</ele></trkpt><trkpt lat="37.54315" lon="-118.96758999999997"><ele>3176.0</ele></trkpt><trkpt lat="37.54297" lon="-118.96730000000002"><ele>3173.012779537879</ele></trkpt><trkpt lat="37.54285" lon="-118.96719999999999"><ele>3171.1316899838266</ele></trkpt><trkpt lat="37.5428" lon="-118.96712000000002"><ele>3171.0302074514116</ele></trkpt><trkpt lat="37.54275" lon="-118.96712000000002"><ele>3169.013128615105</ele></trkpt><trkpt lat="37.54269" lon="-118.96721000000002"><ele>3165.8576341937587</ele></trkpt><trkpt lat="37.5427" lon="-118.96758"><ele>3161.0670399165856</ele></trkpt><trkpt lat="37.54265" lon="-118.96762000000001"><ele>3160.0</ele></trkpt><trkpt lat="37.54254" lon="-118.96755000000002"><ele>3158.7532545719296</ele></trkpt><trkpt lat="37.5425" lon="-118.96757000000002"><ele>3157.4022242613137</ele></trkpt><trkpt lat="37.5425" lon="-118.96762000000001"><ele>3157.4022242613137</ele></trkpt><trkpt lat="37.54246" lon="-118.96762999999999"><ele>3156.0</ele></trkpt><trkpt lat="37.54218" lon="-118.96737000000002"><ele>3153.0</ele></trkpt><trkpt lat="37.54213" lon="-118.96737000000002"><ele>3152.0</ele></trkpt><trkpt lat="37.54212" lon="-118.96751999999998"><ele>3148.0149952652096</ele></trkpt><trkpt lat="37.54206" lon="-118.96751999999998"><ele>3147.0</ele></trkpt><trkpt lat="37.542" lon="-118.96746000000002"><ele>3146.0002652964595</ele></trkpt><trkpt lat="37.54192" lon="-118.96746000000002"><ele>3143.005735316987</ele></trkpt><trkpt lat="37.54163" lon="-118.96726999999998"><ele>3139.0</ele></trkpt><trkpt lat="37.54157" lon="-118.96726999999998"><ele>3137.614124220796</ele></trkpt><trkpt lat="37.54154" lon="-118.96728999999999"><ele>3136.0</ele></trkpt><trkpt lat="37.54168" lon="-118.96749"><ele>3134.6202560001984</ele></trkpt><trkpt lat="37.54167" lon="-118.96753999999999"><ele>3133.2900871112943</ele></trkpt><trkpt lat="37.5416" lon="-118.96755000000002"><ele>3131.8240533322096</ele></trkpt><trkpt lat="37.54153" lon="-118.96748000000002"><ele>3131.390125386417</ele></trkpt><trkpt lat="37.5414" lon="-118.96744000000001"><ele>3127.9875757331283</ele></trkpt><trkpt lat="37.54123" lon="-118.96742999999998"><ele>3126.1741263302974</ele></trkpt><trkpt lat="37.54116" lon="-118.96737999999999"><ele>3124.9096569470844</ele></trkpt><trkpt lat="37.54106" lon="-118.96735000000001"><ele>3122.799843564485</ele></trkpt><trkpt lat="37.54112" lon="-118.96746000000002"><ele>3121.01835733233</ele></trkpt><trkpt lat="37.54111" lon="-118.96771000000001"><ele>3117.367512888275</ele></trkpt><trkpt lat="37.54124" lon="-118.96771999999999"><ele>3115.5900946035804</ele></trkpt><trkpt lat="37.54134" lon="-118.96780999999999"><ele>3114.930069033522</ele></trkpt><trkpt lat="37.54133" lon="-118.96785"><ele>3113.9427324671524</ele></trkpt><trkpt lat="37.54126" lon="-118.96784000000002"><ele>3112.3090737764724</ele></trkpt><trkpt lat="37.54124" lon="-118.96785999999997"><ele>3111.3770062229596</ele></trkpt><trkpt lat="37.54133" lon="-118.96798999999999"><ele>3109.0</ele></trkpt><trkpt lat="37.54133" lon="-118.96805"><ele>3107.82573260807</ele></trkpt><trkpt lat="37.54126" lon="-118.96809999999999"><ele>3106.0</ele></trkpt><trkpt lat="37.54104" lon="-118.96816999999999"><ele>3102.929959111847</ele></trkpt><trkpt lat="37.54075" lon="-118.96821"><ele>3098.0</ele></trkpt><trkpt lat="37.54015" lon="-118.96818999999999"><ele>3095.0</ele></trkpt><trkpt lat="37.53986" lon="-118.96825000000001"><ele>3094.0</ele></trkpt><trkpt lat="37.53971" lon="-118.96823999999998"><ele>3095.1398795302025</ele></trkpt><trkpt lat="37.53961" lon="-118.96829000000002"><ele>3095.6624462231994</ele></trkpt><trkpt lat="37.5395" lon="-118.96821"><ele>3092.0</ele></trkpt><trkpt lat="37.53936" lon="-118.96820000000002"><ele>3091.0</ele></trkpt><trkpt lat="37.53914" lon="-118.96836000000002"><ele>3089.0</ele></trkpt><trkpt lat="37.53891" lon="-118.96846"><ele>3088.7645934188395</ele></trkpt><trkpt lat="37.5387" lon="-118.96841"><ele>3086.7604640524373</ele></trkpt><trkpt lat="37.53857" lon="-118.96841999999998"><ele>3086.0</ele></trkpt><trkpt lat="37.53853" lon="-118.96847000000002"><ele>3086.931259326637</ele></trkpt><trkpt lat="37.53845" lon="-118.96875"><ele>3086.5697592273546</ele></trkpt><trkpt lat="37.53834" lon="-118.96893"><ele>3088.53874562905</ele></trkpt><trkpt lat="37.53832" lon="-118.96913999999998"><ele>3090.273490579799</ele></trkpt><trkpt lat="37.53832" lon="-118.96913999999998"><ele>3090.273490579799</ele></trkpt><trkpt lat="37.53832" lon="-118.96913999999998"><ele>3090.273490579799</ele></trkpt><trkpt lat="37.53845" lon="-118.96942999999999"><ele>3084.6330658085644</ele></trkpt><trkpt lat="37.53843" lon="-118.97023999999999"><ele>3071.0</ele></trkpt><trkpt lat="37.53846" lon="-118.97024999999996"><ele>3069.0904508230656</ele></trkpt><trkpt lat="37.53854" lon="-118.97003999999998"><ele>3068.2685201756804</ele></trkpt><trkpt lat="37.53863" lon="-118.96996000000001"><ele>3066.0275323029414</ele></trkpt><trkpt lat="37.53861" lon="-118.97003999999998"><ele>3065.0</ele></trkpt><trkpt lat="37.53862" lon="-118.97030000000001"><ele>3061.64172100462</ele></trkpt><trkpt lat="37.53866" lon="-118.97030000000001"><ele>3060.2908130344003</ele></trkpt><trkpt lat="37.53869" lon="-118.97021999999998"><ele>3059.7132885315978</ele></trkpt><trkpt lat="37.53884" lon="-118.97003999999998"><ele>3055.937050106345</ele></trkpt><trkpt lat="37.53892" lon="-118.97021000000001"><ele>3052.149419575749</ele></trkpt><trkpt lat="37.53903" lon="-118.97028999999998"><ele>3050.0</ele></trkpt><trkpt lat="37.53906" lon="-118.97041999999999"><ele>3049.7816639728844</ele></trkpt><trkpt lat="37.53907" lon="-118.97064999999998"><ele>3048.0</ele></trkpt><trkpt lat="37.53917" lon="-118.97084000000001"><ele>3045.0</ele></trkpt><trkpt lat="37.53916" lon="-118.97120999999999"><ele>3041.2556906673126</ele></trkpt><trkpt lat="37.53922" lon="-118.97161"><ele>3042.6220309622586</ele></trkpt><trkpt lat="37.53916" lon="-118.97185000000002"><ele>3040.095642996952</ele></trkpt><trkpt lat="37.53895" lon="-118.97219999999999"><ele>3037.0</ele></trkpt><trkpt lat="37.53886" lon="-118.97226999999998"><ele>3037.0</ele></trkpt><trkpt lat="37.53863" lon="-118.97257000000002"><ele>3032.952749904576</ele></trkpt><trkpt lat="37.5385" lon="-118.97267999999997"><ele>3030.076780153288</ele></trkpt><trkpt lat="37.53836" lon="-118.97316999999998"><ele>3026.0</ele></trkpt><trkpt lat="37.53801" lon="-118.97388999999998"><ele>3021.0</ele></trkpt><trkpt lat="37.53789" lon="-118.97402"><ele>3020.0</ele></trkpt><trkpt lat="37.53777" lon="-118.97423000000003"><ele>3017.486510223709</ele></trkpt><trkpt lat="37.5375" lon="-118.97438999999997"><ele>3017.0059858113864</ele></trkpt><trkpt lat="37.53744" lon="-118.97446000000002"><ele>3017.2194095607847</ele></trkpt><trkpt lat="37.53735" lon="-118.97468000000003"><ele>3021.717606609687</ele></trkpt><trkpt lat="37.53732" lon="-118.97483999999997"><ele>3023.869027153589</ele></trkpt><trkpt lat="37.53714" lon="-118.97519"><ele>3028.2257528891787</ele></trkpt><trkpt lat="37.53698" lon="-118.97566"><ele>3033.9721380360425</ele></trkpt><trkpt lat="37.53699" lon="-118.97590000000002"><ele>3037.874003096018</ele></trkpt><trkpt lat="37.53696" lon="-118.97595999999999"><ele>3037.819144153601</ele></trkpt><trkpt lat="37.53694" lon="-118.97608000000002"><ele>3038.887429832219</ele></trkpt><trkpt lat="37.53698" lon="-118.97617000000002"><ele>3040.0</ele></trkpt><trkpt lat="37.5371" lon="-118.97618"><ele>3043.0</ele></trkpt><trkpt lat="37.53712" lon="-118.97626000000002"><ele>3044.018286257819</ele></trkpt><trkpt lat="37.53698" lon="-118.97703000000001"><ele>3052.948106036987</ele></trkpt><trkpt lat="37.53672" lon="-118.97755000000001"><ele>3053.9013274908066</ele></trkpt><trkpt lat="37.53663" lon="-118.9778"><ele>3058.2627683919854</ele></trkpt><trkpt lat="37.53649" lon="-118.97797000000003"><ele>3059.8209306684944</ele></trkpt><trkpt lat="37.53643" lon="-118.97815000000003"><ele>3063.708449978555</ele></trkpt><trkpt lat="37.53631" lon="-118.97836000000001"><ele>3065.5539434892125</ele></trkpt><trkpt lat="37.53628" lon="-118.97845999999998"><ele>3066.515061350838</ele></trkpt><trkpt lat="37.53623" lon="-118.97878000000003"><ele>3068.8938165400177</ele></trkpt><trkpt lat="37.53618" lon="-118.97895"><ele>3070.0</ele></trkpt><trkpt lat="37.5361" lon="-118.97908000000001"><ele>3070.253619229421</ele></trkpt><trkpt lat="37.53608" lon="-118.97919000000002"><ele>3070.667475518208</ele></trkpt><trkpt lat="37.53608" lon="-118.97935999999999"><ele>3071.0</ele></trkpt><trkpt lat="37.53616" lon="-118.97951"><ele>3071.7798624876887</ele></trkpt><trkpt lat="37.53615" lon="-118.97956999999997"><ele>3073.25913026312</ele></trkpt><trkpt lat="37.53589" lon="-118.9801"><ele>3073.960127945058</ele></trkpt><trkpt lat="37.535835225308354" lon="-118.98018573429994"><ele>3073.7364993374795</ele></trkpt><trkpt lat="37.535766666959496" lon="-118.98029304315799"><ele>3073.678525653656</ele></trkpt><trkpt lat="37.53566" lon="-118.98046"><ele>3072.2201424697414</ele></trkpt><trkpt lat="37.53564" lon="-118.98052999999999"><ele>3071.219181837514</ele></trkpt><trkpt lat="37.5357" lon="-118.98086"><ele>3074.3973708790586</ele></trkpt><trkpt lat="37.53569" lon="-118.98104000000001"><ele>3073.0</ele></trkpt><trkpt lat="37.53571" lon="-118.98126000000002"><ele>3071.29704635117</ele></trkpt><trkpt lat="37.53576" lon="-118.98130000000003"><ele>3073.271627690643</ele></trkpt><trkpt lat="37.53577" lon="-118.98144000000002"><ele>3071.0</ele></trkpt><trkpt lat="37.53602" lon="-118.98189000000002"><ele>3072.083581963554</ele></trkpt><trkpt lat="37.53611" lon="-118.98193000000003"><ele>3073.947237942278</ele></trkpt><trkpt lat="37.53611" lon="-118.98193000000003"><ele>3073.947237942278</ele></trkpt><trkpt lat="37.5363" lon="-118.98199"><ele>3076.8722789639146</ele></trkpt><trkpt lat="37.53649" lon="-118.98208999999997"><ele>3079.0</ele></trkpt><trkpt lat="37.53707" lon="-118.98230999999998"><ele>3083.2197637395</ele></trkpt><trkpt lat="37.53771" lon="-118.98246"><ele>3081.9353813324124</ele></trkpt><trkpt lat="37.53788" lon="-118.98246"><ele>3080.0</ele></trkpt><trkpt lat="37.53795" lon="-118.98250000000002"><ele>3082.980757974088</ele></trkpt><trkpt lat="37.53794" lon="-118.98259999999999"><ele>3084.0</ele></trkpt><trkpt lat="37.53797" lon="-118.98268999999999"><ele>3083.789966861846</ele></trkpt><trkpt lat="37.53794" lon="-118.98282"><ele>3084.884388822071</ele></trkpt><trkpt lat="37.53793" lon="-118.98293000000001"><ele>3085.051623198081</ele></trkpt><trkpt lat="37.53799" lon="-118.98318999999998"><ele>3085.3316448181868</ele></trkpt><trkpt lat="37.53798" lon="-118.98345"><ele>3085.0</ele></trkpt><trkpt lat="37.5379" lon="-118.98397999999997"><ele>3086.9115947447717</ele></trkpt><trkpt lat="37.53777" lon="-118.98432000000003"><ele>3087.2871107550536</ele></trkpt><trkpt lat="37.53774" lon="-118.98475000000002"><ele>3090.1570728050374</ele></trkpt><trkpt lat="37.53791" lon="-118.98667"><ele>3098.4834083023025</ele></trkpt><trkpt lat="37.53787" lon="-118.98703999999998"><ele>3096.0</ele></trkpt><trkpt lat="37.53787" lon="-118.98723999999999"><ele>3096.2789880633354</ele></trkpt><trkpt lat="37.53792" lon="-118.98741000000001"><ele>3097.217593666166</ele></trkpt><trkpt lat="37.53811" lon="-118.98764"><ele>3099.7304483680614</ele></trkpt><trkpt lat="37.53826" lon="-118.98777000000001"><ele>3100.503754666075</ele></trkpt><trkpt lat="37.53862" lon="-118.98784999999998"><ele>3104.0</ele></trkpt><trkpt lat="37.53878" lon="-118.98797000000002"><ele>3104.80550620212</ele></trkpt><trkpt lat="37.53889" lon="-118.98810000000003"><ele>3105.0</ele></trkpt><trkpt lat="37.53897" lon="-118.98825999999997"><ele>3104.0</ele></trkpt><trkpt lat="37.53922" lon="-118.98852999999997"><ele>3103.0851875566877</ele></trkpt><trkpt lat="37.53938" lon="-118.98885999999999"><ele>3103.0</ele></trkpt><trkpt lat="37.53951" lon="-118.98892999999998"><ele>3103.0</ele></trkpt><trkpt lat="37.54015" lon="-118.98953"><ele>3100.6276322879235</ele></trkpt><trkpt lat="37.54026" lon="-118.98968000000002"><ele>3100.0</ele></trkpt><trkpt lat="37.54032" lon="-118.98998"><ele>3099.510289777536</ele></trkpt><trkpt lat="37.54041" lon="-118.99002000000002"><ele>3098.646154665388</ele></trkpt><trkpt lat="37.5407" lon="-118.99000000000001"><ele>3096.2271454993706</ele></trkpt><trkpt lat="37.54088" lon="-118.99009000000001"><ele>3095.0</ele></trkpt><trkpt lat="37.54114" lon="-118.99013000000002"><ele>3093.519783109892</ele></trkpt><trkpt lat="37.54128" lon="-118.99008000000003"><ele>3094.849951997865</ele></trkpt><trkpt lat="37.54137" lon="-118.99011999999999"><ele>3093.0</ele></trkpt><trkpt lat="37.54181" lon="-118.99008000000003"><ele>3091.0</ele></trkpt><trkpt lat="37.54192" lon="-118.99018000000001"><ele>3089.1896142214537</ele></trkpt><trkpt lat="37.54209" lon="-118.99022000000002"><ele>3089.0</ele></trkpt><trkpt lat="37.54227" lon="-118.99032"><ele>3088.66514133336</ele></trkpt><trkpt lat="37.54272" lon="-118.99041"><ele>3089.1567448480655</ele></trkpt><trkpt lat="37.54298" lon="-118.99061"><ele>3091.0</ele></trkpt><trkpt lat="37.54317" lon="-118.99090000000001"><ele>3092.0</ele></trkpt><trkpt lat="37.54331" lon="-118.99124999999998"><ele>3093.0</ele></trkpt><trkpt lat="37.5433" lon="-118.99142999999998"><ele>3093.487678146921</ele></trkpt><trkpt lat="37.54322" lon="-118.99158"><ele>3095.0</ele></trkpt><trkpt lat="37.54314" lon="-118.99212999999997"><ele>3093.3259842738935</ele></trkpt><trkpt lat="37.54304" lon="-118.99247000000003"><ele>3092.1412398908287</ele></trkpt><trkpt lat="37.54303" lon="-118.99268000000001"><ele>3093.0</ele></trkpt><trkpt lat="37.54308" lon="-118.99286999999998"><ele>3094.4922872297466</ele></trkpt><trkpt lat="37.54307" lon="-118.99329"><ele>3093.0</ele></trkpt><trkpt lat="37.54302" lon="-118.99383999999998"><ele>3094.0</ele></trkpt><trkpt lat="37.54303" lon="-118.99412000000001"><ele>3094.316758801206</ele></trkpt><trkpt lat="37.54309" lon="-118.99423000000002"><ele>3093.0</ele></trkpt><trkpt lat="37.54324" lon="-118.99430999999998"><ele>3092.717664000578</ele></trkpt><trkpt lat="37.54329" lon="-118.99444"><ele>3092.0</ele></trkpt><trkpt lat="37.54329" lon="-118.99463000000003"><ele>3090.8353064619005</ele></trkpt><trkpt lat="37.54338" lon="-118.99487999999997"><ele>3090.0192453885566</ele></trkpt><trkpt lat="37.54388" lon="-118.99540000000002"><ele>3089.0</ele></trkpt><trkpt lat="37.54404" lon="-118.99552"><ele>3088.0</ele></trkpt><trkpt lat="37.54448" lon="-118.99572999999998"><ele>3086.540867556352</ele></trkpt><trkpt lat="37.54458" lon="-118.99574999999999"><ele>3086.608800000511</ele></trkpt><trkpt lat="37.54458" lon="-118.99574999999999"><ele>3086.608800000511</ele></trkpt><trkpt lat="37.54478" lon="-118.99576000000002"><ele>3086.0838087371967</ele></trkpt><trkpt lat="37.54525" lon="-118.99556000000001"><ele>3085.445601166961</ele></trkpt><trkpt lat="37.54536" lon="-118.99545"><ele>3086.2925056613285</ele></trkpt><trkpt lat="37.54556" lon="-118.99540000000002"><ele>3085.9199822209775</ele></trkpt><trkpt lat="37.54564" lon="-118.99531000000002"><ele>3086.1479957617717</ele></trkpt><trkpt lat="37.54583" lon="-118.99529000000001"><ele>3086.1701526999354</ele></trkpt><trkpt lat="37.5461" lon="-118.99536999999998"><ele>3086.0</ele></trkpt><trkpt lat="37.54658" lon="-118.99563"><ele>3083.158184863782</ele></trkpt><trkpt lat="37.54715" lon="-118.99585000000002"><ele>3081.94846222084</ele></trkpt><trkpt lat="37.54739" lon="-118.99608999999998"><ele>3081.630034751481</ele></trkpt><trkpt lat="37.54765" lon="-118.99622"><ele>3081.0</ele></trkpt><trkpt lat="37.54782" lon="-118.99626999999998"><ele>3081.0</ele></trkpt><trkpt lat="37.54795" lon="-118.99633"><ele>3081.0</ele></trkpt><trkpt lat="37.54884" lon="-118.99720000000002"><ele>3081.0339022213593</ele></trkpt><trkpt lat="37.54901" lon="-118.99752000000001"><ele>3080.0</ele></trkpt><trkpt lat="37.54913" lon="-118.99761999999998"><ele>3079.1027225572616</ele></trkpt><trkpt lat="37.54937" lon="-118.99814000000003"><ele>3078.047653048904</ele></trkpt><trkpt lat="37.54961" lon="-118.99850000000004"><ele>3078.0</ele></trkpt><trkpt lat="37.54965" lon="-118.99878000000001"><ele>3076.6689334101975</ele></trkpt><trkpt lat="37.54963" lon="-118.99923000000001"><ele>3077.0</ele></trkpt><trkpt lat="37.54936" lon="-118.99973999999997"><ele>3078.210781406073</ele></trkpt><trkpt lat="37.54885" lon="-119.00033000000002"><ele>3074.941156150313</ele></trkpt><trkpt lat="37.54872" lon="-119.00051000000002"><ele>3075.0005785747912</ele></trkpt><trkpt lat="37.54808" lon="-119.00180999999998"><ele>3071.3094497117054</ele></trkpt><trkpt lat="37.54777" lon="-119.00218000000001"><ele>3069.0082149377486</ele></trkpt><trkpt lat="37.5475" lon="-119.00259"><ele>3071.449093592819</ele></trkpt><trkpt lat="37.54734" lon="-119.00272000000001"><ele>3069.98884351179</ele></trkpt><trkpt lat="37.54704" lon="-119.00306"><ele>3066.3141098059714</ele></trkpt><trkpt lat="37.54677" lon="-119.00362999999999"><ele>3065.381830174476</ele></trkpt><trkpt lat="37.54668" lon="-119.00391000000002"><ele>3062.704591350972</ele></trkpt><trkpt lat="37.54668" lon="-119.00391000000002"><ele>3062.704591350972</ele></trkpt><trkpt lat="37.54666" lon="-119.00421"><ele>3061.9161329921335</ele></trkpt><trkpt lat="37.5467" lon="-119.00445000000002"><ele>3063.267294500023</ele></trkpt><trkpt lat="37.54667" lon="-119.00479000000001"><ele>3063.5039232503623</ele></trkpt><trkpt lat="37.54671" lon="-119.00540999999998"><ele>3061.8550850711763</ele></trkpt><trkpt lat="37.54691" lon="-119.00590999999997"><ele>3056.729394891765</ele></trkpt><trkpt lat="37.54698" lon="-119.00605000000002"><ele>3053.8885393530363</ele></trkpt><trkpt lat="37.54716" lon="-119.00628"><ele>3050.9133788815207</ele></trkpt><trkpt lat="37.54737" lon="-119.00641999999999"><ele>3047.772400361845</ele></trkpt><trkpt lat="37.54769" lon="-119.00655"><ele>3045.292319999542</ele></trkpt><trkpt lat="37.54783" lon="-119.00664"><ele>3045.098015999887</ele></trkpt><trkpt lat="37.54795" lon="-119.00677000000002"><ele>3044.7519489905553</ele></trkpt><trkpt lat="37.54824" lon="-119.00722000000002"><ele>3041.856028758455</ele></trkpt><trkpt lat="37.5484" lon="-119.00760000000002"><ele>3039.5515981484205</ele></trkpt><trkpt lat="37.54846" lon="-119.00788"><ele>3037.719649877399</ele></trkpt><trkpt lat="37.54862" lon="-119.00824999999998"><ele>3036.0082909695093</ele></trkpt><trkpt lat="37.54862" lon="-119.00835999999998"><ele>3034.1245305817574</ele></trkpt><trkpt lat="37.54875" lon="-119.00871999999998"><ele>3034.766011018306</ele></trkpt><trkpt lat="37.54877" lon="-119.00882999999999"><ele>3033.9437622046466</ele></trkpt><trkpt lat="37.54867" lon="-119.00927999999999"><ele>3031.0635599419475</ele></trkpt><trkpt lat="37.54838" lon="-119.01022999999998"><ele>3028.017217097804</ele></trkpt><trkpt lat="37.5483" lon="-119.01078000000001"><ele>3026.0</ele></trkpt><trkpt lat="37.54831" lon="-119.01089999999999"><ele>3025.5123356011304</ele></trkpt><trkpt lat="37.54862" lon="-119.01168000000001"><ele>3023.1245305817574</ele></trkpt><trkpt lat="37.54913820971344" lon="-119.01334690791157"><ele>3012.1187503770925</ele></trkpt><trkpt lat="37.54916171946765" lon="-119.01342253027303"><ele>3011.008894008093</ele></trkpt><trkpt lat="37.54922" lon="-119.01360999999997"><ele>3010.107085394178</ele></trkpt><trkpt lat="37.54959" lon="-119.01440000000002"><ele>3007.0</ele></trkpt><trkpt lat="37.54973" lon="-119.01479999999998"><ele>3004.3025256896735</ele></trkpt><trkpt lat="37.54991" lon="-119.01504"><ele>3002.0</ele></trkpt><trkpt lat="37.55006" lon="-119.01531999999997"><ele>3000.90329419412</ele></trkpt><trkpt lat="37.55039" lon="-119.01582000000002"><ele>2996.3996806942305</ele></trkpt><trkpt lat="37.55043" lon="-119.01594999999998"><ele>2995.6248204699405</ele></trkpt><trkpt lat="37.55077" lon="-119.01648"><ele>2991.0</ele></trkpt><trkpt lat="37.55116" lon="-119.01738"><ele>2979.0</ele></trkpt><trkpt lat="37.55125" lon="-119.01767000000001"><ele>2976.062759110704</ele></trkpt><trkpt lat="37.55127" lon="-119.01785000000001"><ele>2974.966047685612</ele></trkpt><trkpt lat="37.55135" lon="-119.01805000000002"><ele>2974.0</ele></trkpt><trkpt lat="37.55159" lon="-119.01909"><ele>2964.9665065792638</ele></trkpt><trkpt lat="37.55157" lon="-119.01938999999999"><ele>2960.4801988881936</ele></trkpt><trkpt lat="37.55162" lon="-119.01959"><ele>2958.274481245182</ele></trkpt><trkpt lat="37.55162" lon="-119.02012000000002"><ele>2952.0</ele></trkpt><trkpt lat="37.55159" lon="-119.02037999999999"><ele>2949.706294249743</ele></trkpt><trkpt lat="37.55159" lon="-119.02049999999997"><ele>2948.706294249743</ele></trkpt><trkpt lat="37.55169" lon="-119.02087"><ele>2944.5448080106416</ele></trkpt><trkpt lat="37.55165" lon="-119.02129000000002"><ele>2940.0</ele></trkpt><trkpt lat="37.55159" lon="-119.02169000000004"><ele>2937.0</ele></trkpt><trkpt lat="37.55161" lon="-119.02201000000002"><ele>2933.9768744629173</ele></trkpt><trkpt lat="37.55166" lon="-119.02233999999999"><ele>2929.8971297208677</ele></trkpt><trkpt lat="37.55166" lon="-119.02265999999997"><ele>2926.912679561414</ele></trkpt><trkpt lat="37.55171" lon="-119.02300000000002"><ele>2924.0</ele></trkpt><trkpt lat="37.5516" lon="-119.02348999999998"><ele>2919.0</ele></trkpt><trkpt lat="37.55158" lon="-119.02381000000003"><ele>2916.927731383425</ele></trkpt><trkpt lat="37.55162" lon="-119.02413000000001"><ele>2914.0</ele></trkpt><trkpt lat="37.5516" lon="-119.02422999999999"><ele>2913.0</ele></trkpt><trkpt lat="37.55157" lon="-119.02476000000001"><ele>2909.342159890548</ele></trkpt><trkpt lat="37.55151" lon="-119.02495999999996"><ele>2906.0036639906466</ele></trkpt><trkpt lat="37.55146" lon="-119.02530999999999"><ele>2903.0645226426423</ele></trkpt><trkpt lat="37.55147" lon="-119.02549999999997"><ele>2901.6523507535458</ele></trkpt><trkpt lat="37.55144" lon="-119.02588000000003"><ele>2898.938768589379</ele></trkpt><trkpt lat="37.55144" lon="-119.02588000000003"><ele>2898.938768589379</ele></trkpt><trkpt lat="37.55138" lon="-119.02616999999998"><ele>2896.3380325174985</ele></trkpt><trkpt lat="37.5514" lon="-119.02642000000003"><ele>2895.537555627525</ele></trkpt><trkpt lat="37.55135" lon="-119.02669000000003"><ele>2893.0</ele></trkpt><trkpt lat="37.55135" lon="-119.02702"><ele>2892.5984186157584</ele></trkpt><trkpt lat="37.5513" lon="-119.02711"><ele>2891.702511253587</ele></trkpt><trkpt lat="37.5513" lon="-119.02729"><ele>2890.659283576533</ele></trkpt><trkpt lat="37.55122" lon="-119.02764000000002"><ele>2886.9566716160625</ele></trkpt><trkpt lat="37.55121" lon="-119.02787999999998"><ele>2883.0893609316818</ele></trkpt><trkpt lat="37.5513" lon="-119.02818000000002"><ele>2881.1722435470656</ele></trkpt><trkpt lat="37.55134" lon="-119.02841999999998"><ele>2879.0</ele></trkpt><trkpt lat="37.5515" lon="-119.02891999999997"><ele>2873.0</ele></trkpt><trkpt lat="37.55177" lon="-119.02940000000001"><ele>2868.0</ele></trkpt><trkpt lat="37.55191" lon="-119.02971000000002"><ele>2864.49520426554</ele></trkpt><trkpt lat="37.55234" lon="-119.03050999999999"><ele>2856.6753884446807</ele></trkpt><trkpt lat="37.55245" lon="-119.03098999999997"><ele>2853.0</ele></trkpt><trkpt lat="37.55255" lon="-119.03113000000002"><ele>2850.673279441601</ele></trkpt><trkpt lat="37.55284" lon="-119.03111999999999"><ele>2846.8603434568795</ele></trkpt><trkpt lat="37.553" lon="-119.03102999999999"><ele>2846.0</ele></trkpt><trkpt lat="37.55313" lon="-119.03102000000001"><ele>2844.9076657765545</ele></trkpt><trkpt lat="37.5534" lon="-119.03091999999998"><ele>2841.9547902943177</ele></trkpt><trkpt lat="37.55355" lon="-119.03089999999997"><ele>2839.538909365506</ele></trkpt><trkpt lat="37.55392" lon="-119.03073999999998"><ele>2833.0</ele></trkpt><trkpt lat="37.55404" lon="-119.03073"><ele>2830.580384141289</ele></trkpt><trkpt lat="37.55414" lon="-119.03075999999999"><ele>2829.0</ele></trkpt><trkpt lat="37.55428" lon="-119.03089"><ele>2827.0</ele></trkpt><trkpt lat="37.55442" lon="-119.03095000000002"><ele>2825.945971045564</ele></trkpt><trkpt lat="37.55459" lon="-119.03097000000002"><ele>2825.0</ele></trkpt><trkpt lat="37.55477" lon="-119.03084999999999"><ele>2822.0</ele></trkpt><trkpt lat="37.55482" lon="-119.03086000000002"><ele>2821.6317435608926</ele></trkpt><trkpt lat="37.55494" lon="-119.031"><ele>2820.0</ele></trkpt><trkpt lat="37.55505" lon="-119.03104000000002"><ele>2818.9975626658224</ele></trkpt><trkpt lat="37.55533" lon="-119.03107999999997"><ele>2821.9509443369393</ele></trkpt><trkpt lat="37.55556" lon="-119.03098"><ele>2821.0</ele></trkpt><trkpt lat="37.55567" lon="-119.031"><ele>2820.0</ele></trkpt><trkpt lat="37.55581" lon="-119.03096"><ele>2819.452955627919</ele></trkpt><trkpt lat="37.55597" lon="-119.03089999999997"><ele>2817.0</ele></trkpt><trkpt lat="37.55612" lon="-119.0308"><ele>2818.0</ele></trkpt><trkpt lat="37.55635" lon="-119.03084000000001"><ele>2822.0</ele></trkpt><trkpt lat="37.55657" lon="-119.03095000000002"><ele>2824.0</ele></trkpt><trkpt lat="37.55667" lon="-119.03106000000002"><ele>2823.956469334662</ele></trkpt><trkpt lat="37.55675" lon="-119.03111000000001"><ele>2825.0</ele></trkpt><trkpt lat="37.55693" lon="-119.03111000000001"><ele>2825.727694695488</ele></trkpt><trkpt lat="37.55703" lon="-119.03114"><ele>2827.0</ele></trkpt><trkpt lat="37.55714" lon="-119.03133000000003"><ele>2826.0364081561565</ele></trkpt><trkpt lat="37.55717" lon="-119.0315"><ele>2826.272789172828</ele></trkpt><trkpt lat="37.55768" lon="-119.03221000000002"><ele>2821.6098859885356</ele></trkpt><trkpt lat="37.55778" lon="-119.03226999999998"><ele>2820.0</ele></trkpt><trkpt lat="37.55799" lon="-119.03232000000003"><ele>2819.0</ele></trkpt><trkpt lat="37.55818" lon="-119.03241000000003"><ele>2818.0</ele></trkpt><trkpt lat="37.55831" lon="-119.03253999999998"><ele>2817.0</ele></trkpt><trkpt lat="37.55858" lon="-119.03264999999999"><ele>2817.0</ele></trkpt><trkpt lat="37.55864" lon="-119.03274999999996"><ele>2816.14541102387</ele></trkpt><trkpt lat="37.55872" lon="-119.03304000000003"><ele>2815.347643731746</ele></trkpt><trkpt lat="37.55875" lon="-119.03307999999998"><ele>2815.0</ele></trkpt><trkpt lat="37.55934" lon="-119.03364999999997"><ele>2811.0</ele></trkpt><trkpt lat="37.55957" lon="-119.03393"><ele>2808.0</ele></trkpt><trkpt lat="37.55996" lon="-119.03404"><ele>2804.0</ele></trkpt><trkpt lat="37.56018" lon="-119.03422"><ele>2801.0</ele></trkpt><trkpt lat="37.56034" lon="-119.03422999999998"><ele>2800.0</ele></trkpt><trkpt lat="37.56044" lon="-119.03417999999999"><ele>2799.0</ele></trkpt><trkpt lat="37.56051" lon="-119.03406999999999"><ele>2797.0</ele></trkpt><trkpt lat="37.56069" lon="-119.03404999999998"><ele>2794.800592122895</ele></trkpt><trkpt lat="37.56087" lon="-119.03394000000003"><ele>2794.0</ele></trkpt><trkpt lat="37.56137" lon="-119.03385000000003"><ele>2787.0</ele></trkpt><trkpt lat="37.56163" lon="-119.03372000000002"><ele>2785.0</ele></trkpt><trkpt lat="37.562" lon="-119.03370000000001"><ele>2782.0</ele></trkpt><trkpt lat="37.562" lon="-119.03370000000001"><ele>2782.0</ele></trkpt><trkpt lat="37.5624" lon="-119.03368"><ele>2779.0</ele></trkpt><trkpt lat="37.56297" lon="-119.03385000000003"><ele>2772.0</ele></trkpt><trkpt lat="37.56308" lon="-119.03377"><ele>2771.0</ele></trkpt><trkpt lat="37.56319" lon="-119.03376000000003"><ele>2770.4963409964116</ele></trkpt><trkpt lat="37.5633" lon="-119.03370999999999"><ele>2769.544579556212</ele></trkpt><trkpt lat="37.56359" lon="-119.03368999999998"><ele>2769.0</ele></trkpt><trkpt lat="37.56371" lon="-119.03408999999999"><ele>2770.0</ele></trkpt><trkpt lat="37.56415" lon="-119.03502000000003"><ele>2772.0404540598306</ele></trkpt><trkpt lat="37.5641754795055" lon="-119.03522893194508"><ele>2773.0</ele></trkpt><trkpt lat="37.5641754795055" lon="-119.03522893194508"><ele>2773.0</ele></trkpt><trkpt lat="37.5642" lon="-119.03543000000002"><ele>2774.0</ele></trkpt><trkpt lat="37.56409" lon="-119.03625"><ele>2776.0</ele></trkpt><trkpt lat="37.56394" lon="-119.03663"><ele>2775.0</ele></trkpt><trkpt lat="37.56386" lon="-119.03697"><ele>2776.0319808274508</ele></trkpt><trkpt lat="37.5638" lon="-119.03732000000002"><ele>2776.6562634053325</ele></trkpt><trkpt lat="37.56366" lon="-119.03760999999997"><ele>2777.2734785657376</ele></trkpt><trkpt lat="37.56359" lon="-119.03798999999998"><ele>2778.1580102331936</ele></trkpt><trkpt lat="37.56357" lon="-119.03818999999999"><ele>2778.0</ele></trkpt><trkpt lat="37.56363" lon="-119.03840000000002"><ele>2779.987614082318</ele></trkpt><trkpt lat="37.56375" lon="-119.03852"><ele>2781.215941623369</ele></trkpt><trkpt lat="37.56379" lon="-119.03859999999997"><ele>2780.9711146957543</ele></trkpt><trkpt lat="37.56443" lon="-119.03915"><ele>2790.0222044438124</ele></trkpt><trkpt lat="37.56515" lon="-119.03926000000001"><ele>2797.0</ele></trkpt><trkpt lat="37.56547" lon="-119.03926999999999"><ele>2798.0</ele></trkpt><trkpt lat="37.56562" lon="-119.03924999999998"><ele>2798.0</ele></trkpt><trkpt lat="37.56591" lon="-119.03912000000003"><ele>2796.4203057768755</ele></trkpt><trkpt lat="37.56607" lon="-119.03913"><ele>2798.0</ele></trkpt><trkpt lat="37.5664" lon="-119.03926000000001"><ele>2797.0</ele></trkpt><trkpt lat="37.56664" lon="-119.03942"><ele>2796.439292443916</ele></trkpt><trkpt lat="37.56694" lon="-119.03971000000001"><ele>2795.0</ele></trkpt><trkpt lat="37.56698" lon="-119.03983"><ele>2794.6450449463564</ele></trkpt><trkpt lat="37.56723" lon="-119.04000000000002"><ele>2795.0</ele></trkpt><trkpt lat="37.56866" lon="-119.04052000000001"><ele>2793.0</ele></trkpt><trkpt lat="37.56911" lon="-119.04046"><ele>2793.0282204449177</ele></trkpt><trkpt lat="37.56949" lon="-119.04025999999999"><ele>2794.0330935909287</ele></trkpt><trkpt lat="37.56965" lon="-119.04023000000001"><ele>2795.0</ele></trkpt><trkpt lat="37.56992" lon="-119.04011000000003"><ele>2796.0</ele></trkpt><trkpt lat="37.57051" lon="-119.03976"><ele>2796.4178326113106</ele></trkpt><trkpt lat="37.57078" lon="-119.03964000000002"><ele>2796.7285289595297</ele></trkpt><trkpt lat="37.5711" lon="-119.03955000000002"><ele>2795.8899411184047</ele></trkpt><trkpt lat="37.57129" lon="-119.03953999999999"><ele>2796.0179582278647</ele></trkpt><trkpt lat="37.57147" lon="-119.03957000000003"><ele>2796.0</ele></trkpt><trkpt lat="37.57174" lon="-119.03956"><ele>2797.3981376381143</ele></trkpt><trkpt lat="37.57213" lon="-119.03962999999999"><ele>2799.2523312374506</ele></trkpt><trkpt lat="37.57225" lon="-119.03969999999998"><ele>2800.0</ele></trkpt><trkpt lat="37.57258" lon="-119.03994"><ele>2800.794464000035</ele></trkpt><trkpt lat="37.57306" lon="-119.04021"><ele>2800.016146195978</ele></trkpt><trkpt lat="37.57319" lon="-119.04034000000001"><ele>2800.0</ele></trkpt><trkpt lat="37.5733" lon="-119.04050999999998"><ele>2800.0</ele></trkpt><trkpt lat="37.57374" lon="-119.04137000000003"><ele>2800.0</ele></trkpt><trkpt lat="37.57385" lon="-119.04178000000002"><ele>2798.321717780393</ele></trkpt><trkpt lat="37.57399" lon="-119.04196999999999"><ele>2796.0</ele></trkpt><trkpt lat="37.57411223739557" lon="-119.04232856302701"><ele>2795.0</ele></trkpt><trkpt lat="37.57412917055131" lon="-119.04237823358744"><ele>2794.1008842986894</ele></trkpt><trkpt lat="37.57414" lon="-119.04241000000002"><ele>2794.0</ele></trkpt><trkpt lat="37.57416" lon="-119.04260999999997"><ele>2793.8562480495257</ele></trkpt><trkpt lat="37.57434" lon="-119.04284000000001"><ele>2795.0</ele></trkpt><trkpt lat="37.57438" lon="-119.04323999999997"><ele>2793.0</ele></trkpt><trkpt lat="37.57456" lon="-119.04389000000003"><ele>2790.122193776071</ele></trkpt><trkpt lat="37.57491" lon="-119.04428000000001"><ele>2787.0</ele></trkpt><trkpt lat="37.57505" lon="-119.04437999999999"><ele>2786.0</ele></trkpt><trkpt lat="37.57537" lon="-119.04448000000002"><ele>2786.0</ele></trkpt><trkpt lat="37.57551" lon="-119.04462999999998"><ele>2785.6426971954393</ele></trkpt><trkpt lat="37.57564" lon="-119.04469"><ele>2786.0</ele></trkpt><trkpt lat="37.57603" lon="-119.04503"><ele>2785.0</ele></trkpt><trkpt lat="37.57662" lon="-119.04530999999997"><ele>2782.0</ele></trkpt><trkpt lat="37.57689" lon="-119.04552999999999"><ele>2779.0</ele></trkpt><trkpt lat="37.5772" lon="-119.04568"><ele>2777.0</ele></trkpt><trkpt lat="37.57745" lon="-119.04568"><ele>2775.0</ele></trkpt><trkpt lat="37.57775" lon="-119.04563999999999"><ele>2774.0</ele></trkpt><trkpt lat="37.57801" lon="-119.04570999999999"><ele>2773.0</ele></trkpt><trkpt lat="37.57813" lon="-119.04570000000001"><ele>2773.0</ele></trkpt><trkpt lat="37.57841" lon="-119.04557999999997"><ele>2773.0</ele></trkpt><trkpt lat="37.57857" lon="-119.04557999999997"><ele>2772.0</ele></trkpt><trkpt lat="37.57877" lon="-119.04550999999998"><ele>2771.0</ele></trkpt><trkpt lat="37.57888" lon="-119.04550999999998"><ele>2772.0</ele></trkpt><trkpt lat="37.57896" lon="-119.04548"><ele>2770.1074039982177</ele></trkpt><trkpt lat="37.57901" lon="-119.04552000000001"><ele>2769.142758853119</ele></trkpt><trkpt lat="37.57907" lon="-119.04563999999999"><ele>2767.6414115019143</ele></trkpt><trkpt lat="37.5792" lon="-119.04575999999997"><ele>2766.0</ele></trkpt><trkpt lat="37.5794" lon="-119.04610000000002"><ele>2763.0</ele></trkpt><trkpt lat="37.57941" lon="-119.04615000000001"><ele>2763.070946681968</ele></trkpt><trkpt lat="37.57941" lon="-119.04615000000001"><ele>2763.070946681968</ele></trkpt><trkpt lat="37.57945" lon="-119.04645"><ele>2764.0</ele></trkpt><trkpt lat="37.57966" lon="-119.04701"><ele>2761.038457640539</ele></trkpt><trkpt lat="37.5798" lon="-119.04719999999998"><ele>2758.8650133349</ele></trkpt><trkpt lat="37.57999" lon="-119.04739000000001"><ele>2756.5456089073377</ele></trkpt><trkpt lat="37.58024" lon="-119.04748999999998"><ele>2755.0</ele></trkpt><trkpt lat="37.58038" lon="-119.04759999999999"><ele>2754.0</ele></trkpt><trkpt lat="37.58059" lon="-119.04768999999999"><ele>2753.021798197385</ele></trkpt><trkpt lat="37.58082" lon="-119.04784999999998"><ele>2750.0</ele></trkpt><trkpt lat="37.58082" lon="-119.04784999999998"><ele>2750.0</ele></trkpt><trkpt lat="37.58091" lon="-119.04788000000002"><ele>2748.174716443289</ele></trkpt><trkpt lat="37.58107" lon="-119.04804000000001"><ele>2746.0</ele></trkpt><trkpt lat="37.5813" lon="-119.04813999999999"><ele>2743.0578382224776</ele></trkpt><trkpt lat="37.58142" lon="-119.04815000000002"><ele>2742.0</ele></trkpt><trkpt lat="37.58145" lon="-119.04818999999998"><ele>2740.914006283016</ele></trkpt><trkpt lat="37.58146" lon="-119.04836999999998"><ele>2739.0</ele></trkpt><trkpt lat="37.5815" lon="-119.04840000000002"><ele>2738.0</ele></trkpt><trkpt lat="37.5817" lon="-119.04829000000001"><ele>2736.0</ele></trkpt><trkpt lat="37.58177" lon="-119.04829000000001"><ele>2734.0</ele></trkpt><trkpt lat="37.58176" lon="-119.04844000000003"><ele>2732.034892659489</ele></trkpt><trkpt lat="37.58156" lon="-119.0487"><ele>2729.2068811096406</ele></trkpt><trkpt lat="37.5816" lon="-119.04874999999998"><ele>2729.0</ele></trkpt><trkpt lat="37.58184" lon="-119.04872999999998"><ele>2727.7496439516544</ele></trkpt><trkpt lat="37.58189" lon="-119.04876999999999"><ele>2727.0</ele></trkpt><trkpt lat="37.58188" lon="-119.0489"><ele>2725.0</ele></trkpt><trkpt lat="37.58239" lon="-119.04924"><ele>2718.122333945542</ele></trkpt><trkpt lat="37.58239" lon="-119.04924"><ele>2718.122333945542</ele></trkpt><trkpt lat="37.58242" lon="-119.04928000000001"><ele>2719.0700124446303</ele></trkpt><trkpt lat="37.58242" lon="-119.04928000000001"><ele>2719.0700124446303</ele></trkpt><trkpt lat="37.58255" lon="-119.04942"><ele>2720.0</ele></trkpt><trkpt lat="37.58273" lon="-119.04943000000003"><ele>2721.060519112274</ele></trkpt><trkpt lat="37.58285" lon="-119.04953999999998"><ele>2722.475046031237</ele></trkpt><trkpt lat="37.58302" lon="-119.04944999999998"><ele>2723.63814757797</ele></trkpt><trkpt lat="37.58326" lon="-119.04937999999999"><ele>2722.0</ele></trkpt><trkpt lat="37.58349" lon="-119.04948000000002"><ele>2722.0</ele></trkpt><trkpt lat="37.58363" lon="-119.04949999999997"><ele>2720.6506984096222</ele></trkpt><trkpt lat="37.58383" lon="-119.04964999999999"><ele>2721.313262221869</ele></trkpt><trkpt lat="37.58444" lon="-119.04989999999998"><ele>2716.84932984598</ele></trkpt><trkpt lat="37.58463" lon="-119.05005"><ele>2714.69035777311</ele></trkpt><trkpt lat="37.58498" lon="-119.05051000000003"><ele>2713.0</ele></trkpt><trkpt lat="37.58523" lon="-119.05075999999997"><ele>2712.0</ele></trkpt><trkpt lat="37.58529" lon="-119.05101000000002"><ele>2713.9576083615048</ele></trkpt><trkpt lat="37.58566" lon="-119.05126999999999"><ele>2711.830031199582</ele></trkpt><trkpt lat="37.58595" lon="-119.05141000000003"><ele>2707.0</ele></trkpt><trkpt lat="37.58603" lon="-119.05142000000001"><ele>2708.0</ele></trkpt><trkpt lat="37.58603" lon="-119.05142000000001"><ele>2708.0</ele></trkpt><trkpt lat="37.58608" lon="-119.05144999999999"><ele>2708.0</ele></trkpt><trkpt lat="37.58608" lon="-119.05144999999999"><ele>2708.0</ele></trkpt><trkpt lat="37.58619" lon="-119.05147999999997"><ele>2710.0</ele></trkpt><trkpt lat="37.58629" lon="-119.05162999999999"><ele>2710.948376202956</ele></trkpt><trkpt lat="37.58629" lon="-119.05162999999999"><ele>2710.948376202956</ele></trkpt><trkpt lat="37.58646" lon="-119.05219"><ele>2707.2972373140956</ele></trkpt><trkpt lat="37.58673" lon="-119.05257"><ele>2705.0</ele></trkpt><trkpt lat="37.58691" lon="-119.05277000000001"><ele>2704.116781697262</ele></trkpt><trkpt lat="37.58691" lon="-119.05288999999999"><ele>2701.8184403590544</ele></trkpt><trkpt lat="37.58706" lon="-119.05340000000001"><ele>2700.0</ele></trkpt><trkpt lat="37.58708" lon="-119.05362000000002"><ele>2698.274412729136</ele></trkpt><trkpt lat="37.58715" lon="-119.05371000000002"><ele>2698.002551777754</ele></trkpt><trkpt lat="37.58718" lon="-119.05381999999997"><ele>2697.2898575663567</ele></trkpt><trkpt lat="37.58718" lon="-119.05396999999999"><ele>2694.6500033442862</ele></trkpt><trkpt lat="37.58721" lon="-119.0541"><ele>2694.0163489010665</ele></trkpt><trkpt lat="37.58738" lon="-119.05448000000001"><ele>2690.6444974406622</ele></trkpt><trkpt lat="37.58762" lon="-119.05493999999999"><ele>2684.0258285136306</ele></trkpt><trkpt lat="37.58772" lon="-119.05509"><ele>2682.0</ele></trkpt><trkpt lat="37.58824" lon="-119.05531000000002"><ele>2684.425710174869</ele></trkpt><trkpt lat="37.58839" lon="-119.05538999999999"><ele>2682.44772726649</ele></trkpt><trkpt lat="37.58846" lon="-119.05545999999998"><ele>2682.0</ele></trkpt><trkpt lat="37.58853" lon="-119.05558000000002"><ele>2679.5398732984363</ele></trkpt><trkpt lat="37.58855" lon="-119.05578000000003"><ele>2678.0011110210835</ele></trkpt><trkpt lat="37.58861" lon="-119.05597"><ele>2676.0</ele></trkpt><trkpt lat="37.58865" lon="-119.05606999999998"><ele>2674.623394581389</ele></trkpt><trkpt lat="37.5887" lon="-119.05610000000001"><ele>2673.0</ele></trkpt><trkpt lat="37.58875" lon="-119.05606999999998"><ele>2671.3758910987526</ele></trkpt><trkpt lat="37.58888" lon="-119.05533000000003"><ele>2665.0</ele></trkpt><trkpt lat="37.58896" lon="-119.05516"><ele>2662.0253021586686</ele></trkpt><trkpt lat="37.58901" lon="-119.05518999999998"><ele>2660.0846806075424</ele></trkpt><trkpt lat="37.58904" lon="-119.05549000000002"><ele>2657.3203067295253</ele></trkpt><trkpt lat="37.5891" lon="-119.05563000000001"><ele>2654.7915568389</ele></trkpt><trkpt lat="37.58912" lon="-119.05583999999999"><ele>2653.6153062433004</ele></trkpt><trkpt lat="37.58932" lon="-119.05635000000001"><ele>2648.4740563309433</ele></trkpt><trkpt lat="37.58975" lon="-119.05673999999999"><ele>2641.4118549128075</ele></trkpt><trkpt lat="37.58991" lon="-119.05685"><ele>2638.1313429148754</ele></trkpt><trkpt lat="37.58997" lon="-119.05700000000002"><ele>2637.62436375767</ele></trkpt><trkpt lat="37.59008" lon="-119.05716000000001"><ele>2636.0471888959783</ele></trkpt><trkpt lat="37.59057" lon="-119.05804999999998"><ele>2635.0</ele></trkpt><trkpt lat="37.59063" lon="-119.05822"><ele>2634.9430525370126</ele></trkpt><trkpt lat="37.5907" lon="-119.05827"><ele>2634.6905103791505</ele></trkpt><trkpt lat="37.59087" lon="-119.05822999999998"><ele>2634.0</ele></trkpt><trkpt lat="37.59096" lon="-119.05824999999999"><ele>2633.9385007145747</ele></trkpt><trkpt lat="37.59109467681008" lon="-119.05843429458218"><ele>2636.1612625905773</ele></trkpt><trkpt lat="37.59109467681008" lon="-119.05843429458218"><ele>2636.1612625905773</ele></trkpt><trkpt lat="37.59115" lon="-119.05851000000001"><ele>2636.950851927466</ele></trkpt><trkpt lat="37.59177" lon="-119.05867999999998"><ele>2638.858236445114</ele></trkpt><trkpt lat="37.592" lon="-119.05863999999997"><ele>2638.722371557262</ele></trkpt><trkpt lat="37.59208" lon="-119.05858"><ele>2638.0453071394004</ele></trkpt><trkpt lat="37.5922" lon="-119.05840999999998"><ele>2639.2068730413184</ele></trkpt><trkpt lat="37.59245" lon="-119.05831"><ele>2639.101486222353</ele></trkpt><trkpt lat="37.59278" lon="-119.0584"><ele>2635.907182221301</ele></trkpt><trkpt lat="37.59343" lon="-119.05847"><ele>2633.6449457779527</ele></trkpt><trkpt lat="37.59373" lon="-119.05857000000003"><ele>2628.9846079982817</ele></trkpt><trkpt lat="37.59393" lon="-119.05860000000001"><ele>2629.58650666615</ele></trkpt><trkpt lat="37.59404" lon="-119.05867"><ele>2629.3242702218704</ele></trkpt><trkpt lat="37.59449" lon="-119.05921000000001"><ele>2626.1584462211467</ele></trkpt><trkpt lat="37.59474" lon="-119.05941999999999"><ele>2624.0</ele></trkpt><trkpt lat="37.59484" lon="-119.05946"><ele>2623.0</ele></trkpt><trkpt lat="37.59514" lon="-119.05974000000003"><ele>2619.4586559985764</ele></trkpt><trkpt lat="37.59553" lon="-119.05989"><ele>2615.675196407345</ele></trkpt><trkpt lat="37.59571" lon="-119.06009"><ele>2613.1474737776443</ele></trkpt><trkpt lat="37.59682" lon="-119.06016999999997"><ele>2604.4192035566084</ele></trkpt><trkpt lat="37.59682" lon="-119.06016999999997"><ele>2604.4192035566084</ele></trkpt><trkpt lat="37.59697" lon="-119.06018"><ele>2603.869801604165</ele></trkpt><trkpt lat="37.59711" lon="-119.06024000000002"><ele>2601.0505584369585</ele></trkpt><trkpt lat="37.59728" lon="-119.06036"><ele>2598.0</ele></trkpt><trkpt lat="37.5974" lon="-119.06040999999999"><ele>2597.2343928893097</ele></trkpt><trkpt lat="37.59755" lon="-119.06043"><ele>2596.3023253339343</ele></trkpt><trkpt lat="37.59769" lon="-119.06049000000002"><ele>2594.5061226659454</ele></trkpt><trkpt lat="37.59805" lon="-119.06052999999997"><ele>2590.780836847016</ele></trkpt><trkpt lat="37.59873" lon="-119.06076000000002"><ele>2586.9232106655836</ele></trkpt><trkpt lat="37.59878" lon="-119.06083000000001"><ele>2584.660974221304</ele></trkpt><trkpt lat="37.59873" lon="-119.06087000000002"><ele>2583.0</ele></trkpt><trkpt lat="37.59852" lon="-119.06088"><ele>2581.0851703069166</ele></trkpt><trkpt lat="37.59772" lon="-119.06103000000002"><ele>2574.3402986656874</ele></trkpt><trkpt lat="37.59756" lon="-119.06112000000002"><ele>2573.0</ele></trkpt><trkpt lat="37.59709" lon="-119.06119999999999"><ele>2571.9151514777973</ele></trkpt><trkpt lat="37.59682" lon="-119.06128999999999"><ele>2570.223420444876</ele></trkpt><trkpt lat="37.59682" lon="-119.06128999999999"><ele>2570.223420444876</ele></trkpt><trkpt lat="37.5965" lon="-119.06141000000002"><ele>2567.6310151098296</ele></trkpt><trkpt lat="37.59637" lon="-119.06151"><ele>2566.0</ele></trkpt><trkpt lat="37.59588" lon="-119.0616"><ele>2562.0</ele></trkpt><trkpt lat="37.59574" lon="-119.0616"><ele>2561.0</ele></trkpt><trkpt lat="37.59546" lon="-119.06151999999997"><ele>2556.2720651961863</ele></trkpt><trkpt lat="37.59533" lon="-119.06155999999999"><ele>2555.4008241674974</ele></trkpt><trkpt lat="37.59518" lon="-119.06153999999998"><ele>2555.0</ele></trkpt><trkpt lat="37.59507" lon="-119.06148999999999"><ele>2554.0</ele></trkpt><trkpt lat="37.59475" lon="-119.06151999999997"><ele>2551.758169556073</ele></trkpt><trkpt lat="37.59448" lon="-119.06168000000002"><ele>2548.0481031099334</ele></trkpt><trkpt lat="37.59427" lon="-119.06171"><ele>2547.0</ele></trkpt><trkpt lat="37.59426" lon="-119.06178"><ele>2544.8111724045402</ele></trkpt><trkpt lat="37.5944" lon="-119.06187999999997"><ele>2542.727427556645</ele></trkpt><trkpt lat="37.59486" lon="-119.06202000000002"><ele>2536.2029546657577</ele></trkpt><trkpt lat="37.59539" lon="-119.06211000000002"><ele>2534.1621499653006</ele></trkpt><trkpt lat="37.59549" lon="-119.06216"><ele>2533.6784817771986</ele></trkpt><trkpt lat="37.59587" lon="-119.06222000000002"><ele>2533.8822791096754</ele></trkpt><trkpt lat="37.59603" lon="-119.06220000000002"><ele>2536.0</ele></trkpt><trkpt lat="37.59623" lon="-119.06223"><ele>2537.416245332919</ele></trkpt><trkpt lat="37.5964" lon="-119.0623"><ele>2535.154008889571</ele></trkpt><trkpt lat="37.59682" lon="-119.06227000000001"><ele>2532.5521102217026</ele></trkpt><trkpt lat="37.59682" lon="-119.06227000000001"><ele>2532.5521102217026</ele></trkpt><trkpt lat="37.59732" lon="-119.0623"><ele>2527.154008889571</ele></trkpt><trkpt lat="37.59746" lon="-119.06225"><ele>2527.4841777775437</ele></trkpt><trkpt lat="37.59777" lon="-119.06223999999997"><ele>2525.807501021307</ele></trkpt><trkpt lat="37.59791" lon="-119.06227000000001"><ele>2523.0</ele></trkpt><trkpt lat="37.59871" lon="-119.06223"><ele>2515.416245332919</ele></trkpt><trkpt lat="37.59924" lon="-119.06214"><ele>2513.002504583914</ele></trkpt><trkpt lat="37.59933" lon="-119.06209000000001"><ele>2512.940718221478</ele></trkpt><trkpt lat="37.60036" lon="-119.06213000000002"><ele>2502.0765831093304</ele></trkpt><trkpt lat="37.60129" lon="-119.06245999999999"><ele>2496.0</ele></trkpt><trkpt lat="37.60152" lon="-119.06247000000002"><ele>2496.2314346656203</ele></trkpt><trkpt lat="37.60164" lon="-119.06254000000001"><ele>2493.1828009523247</ele></trkpt><trkpt lat="37.60211" lon="-119.06261999999998"><ele>2490.2409280007705</ele></trkpt><trkpt lat="37.60311" lon="-119.06319000000002"><ele>2480.677002665121</ele></trkpt><trkpt lat="37.60402" lon="-119.06349999999998"><ele>2472.2299555568025</ele></trkpt><trkpt lat="37.60402" lon="-119.06355000000002"><ele>2471.89978666557</ele></trkpt><trkpt lat="37.60398" lon="-119.06358999999998"><ele>2471.0</ele></trkpt><trkpt lat="37.60373" lon="-119.06378999999998"><ele>2468.200034274474</ele></trkpt><trkpt lat="37.60339" lon="-119.06419"><ele>2464.0</ele></trkpt><trkpt lat="37.60329" lon="-119.06425999999999"><ele>2463.0</ele></trkpt><trkpt lat="37.60308" lon="-119.06450999999998"><ele>2459.1605440001003</ele></trkpt><trkpt lat="37.60297" lon="-119.06456000000003"><ele>2458.01414510794</ele></trkpt><trkpt lat="37.60295" lon="-119.06459999999998"><ele>2458.0</ele></trkpt><trkpt lat="37.60296" lon="-119.06465000000003"><ele>2457.270909233165</ele></trkpt><trkpt lat="37.60299" lon="-119.06468000000001"><ele>2457.0</ele></trkpt><trkpt lat="37.60311" lon="-119.06470999999999"><ele>2454.960056654055</ele></trkpt><trkpt lat="37.60326" lon="-119.06468000000001"><ele>2453.2206005699923</ele></trkpt><trkpt lat="37.60348" lon="-119.06455"><ele>2450.29219232101</ele></trkpt><trkpt lat="37.60368" lon="-119.06448999999998"><ele>2448.020465388411</ele></trkpt><trkpt lat="37.6038" lon="-119.06448999999998"><ele>2447.0</ele></trkpt><trkpt lat="37.60391" lon="-119.06452999999999"><ele>2446.228476444725</ele></trkpt><trkpt lat="37.60392" lon="-119.06461999999999"><ele>2447.8661667862266</ele></trkpt><trkpt lat="37.60383" lon="-119.06484"><ele>2445.602634988725</ele></trkpt><trkpt lat="37.60383" lon="-119.06540999999999"><ele>2443.1310755207633</ele></trkpt><trkpt lat="37.60394" lon="-119.06583"><ele>2440.6701731560156</ele></trkpt><trkpt lat="37.60404" lon="-119.06633999999997"><ele>2439.0</ele></trkpt><trkpt lat="37.60394" lon="-119.06660999999997"><ele>2440.0</ele></trkpt><trkpt lat="37.60389" lon="-119.06695000000002"><ele>2439.0</ele></trkpt><trkpt lat="37.60381" lon="-119.06713000000002"><ele>2438.0</ele></trkpt><trkpt lat="37.6038" lon="-119.06720999999999"><ele>2437.8916307703958</ele></trkpt><trkpt lat="37.603728200077214" lon="-119.06731613901627"><ele>2437.0</ele></trkpt><trkpt lat="37.6037331798005" lon="-119.06730877779455"><ele>2437.0</ele></trkpt><trkpt lat="37.60357" lon="-119.06754999999998"><ele>2434.0</ele></trkpt><trkpt lat="37.60342" lon="-119.06786"><ele>2432.0</ele></trkpt><trkpt lat="37.60336" lon="-119.06822"><ele>2428.0</ele></trkpt><trkpt lat="37.60328" lon="-119.06849"><ele>2427.0</ele></trkpt><trkpt lat="37.60325" lon="-119.06887"><ele>2424.4847520235926</ele></trkpt><trkpt lat="37.6032" lon="-119.06900000000002"><ele>2423.543567670509</ele></trkpt><trkpt lat="37.60314" lon="-119.06907000000001"><ele>2423.0</ele></trkpt><trkpt lat="37.6031" lon="-119.06905"><ele>2421.6612048950046</ele></trkpt><trkpt lat="37.60303" lon="-119.06880000000001"><ele>2419.1261339014764</ele></trkpt><trkpt lat="37.60296" lon="-119.06873000000002"><ele>2418.0</ele></trkpt><trkpt lat="37.60291" lon="-119.06878"><ele>2417.405181871718</ele></trkpt><trkpt lat="37.60282" lon="-119.06896999999998"><ele>2416.0</ele></trkpt><trkpt lat="37.60279" lon="-119.06916000000001"><ele>2414.1937291112927</ele></trkpt><trkpt lat="37.60283" lon="-119.06932"><ele>2414.0</ele></trkpt><trkpt lat="37.60298" lon="-119.06954000000002"><ele>2413.745553776622</ele></trkpt><trkpt lat="37.60302" lon="-119.06970999999999"><ele>2413.0</ele></trkpt><trkpt lat="37.6031" lon="-119.06981999999999"><ele>2413.2006042752178</ele></trkpt><trkpt lat="37.6031" lon="-119.06981999999999"><ele>2413.2006042752178</ele></trkpt><trkpt lat="37.60324" lon="-119.06997999999999"><ele>2414.0</ele></trkpt><trkpt lat="37.60333" lon="-119.07011999999997"><ele>2413.1364289119333</ele></trkpt><trkpt lat="37.60344" lon="-119.0702"><ele>2413.9873244441114</ele></trkpt><trkpt lat="37.60359" lon="-119.07036"><ele>2413.0</ele></trkpt><trkpt lat="37.60365" lon="-119.07049"><ele>2412.006753593995</ele></trkpt><trkpt lat="37.60369" lon="-119.07055000000003"><ele>2412.0</ele></trkpt><trkpt lat="37.6039" lon="-119.07069999999999"><ele>2412.279671492055</ele></trkpt><trkpt lat="37.60394" lon="-119.07078999999999"><ele>2412.0</ele></trkpt><trkpt lat="37.6041" lon="-119.07096999999999"><ele>2410.0498402866688</ele></trkpt><trkpt lat="37.60412" lon="-119.07110999999998"><ele>2408.578250667546</ele></trkpt><trkpt lat="37.60419" lon="-119.07121999999998"><ele>2408.0</ele></trkpt><trkpt lat="37.60428" lon="-119.07127000000003"><ele>2407.0</ele></trkpt><trkpt lat="37.60441" lon="-119.07128"><ele>2406.0</ele></trkpt><trkpt lat="37.60445" lon="-119.07139999999998"><ele>2405.0046674820005</ele></trkpt><trkpt lat="37.60451" lon="-119.07148999999998"><ele>2404.0</ele></trkpt><trkpt lat="37.60465" lon="-119.07159999999999"><ele>2404.0</ele></trkpt><trkpt lat="37.60468" lon="-119.07168000000001"><ele>2404.0</ele></trkpt><trkpt lat="37.60464" lon="-119.07182"><ele>2404.25046842359</ele></trkpt><trkpt lat="37.60466" lon="-119.07199000000003"><ele>2403.2422077754795</ele></trkpt><trkpt lat="37.60467" lon="-119.07202999999998"><ele>2402.707659182915</ele></trkpt><trkpt lat="37.60481" lon="-119.07214999999997"><ele>2401.0</ele></trkpt><trkpt lat="37.60521" lon="-119.07243"><ele>2395.0</ele></trkpt><trkpt lat="37.60543" lon="-119.07247999999998"><ele>2394.0</ele></trkpt><trkpt lat="37.60565" lon="-119.07258000000002"><ele>2392.0</ele></trkpt><trkpt lat="37.60575" lon="-119.07259999999997"><ele>2392.0</ele></trkpt><trkpt lat="37.60588" lon="-119.07272"><ele>2390.0</ele></trkpt><trkpt lat="37.60612" lon="-119.07279"><ele>2388.0</ele></trkpt><trkpt lat="37.60621" lon="-119.0729"><ele>2387.8417955557816</ele></trkpt><trkpt lat="37.60636" lon="-119.07294999999999"><ele>2386.8280355553143</ele></trkpt><trkpt lat="37.60661" lon="-119.07321000000002"><ele>2383.7111573321745</ele></trkpt><trkpt lat="37.60686" lon="-119.07331999999997"><ele>2381.0915269022607</ele></trkpt><trkpt lat="37.60695" lon="-119.07333"><ele>2380.1187520003878</ele></trkpt><trkpt lat="37.60747" lon="-119.07385"><ele>2373.0</ele></trkpt><trkpt lat="37.60766" lon="-119.07397000000003"><ele>2371.0</ele></trkpt><trkpt lat="37.60785" lon="-119.07406000000003"><ele>2369.098286220338</ele></trkpt><trkpt lat="37.60795" lon="-119.07397000000003"><ele>2369.0102674446657</ele></trkpt><trkpt lat="37.608" lon="-119.07385"><ele>2368.9787149317563</ele></trkpt><trkpt lat="37.60802" lon="-119.07385"><ele>2368.884995555505</ele></trkpt><trkpt lat="37.60805" lon="-119.07391999999999"><ele>2368.8476547729224</ele></trkpt><trkpt lat="37.60807" lon="-119.07407"><ele>2367.632252443582</ele></trkpt><trkpt lat="37.60814" lon="-119.07416"><ele>2366.0</ele></trkpt><trkpt lat="37.60824" lon="-119.07424000000003"><ele>2364.0</ele></trkpt><trkpt lat="37.6085" lon="-119.07434"><ele>2362.0</ele></trkpt><trkpt lat="37.60865" lon="-119.07443"><ele>2363.0</ele></trkpt><trkpt lat="37.60867" lon="-119.07445000000001"><ele>2363.0</ele></trkpt><trkpt lat="37.6087" lon="-119.07456000000002"><ele>2362.0</ele></trkpt><trkpt lat="37.60885" lon="-119.07478000000003"><ele>2360.5438542207703</ele></trkpt><trkpt lat="37.60894" lon="-119.07484"><ele>2359.7476515555754</ele></trkpt><trkpt lat="37.60909" lon="-119.07488999999998"><ele>2358.4174826676026</ele></trkpt><trkpt lat="37.60928" lon="-119.07490000000001"><ele>2356.9514488880523</ele></trkpt><trkpt lat="37.60937" lon="-119.07499999999999"><ele>2355.0</ele></trkpt><trkpt lat="37.60949158486119" lon="-119.07504973926143"><ele>2352.9730935199186</ele></trkpt><trkpt lat="37.609509852088784" lon="-119.07505721218735"><ele>2352.8979351436774</ele></trkpt><trkpt lat="37.60959" lon="-119.07508999999999"><ele>2352.0</ele></trkpt><trkpt lat="37.60995959844799" lon="-119.07542069334818"><ele>2348.0</ele></trkpt><trkpt lat="37.60997687202087" lon="-119.07544460253229"><ele>2347.657845281512</ele></trkpt><trkpt lat="37.61046" lon="-119.07569000000001"><ele>2348.0</ele></trkpt><trkpt lat="37.61063" lon="-119.07571999999999"><ele>2348.0</ele></trkpt><trkpt lat="37.61097" lon="-119.07564000000002"><ele>2349.0</ele></trkpt><trkpt lat="37.6111" lon="-119.07564000000002"><ele>2349.852744815634</ele></trkpt><trkpt lat="37.61145" lon="-119.07578999999998"><ele>2349.0</ele></trkpt><trkpt lat="37.61181" lon="-119.07583999999997"><ele>2348.0</ele></trkpt><trkpt lat="37.61236163999857" lon="-119.07585561245276"><ele>2346.0</ele></trkpt><trkpt lat="37.61240762574991" lon="-119.07585691388374"><ele>2346.0</ele></trkpt><trkpt lat="37.61287" lon="-119.07587000000001"><ele>2346.0</ele></trkpt><trkpt lat="37.61304" lon="-119.07592"><ele>2345.7624643699896</ele></trkpt><trkpt lat="37.61304" lon="-119.07592"><ele>2345.7624643699896</ele></trkpt><trkpt lat="37.61304" lon="-119.07592"><ele>2345.7624643699896</ele></trkpt><trkpt lat="37.61313" lon="-119.07576"><ele>2346.9619639773437</ele></trkpt><trkpt lat="37.61333" lon="-119.07559000000003"><ele>2347.0</ele></trkpt><trkpt lat="37.61333" lon="-119.07559000000003"><ele>2347.0</ele></trkpt><trkpt lat="37.61352" lon="-119.07542000000001"><ele>2349.0</ele></trkpt><trkpt lat="37.61381" lon="-119.07538999999997"><ele>2348.0</ele></trkpt><trkpt lat="37.61423" lon="-119.07517000000001"><ele>2348.0</ele></trkpt><trkpt lat="37.61423" lon="-119.07517000000001"><ele>2348.0</ele></trkpt><trkpt lat="37.61453" lon="-119.07506999999998"><ele>2346.0</ele></trkpt><trkpt lat="37.61453" lon="-119.07506999999998"><ele>2346.0</ele></trkpt><trkpt lat="37.61453" lon="-119.07506999999998"><ele>2346.0</ele></trkpt><trkpt lat="37.61453" lon="-119.07506999999998"><ele>2346.0</ele></trkpt><trkpt lat="37.61453" lon="-119.07506999999998"><ele>2346.0</ele></trkpt><trkpt lat="37.61453" lon="-119.07506999999998"><ele>2346.0</ele></trkpt><trkpt lat="37.61461" lon="-119.07502"><ele>2346.0</ele></trkpt><trkpt lat="37.6146417430785" lon="-119.07491948025137"><ele>2346.0</ele></trkpt></trkseg></trk></gpx>