<?xml version="1.0"?>
<gpx xmlns="http://www.topografix.com/GPX/1/1" xmlns:gpxx="http://www.garmin.com/xmlschemas/GpxExtensions/v3" creator="CALTOPO" version="1.1"><metadata><name><![CDATA[Ebbetts-Raymond]]></name></metadata><wpt lat="38.548453803582056" lon="-119.8060018181893"><name>Ebbetts Pass Trailhead</name></wpt><trk><name>Ebbetts-Raymond</name><trkseg><trkpt lat="38.5484054206609" lon="-119.80603160876592"><ele>2639.0</ele></trkpt><trkpt lat="38.548439999999985" lon="-119.80601"><ele>2638.0</ele></trkpt><trkpt lat="38.54844" lon="-119.80601"><ele>2638.0</ele></trkpt><trkpt lat="38.54844" lon="-119.80601"><ele>2638.0</ele></trkpt><trkpt lat="38.54835" lon="-119.80616"><ele>2638.883010413429</ele></trkpt><trkpt lat="38.548266764377146" lon="-119.80625248402539"><ele>2640.0</ele></trkpt><trkpt lat="38.548256347062654" lon="-119.80626405888175"><ele>2640.0</ele></trkpt><trkpt lat="38.54817" lon="-119.80636"><ele>2640.101073928349</ele></trkpt><trkpt lat="38.54817" lon="-119.80636"><ele>2640.101073928349</ele></trkpt><trkpt lat="38.54783" lon="-119.80644"><ele>2642.854652548817</ele></trkpt><trkpt lat="38.54736" lon="-119.8068"><ele>2646.4330712757073</ele></trkpt><trkpt lat="38.54713" lon="-119.80721"><ele>2646.865332712587</ele></trkpt><trkpt lat="38.54691" lon="-119.80734"><ele>2651.0</ele></trkpt><trkpt lat="38.54668" lon="-119.80729"><ele>2653.0</ele></trkpt><trkpt lat="38.546" lon="-119.80737"><ele>2661.1999495081045</ele></trkpt><trkpt lat="38.546" lon="-119.80737"><ele>2661.1999495081045</ele></trkpt><trkpt lat="38.546" lon="-119.80737"><ele>2661.1999495081045</ele></trkpt><trkpt lat="38.54585" lon="-119.80749"><ele>2658.78292266652</ele></trkpt><trkpt lat="38.54577" lon="-119.80763"><ele>2658.0</ele></trkpt><trkpt lat="38.54568" lon="-119.80793"><ele>2653.711328592306</ele></trkpt><trkpt lat="38.54554" lon="-119.80818"><ele>2651.590630030162</ele></trkpt><trkpt lat="38.54526" lon="-119.80861"><ele>2647.0</ele></trkpt><trkpt lat="38.545" lon="-119.80884"><ele>2645.8840528229935</ele></trkpt><trkpt lat="38.5448" lon="-119.80926"><ele>2647.0</ele></trkpt><trkpt lat="38.54485" lon="-119.80937"><ele>2647.0</ele></trkpt><trkpt lat="38.5452" lon="-119.80943"><ele>2647.0</ele></trkpt><trkpt lat="38.54542" lon="-119.80958"><ele>2647.6536425974464</ele></trkpt><trkpt lat="38.54546" lon="-119.80974"><ele>2647.7312157957176</ele></trkpt><trkpt lat="38.54542601484071" lon="-119.80991963584198"><ele>2647.0</ele></trkpt><trkpt lat="38.54542447734924" lon="-119.80992776262742"><ele>2647.0</ele></trkpt><trkpt lat="38.54539" lon="-119.81011"><ele>2646.0</ele></trkpt><trkpt lat="38.5456" lon="-119.81054"><ele>2645.3674159850925</ele></trkpt><trkpt lat="38.5457" lon="-119.81106"><ele>2647.0</ele></trkpt><trkpt lat="38.5458" lon="-119.8112"><ele>2648.0</ele></trkpt><trkpt lat="38.5458" lon="-119.8112"><ele>2648.0</ele></trkpt><trkpt lat="38.5459" lon="-119.8114"><ele>2650.436284445226</ele></trkpt><trkpt lat="38.54613" lon="-119.81147"><ele>2652.1491816259468</ele></trkpt><trkpt lat="38.54649" lon="-119.81134"><ele>2656.0</ele></trkpt><trkpt lat="38.5466" lon="-119.81124"><ele>2659.219540750608</ele></trkpt><trkpt lat="38.54667" lon="-119.81087"><ele>2663.0</ele></trkpt><trkpt lat="38.54683" lon="-119.8107"><ele>2666.0</ele></trkpt><trkpt lat="38.54714" lon="-119.81072"><ele>2670.0</ele></trkpt><trkpt lat="38.54736" lon="-119.81064"><ele>2672.506182057783</ele></trkpt><trkpt lat="38.54749" lon="-119.81048"><ele>2674.0</ele></trkpt><trkpt lat="38.54757" lon="-119.8103"><ele>2676.0</ele></trkpt><trkpt lat="38.54758" lon="-119.81015"><ele>2676.1120706387237</ele></trkpt><trkpt lat="38.54773" lon="-119.80987"><ele>2679.0</ele></trkpt><trkpt lat="38.54775" lon="-119.80968"><ele>2681.9291464088137</ele></trkpt><trkpt lat="38.54781" lon="-119.80974"><ele>2683.0</ele></trkpt><trkpt lat="38.54785" lon="-119.80993"><ele>2683.9791068665204</ele></trkpt><trkpt lat="38.54802" lon="-119.8101"><ele>2687.834443083033</ele></trkpt><trkpt lat="38.54806" lon="-119.81035"><ele>2690.0</ele></trkpt><trkpt lat="38.54814" lon="-119.81055"><ele>2692.0</ele></trkpt><trkpt lat="38.54811" lon="-119.81077"><ele>2692.258537701563</ele></trkpt><trkpt lat="38.54817" lon="-119.81091"><ele>2694.3086075185875</ele></trkpt><trkpt lat="38.54817" lon="-119.81091"><ele>2694.3086075185875</ele></trkpt><trkpt lat="38.54822" lon="-119.81106"><ele>2694.0</ele></trkpt><trkpt lat="38.54839" lon="-119.81125"><ele>2697.0</ele></trkpt><trkpt lat="38.54851" lon="-119.81151"><ele>2699.5441271949776</ele></trkpt><trkpt lat="38.54876" lon="-119.81162"><ele>2698.7107348903387</ele></trkpt><trkpt lat="38.54883" lon="-119.81173"><ele>2697.0</ele></trkpt><trkpt lat="38.54897" lon="-119.81205"><ele>2695.8794621193065</ele></trkpt><trkpt lat="38.54924" lon="-119.8122"><ele>2692.1858986108564</ele></trkpt><trkpt lat="38.5493" lon="-119.81242"><ele>2690.8915369231254</ele></trkpt><trkpt lat="38.54929" lon="-119.81274"><ele>2690.0</ele></trkpt><trkpt lat="38.54908" lon="-119.81319"><ele>2684.144723252441</ele></trkpt><trkpt lat="38.54908" lon="-119.81322526931763"><ele>2684.0</ele></trkpt><trkpt lat="38.54908000000002" lon="-119.81326284427006"><ele>2683.749189359307</ele></trkpt><trkpt lat="38.54908" lon="-119.81348"><ele>2683.0</ele></trkpt><trkpt lat="38.54901" lon="-119.81375"><ele>2681.1724885422736</ele></trkpt><trkpt lat="38.54915" lon="-119.81405"><ele>2678.8299688771367</ele></trkpt><trkpt lat="38.54959044877251" lon="-119.81474953628576"><ele>2672.0</ele></trkpt><trkpt lat="38.54959044877251" lon="-119.81474953628576"><ele>2672.0</ele></trkpt><trkpt lat="38.54966" lon="-119.81486"><ele>2670.616445277028</ele></trkpt><trkpt lat="38.54982" lon="-119.81491"><ele>2670.0</ele></trkpt><trkpt lat="38.55001" lon="-119.81508"><ele>2670.0264085897506</ele></trkpt><trkpt lat="38.55011" lon="-119.81532"><ele>2670.1215253337286</ele></trkpt><trkpt lat="38.55048" lon="-119.81548"><ele>2670.8207715873828</ele></trkpt><trkpt lat="38.5505" lon="-119.81563"><ele>2672.0</ele></trkpt><trkpt lat="38.55056" lon="-119.81574"><ele>2673.0</ele></trkpt><trkpt lat="38.55067" lon="-119.81616"><ele>2675.0</ele></trkpt><trkpt lat="38.55091" lon="-119.81637"><ele>2676.0</ele></trkpt><trkpt lat="38.55117" lon="-119.81643"><ele>2675.9319551908065</ele></trkpt><trkpt lat="38.55144" lon="-119.81633"><ele>2677.190936888568</ele></trkpt><trkpt lat="38.5516" lon="-119.81638"><ele>2679.521105777938</ele></trkpt><trkpt lat="38.55179" lon="-119.81634"><ele>2677.335608537982</ele></trkpt><trkpt lat="38.55201" lon="-119.81668"><ele>2679.4006545580924</ele></trkpt><trkpt lat="38.552028980534146" lon="-119.8167198591217"><ele>2679.0</ele></trkpt><trkpt lat="38.55203757008487" lon="-119.81673789714905"><ele>2678.75770175457</ele></trkpt><trkpt lat="38.55211" lon="-119.81689"><ele>2680.1275076377324</ele></trkpt><trkpt lat="38.55211" lon="-119.81689"><ele>2680.1275076377324</ele></trkpt><trkpt lat="38.55234" lon="-119.81743"><ele>2682.8796523279407</ele></trkpt><trkpt lat="38.55241" lon="-119.81749"><ele>2683.0</ele></trkpt><trkpt lat="38.55268" lon="-119.8175"><ele>2685.3771366264064</ele></trkpt><trkpt lat="38.55292" lon="-119.81765"><ele>2688.9497528742854</ele></trkpt><trkpt lat="38.55312" lon="-119.81762"><ele>2690.0</ele></trkpt><trkpt lat="38.55324" lon="-119.81784"><ele>2691.495316588506</ele></trkpt><trkpt lat="38.55318" lon="-119.81806"><ele>2694.0</ele></trkpt><trkpt lat="38.55343" lon="-119.81856"><ele>2697.0</ele></trkpt><trkpt lat="38.5536" lon="-119.81873"><ele>2697.0</ele></trkpt><trkpt lat="38.55392" lon="-119.8188"><ele>2697.0</ele></trkpt><trkpt lat="38.55408" lon="-119.81889"><ele>2698.0</ele></trkpt><trkpt lat="38.55403" lon="-119.81946"><ele>2692.081533070094</ele></trkpt><trkpt lat="38.55405" lon="-119.8196"><ele>2693.4856083967056</ele></trkpt><trkpt lat="38.55415" lon="-119.81985"><ele>2694.0</ele></trkpt><trkpt lat="38.55433" lon="-119.81986"><ele>2696.0</ele></trkpt><trkpt lat="38.55437" lon="-119.82007"><ele>2697.371318290921</ele></trkpt><trkpt lat="38.55452" lon="-119.82038"><ele>2696.0653831111267</ele></trkpt><trkpt lat="38.55446" lon="-119.82062"><ele>2696.0</ele></trkpt><trkpt lat="38.55423" lon="-119.82077"><ele>2697.0</ele></trkpt><trkpt lat="38.55411" lon="-119.82151"><ele>2702.744067683816</ele></trkpt><trkpt lat="38.55408" lon="-119.82196"><ele>2703.0</ele></trkpt><trkpt lat="38.55416" lon="-119.8223"><ele>2702.0</ele></trkpt><trkpt lat="38.5543" lon="-119.8226"><ele>2699.605884444434</ele></trkpt><trkpt lat="38.55424" lon="-119.82299"><ele>2694.7202706113185</ele></trkpt><trkpt lat="38.55418" lon="-119.82317"><ele>2692.0</ele></trkpt><trkpt lat="38.55417" lon="-119.82348"><ele>2688.870499488223</ele></trkpt><trkpt lat="38.55428" lon="-119.82405"><ele>2682.97288695057</ele></trkpt><trkpt lat="38.55447" lon="-119.82434"><ele>2680.0</ele></trkpt><trkpt lat="38.55451" lon="-119.82447"><ele>2681.0</ele></trkpt><trkpt lat="38.5545" lon="-119.82496"><ele>2684.0054320293652</ele></trkpt><trkpt lat="38.55436" lon="-119.82535"><ele>2687.0</ele></trkpt><trkpt lat="38.55441" lon="-119.8257"><ele>2687.1354133328423</ele></trkpt><trkpt lat="38.55436" lon="-119.82589"><ele>2685.2807715558447</ele></trkpt><trkpt lat="38.55429" lon="-119.82601"><ele>2684.3641951190893</ele></trkpt><trkpt lat="38.55418" lon="-119.82653"><ele>2686.0</ele></trkpt><trkpt lat="38.55426" lon="-119.8269"><ele>2686.0669765408174</ele></trkpt><trkpt lat="38.55425" lon="-119.82726"><ele>2683.950669163049</ele></trkpt><trkpt lat="38.55433" lon="-119.82736"><ele>2682.145321305841</ele></trkpt><trkpt lat="38.55439" lon="-119.82749"><ele>2681.0</ele></trkpt><trkpt lat="38.55443" lon="-119.8277"><ele>2681.257281623315</ele></trkpt><trkpt lat="38.55465" lon="-119.82792"><ele>2679.0752700306475</ele></trkpt><trkpt lat="38.55476" lon="-119.82796"><ele>2680.1882204450667</ele></trkpt><trkpt lat="38.55518" lon="-119.8284"><ele>2679.6937066670507</ele></trkpt><trkpt lat="38.55529" lon="-119.82834"><ele>2678.9933288243383</ele></trkpt><trkpt lat="38.55554" lon="-119.82841"><ele>2675.005789562641</ele></trkpt><trkpt lat="38.55564" lon="-119.82851"><ele>2672.0</ele></trkpt><trkpt lat="38.55577" lon="-119.82878"><ele>2673.3294220808893</ele></trkpt><trkpt lat="38.5558" lon="-119.82955"><ele>2669.6734122233247</ele></trkpt><trkpt lat="38.55571" lon="-119.82965"><ele>2670.047130544957</ele></trkpt><trkpt lat="38.55561" lon="-119.83022"><ele>2669.0</ele></trkpt><trkpt lat="38.55541" lon="-119.83073"><ele>2666.5644933239396</ele></trkpt><trkpt lat="38.55542" lon="-119.83107"><ele>2665.187611270696</ele></trkpt><trkpt lat="38.55547" lon="-119.83158"><ele>2666.0</ele></trkpt><trkpt lat="38.55565" lon="-119.8318"><ele>2666.0</ele></trkpt><trkpt lat="38.55571" lon="-119.83217"><ele>2667.0</ele></trkpt><trkpt lat="38.556" lon="-119.83285"><ele>2667.0</ele></trkpt><trkpt lat="38.55618" lon="-119.83314"><ele>2667.0</ele></trkpt><trkpt lat="38.55631" lon="-119.83323"><ele>2666.116640310388</ele></trkpt><trkpt lat="38.5564" lon="-119.83314"><ele>2664.0</ele></trkpt><trkpt lat="38.55671" lon="-119.83322"><ele>2663.6780124446377</ele></trkpt><trkpt lat="38.55693" lon="-119.83339"><ele>2662.0</ele></trkpt><trkpt lat="38.55733" lon="-119.83343"><ele>2660.0</ele></trkpt><trkpt lat="38.55786" lon="-119.83374"><ele>2662.0</ele></trkpt><trkpt lat="38.55803" lon="-119.83391"><ele>2663.5216817772016</ele></trkpt><trkpt lat="38.55837" lon="-119.83412"><ele>2666.0</ele></trkpt><trkpt lat="38.55868" lon="-119.83392"><ele>2668.0</ele></trkpt><trkpt lat="38.55899" lon="-119.83355"><ele>2669.4001075365486</ele></trkpt><trkpt lat="38.55948" lon="-119.83353"><ele>2673.0</ele></trkpt><trkpt lat="38.5598" lon="-119.83327"><ele>2677.0</ele></trkpt><trkpt lat="38.55987" lon="-119.83317"><ele>2678.0169286876917</ele></trkpt><trkpt lat="38.55984" lon="-119.83302"><ele>2678.0</ele></trkpt><trkpt lat="38.55988" lon="-119.83253"><ele>2682.6129124350846</ele></trkpt><trkpt lat="38.56017442851244" lon="-119.83191047333841"><ele>2687.406932255378</ele></trkpt><trkpt lat="38.56019924145022" lon="-119.83185826353301"><ele>2688.4996961555444</ele></trkpt><trkpt lat="38.56036" lon="-119.83152"><ele>2691.0</ele></trkpt><trkpt lat="38.56044" lon="-119.83146"><ele>2692.300042667426</ele></trkpt><trkpt lat="38.5606" lon="-119.83149"><ele>2694.0</ele></trkpt><trkpt lat="38.56075" lon="-119.83135"><ele>2695.173671110999</ele></trkpt><trkpt lat="38.56129" lon="-119.8314"><ele>2695.0</ele></trkpt><trkpt lat="38.5622" lon="-119.8311"><ele>2689.0</ele></trkpt><trkpt lat="38.56262" lon="-119.83106"><ele>2685.396912964223</ele></trkpt><trkpt lat="38.56291" lon="-119.8312"><ele>2682.0</ele></trkpt><trkpt lat="38.56368" lon="-119.83107"><ele>2685.0</ele></trkpt><trkpt lat="38.56401" lon="-119.83097"><ele>2685.8721436543938</ele></trkpt><trkpt lat="38.56418" lon="-119.83087"><ele>2685.7185053701887</ele></trkpt><trkpt lat="38.56464" lon="-119.83078"><ele>2686.0</ele></trkpt><trkpt lat="38.56496" lon="-119.83028"><ele>2687.573332155356</ele></trkpt><trkpt lat="38.56535" lon="-119.82989"><ele>2687.0</ele></trkpt><trkpt lat="38.56535" lon="-119.82989"><ele>2687.0</ele></trkpt><trkpt lat="38.5656" lon="-119.82963"><ele>2685.5450671450235</ele></trkpt><trkpt lat="38.56584" lon="-119.82949"><ele>2684.91555985003</ele></trkpt><trkpt lat="38.56662" lon="-119.82878"><ele>2677.402990222443</ele></trkpt><trkpt lat="38.56678" lon="-119.82877"><ele>2677.7984242476523</ele></trkpt><trkpt lat="38.56692" lon="-119.82863"><ele>2676.6185336592607</ele></trkpt><trkpt lat="38.56717" lon="-119.82852"><ele>2677.362591081207</ele></trkpt><trkpt lat="38.56734" lon="-119.82829"><ele>2674.5673351106234</ele></trkpt><trkpt lat="38.56757" lon="-119.82815"><ele>2675.9511540156213</ele></trkpt><trkpt lat="38.56767" lon="-119.82802"><ele>2675.8938695238903</ele></trkpt><trkpt lat="38.56778" lon="-119.82777"><ele>2675.644120193751</ele></trkpt><trkpt lat="38.56793" lon="-119.82748"><ele>2676.0</ele></trkpt><trkpt lat="38.56804" lon="-119.82702"><ele>2674.9772805228454</ele></trkpt><trkpt lat="38.56814" lon="-119.82688"><ele>2674.7803850262426</ele></trkpt><trkpt lat="38.56823" lon="-119.8264"><ele>2672.2882865816355</ele></trkpt><trkpt lat="38.56844" lon="-119.82616"><ele>2671.302140444983</ele></trkpt><trkpt lat="38.56874" lon="-119.82605"><ele>2668.4336712142135</ele></trkpt><trkpt lat="38.56885" lon="-119.82613"><ele>2667.68369359487</ele></trkpt><trkpt lat="38.56907" lon="-119.82637"><ele>2667.0888497778215</ele></trkpt><trkpt lat="38.56922" lon="-119.82639"><ele>2668.020917333197</ele></trkpt><trkpt lat="38.56943" lon="-119.82665"><ele>2667.0</ele></trkpt><trkpt lat="38.56942" lon="-119.82721"><ele>2667.8324735481956</ele></trkpt><trkpt lat="38.56947" lon="-119.82746"><ele>2666.8004987109452</ele></trkpt><trkpt lat="38.5696" lon="-119.82769"><ele>2663.4259669086164</ele></trkpt><trkpt lat="38.56953" lon="-119.82799"><ele>2666.58632177813</ele></trkpt><trkpt lat="38.56984" lon="-119.82829"><ele>2670.5673351106234</ele></trkpt><trkpt lat="38.57007" lon="-119.82845"><ele>2671.059552711961</ele></trkpt><trkpt lat="38.57014" lon="-119.82854"><ele>2673.21817955561</ele></trkpt><trkpt lat="38.57034" lon="-119.82865"><ele>2675.344551111106</ele></trkpt><trkpt lat="38.57049" lon="-119.82862"><ele>2674.9464497780427</ele></trkpt><trkpt lat="38.57068" lon="-119.82865"><ele>2676.0</ele></trkpt><trkpt lat="38.57086" lon="-119.82864"><ele>2673.8785173329525</ele></trkpt><trkpt lat="38.57101" lon="-119.82862"><ele>2674.946141183481</ele></trkpt><trkpt lat="38.57113" lon="-119.82856"><ele>2672.150247111451</ele></trkpt><trkpt lat="38.5712" lon="-119.82862"><ele>2672.6438714826736</ele></trkpt><trkpt lat="38.57129" lon="-119.82879"><ele>2670.1846233257093</ele></trkpt><trkpt lat="38.57144" lon="-119.82884"><ele>2671.7001669175747</ele></trkpt><trkpt lat="38.57179" lon="-119.8283"><ele>2667.0333688887767</ele></trkpt><trkpt lat="38.57211" lon="-119.82827"><ele>2665.6352675557137</ele></trkpt><trkpt lat="38.57256" lon="-119.82791"><ele>2663.2450813306496</ele></trkpt><trkpt lat="38.57299" lon="-119.82778"><ele>2661.599224889651</ele></trkpt><trkpt lat="38.57359" lon="-119.82778"><ele>2656.0</ele></trkpt><trkpt lat="38.57364" lon="-119.82785"><ele>2654.9526780799524</ele></trkpt><trkpt lat="38.57363" lon="-119.82793"><ele>2653.1744060445094</ele></trkpt><trkpt lat="38.57356" lon="-119.82807"><ele>2651.686559139568</ele></trkpt><trkpt lat="38.57346" lon="-119.82817"><ele>2651.0</ele></trkpt><trkpt lat="38.57332" lon="-119.82873"><ele>2645.0</ele></trkpt><trkpt lat="38.5733" lon="-119.82902"><ele>2640.412199110724</ele></trkpt><trkpt lat="38.57318" lon="-119.82918"><ele>2639.9847153250903</ele></trkpt><trkpt lat="38.57312" lon="-119.82939"><ele>2639.0391722953923</ele></trkpt><trkpt lat="38.57313" lon="-119.82974"><ele>2637.0</ele></trkpt><trkpt lat="38.57303" lon="-119.83"><ele>2635.0</ele></trkpt><trkpt lat="38.57308" lon="-119.8302"><ele>2636.0</ele></trkpt><trkpt lat="38.57308" lon="-119.83038"><ele>2636.0</ele></trkpt><trkpt lat="38.57319" lon="-119.83057"><ele>2636.0</ele></trkpt><trkpt lat="38.57314" lon="-119.83082"><ele>2634.494752487682</ele></trkpt><trkpt lat="38.57324" lon="-119.83084"><ele>2636.4059484447353</ele></trkpt><trkpt lat="38.57343" lon="-119.83105"><ele>2636.7529165092856</ele></trkpt><trkpt lat="38.57337" lon="-119.83129"><ele>2638.0</ele></trkpt><trkpt lat="38.57337" lon="-119.83153"><ele>2639.0</ele></trkpt><trkpt lat="38.57343" lon="-119.83175"><ele>2640.0</ele></trkpt><trkpt lat="38.57363" lon="-119.83198"><ele>2640.0</ele></trkpt><trkpt lat="38.57374" lon="-119.83198"><ele>2640.5337991113774</ele></trkpt><trkpt lat="38.57404" lon="-119.83191"><ele>2640.715257409894</ele></trkpt><trkpt lat="38.57424" lon="-119.83192"><ele>2640.0</ele></trkpt><trkpt lat="38.57451" lon="-119.83206"><ele>2640.0</ele></trkpt><trkpt lat="38.57461" lon="-119.83209"><ele>2639.272643555265</ele></trkpt><trkpt lat="38.57476" lon="-119.83205"><ele>2637.796035555657</ele></trkpt><trkpt lat="38.57497" lon="-119.83215"><ele>2638.4349788889244</ele></trkpt><trkpt lat="38.57514" lon="-119.83214"><ele>2638.1789974934236</ele></trkpt><trkpt lat="38.57525" lon="-119.8321"><ele>2637.3551715211147</ele></trkpt><trkpt lat="38.57553" lon="-119.83221"><ele>2637.5708889104426</ele></trkpt><trkpt lat="38.57575" lon="-119.83218"><ele>2637.0</ele></trkpt><trkpt lat="38.57598" lon="-119.83208"><ele>2637.0</ele></trkpt><trkpt lat="38.57604" lon="-119.83198"><ele>2635.921218075531</ele></trkpt><trkpt lat="38.57619" lon="-119.83187"><ele>2634.4074275558814</ele></trkpt><trkpt lat="38.57641" lon="-119.8318"><ele>2634.0163442000603</ele></trkpt><trkpt lat="38.57646" lon="-119.83182"><ele>2634.0772586665116</ele></trkpt><trkpt lat="38.57663" lon="-119.83172"><ele>2634.0</ele></trkpt><trkpt lat="38.57729" lon="-119.83147"><ele>2627.6536089517176</ele></trkpt><trkpt lat="38.57739" lon="-119.83149"><ele>2628.0</ele></trkpt><trkpt lat="38.57745" lon="-119.83138"><ele>2628.0</ele></trkpt><trkpt lat="38.57752" lon="-119.83138"><ele>2628.0</ele></trkpt><trkpt lat="38.57764" lon="-119.83131"><ele>2628.0652902090733</ele></trkpt><trkpt lat="38.57777" lon="-119.83132"><ele>2630.0</ele></trkpt><trkpt lat="38.57819" lon="-119.83121"><ele>2632.6491982224397</ele></trkpt><trkpt lat="38.57858" lon="-119.83131"><ele>2634.3095359997824</ele></trkpt><trkpt lat="38.57897" lon="-119.83149"><ele>2636.848197161905</ele></trkpt><trkpt lat="38.57919" lon="-119.83139"><ele>2638.0</ele></trkpt><trkpt lat="38.5795" lon="-119.83166"><ele>2640.0</ele></trkpt><trkpt lat="38.57956" lon="-119.83178"><ele>2642.473081265849</ele></trkpt><trkpt lat="38.57964" lon="-119.83185"><ele>2643.4753600000404</ele></trkpt><trkpt lat="38.57977" lon="-119.83189"><ele>2642.8753364635477</ele></trkpt><trkpt lat="38.57987" lon="-119.83205"><ele>2644.796035555657</ele></trkpt><trkpt lat="38.57994" lon="-119.83209"><ele>2645.213420806218</ele></trkpt><trkpt lat="38.58025" lon="-119.83177"><ele>2646.0</ele></trkpt><trkpt lat="38.58037" lon="-119.83176"><ele>2647.2810560003854</ele></trkpt><trkpt lat="38.58053" lon="-119.8317"><ele>2648.0</ele></trkpt><trkpt lat="38.58081" lon="-119.83175"><ele>2652.0</ele></trkpt><trkpt lat="38.58121" lon="-119.83159"><ele>2653.0</ele></trkpt><trkpt lat="38.58148" lon="-119.83163"><ele>2650.0</ele></trkpt><trkpt lat="38.58167" lon="-119.83159"><ele>2647.835632911908</ele></trkpt><trkpt lat="38.58167" lon="-119.83159"><ele>2647.835632911908</ele></trkpt><trkpt lat="38.58167" lon="-119.83159"><ele>2647.835632911908</ele></trkpt><trkpt lat="38.58176" lon="-119.83156"><ele>2647.0</ele></trkpt><trkpt lat="38.58182" lon="-119.8315"><ele>2645.599013276398</ele></trkpt><trkpt lat="38.58194" lon="-119.83131"><ele>2644.0</ele></trkpt><trkpt lat="38.58203" lon="-119.83122"><ele>2643.0</ele></trkpt><trkpt lat="38.58217" lon="-119.83122"><ele>2640.969251386231</ele></trkpt><trkpt lat="38.58236" lon="-119.83127"><ele>2640.0</ele></trkpt><trkpt lat="38.58244" lon="-119.83124"><ele>2639.0</ele></trkpt><trkpt lat="38.58253" lon="-119.83116"><ele>2638.0</ele></trkpt><trkpt lat="38.58253" lon="-119.83116"><ele>2638.0</ele></trkpt><trkpt lat="38.58278" lon="-119.83089"><ele>2632.8328865313056</ele></trkpt><trkpt lat="38.58326" lon="-119.83049"><ele>2630.0</ele></trkpt><trkpt lat="38.58336" lon="-119.83045"><ele>2629.0</ele></trkpt><trkpt lat="38.58354" lon="-119.83043"><ele>2627.0</ele></trkpt><trkpt lat="38.58377" lon="-119.83033"><ele>2625.0</ele></trkpt><trkpt lat="38.58386" lon="-119.83032"><ele>2624.0</ele></trkpt><trkpt lat="38.58386" lon="-119.83032"><ele>2624.0</ele></trkpt><trkpt lat="38.58386" lon="-119.83032"><ele>2624.0</ele></trkpt><trkpt lat="38.58393" lon="-119.8305"><ele>2621.891305421471</ele></trkpt><trkpt lat="38.58386" lon="-119.83073"><ele>2619.0</ele></trkpt><trkpt lat="38.58387" lon="-119.83089"><ele>2617.1011403910834</ele></trkpt><trkpt lat="38.58353" lon="-119.83146"><ele>2610.699957332574</ele></trkpt><trkpt lat="38.58346" lon="-119.83148"><ele>2610.1330721846216</ele></trkpt><trkpt lat="38.58344" lon="-119.83152"><ele>2610.0172280408883</ele></trkpt><trkpt lat="38.58332" lon="-119.83219"><ele>2607.0</ele></trkpt><trkpt lat="38.58328" lon="-119.83232"><ele>2604.832474956949</ele></trkpt><trkpt lat="38.58315" lon="-119.83238"><ele>2604.824849777855</ele></trkpt><trkpt lat="38.5831" lon="-119.83244"><ele>2604.0</ele></trkpt><trkpt lat="38.58308" lon="-119.83273"><ele>2602.4814622420818</ele></trkpt><trkpt lat="38.58324" lon="-119.83288"><ele>2600.0</ele></trkpt><trkpt lat="38.58325" lon="-119.83296"><ele>2599.480502113375</ele></trkpt><trkpt lat="38.58337" lon="-119.83313"><ele>2597.8968719726067</ele></trkpt><trkpt lat="38.58338" lon="-119.83318"><ele>2596.815090242948</ele></trkpt><trkpt lat="38.58334" lon="-119.83329"><ele>2596.584224000573</ele></trkpt><trkpt lat="38.58367" lon="-119.83353"><ele>2594.0</ele></trkpt><trkpt lat="38.58384" lon="-119.83351"><ele>2593.0</ele></trkpt><trkpt lat="38.58392" lon="-119.8336"><ele>2592.0125823292383</ele></trkpt><trkpt lat="38.58398" lon="-119.8336"><ele>2592.200545097593</ele></trkpt><trkpt lat="38.58412" lon="-119.83351"><ele>2592.0</ele></trkpt><trkpt lat="38.58443" lon="-119.83361"><ele>2590.0030906479806</ele></trkpt><trkpt lat="38.58443" lon="-119.83356"><ele>2590.000516558542</ele></trkpt><trkpt lat="38.5845" lon="-119.8334"><ele>2589.0</ele></trkpt><trkpt lat="38.58464" lon="-119.83323"><ele>2587.0</ele></trkpt><trkpt lat="38.58481" lon="-119.83335"><ele>2585.3804266666993</ele></trkpt><trkpt lat="38.58498" lon="-119.83272"><ele>2583.0</ele></trkpt><trkpt lat="38.58505" lon="-119.83255"><ele>2582.9701110230385</ele></trkpt><trkpt lat="38.58514" lon="-119.83244"><ele>2582.0</ele></trkpt><trkpt lat="38.58519" lon="-119.83244"><ele>2582.0</ele></trkpt><trkpt lat="38.58535" lon="-119.83235"><ele>2580.967157042385</ele></trkpt><trkpt lat="38.58546" lon="-119.83217"><ele>2579.0</ele></trkpt><trkpt lat="38.58556" lon="-119.83215"><ele>2579.2862348051176</ele></trkpt><trkpt lat="38.58571" lon="-119.83218"><ele>2575.584659076095</ele></trkpt><trkpt lat="38.58577" lon="-119.83216"><ele>2574.922407111153</ele></trkpt><trkpt lat="38.58584" lon="-119.8321"><ele>2574.1841809261277</ele></trkpt><trkpt lat="38.58588" lon="-119.83199"><ele>2574.0</ele></trkpt><trkpt lat="38.58586" lon="-119.83193"><ele>2573.0</ele></trkpt><trkpt lat="38.58576" lon="-119.83193"><ele>2571.856798951603</ele></trkpt><trkpt lat="38.58569" lon="-119.83187"><ele>2573.0731067061242</ele></trkpt><trkpt lat="38.58568" lon="-119.83172"><ele>2575.3073840698853</ele></trkpt><trkpt lat="38.58577" lon="-119.83146"><ele>2578.0</ele></trkpt><trkpt lat="38.58587" lon="-119.83142"><ele>2579.0</ele></trkpt><trkpt lat="38.58611" lon="-119.83119"><ele>2582.1174361511867</ele></trkpt><trkpt lat="38.58654" lon="-119.83092"><ele>2581.134218667168</ele></trkpt><trkpt lat="38.587" lon="-119.83037"><ele>2577.1135405947725</ele></trkpt><trkpt lat="38.58711" lon="-119.8301"><ele>2575.0</ele></trkpt><trkpt lat="38.58729" lon="-119.83017"><ele>2574.0</ele></trkpt><trkpt lat="38.58733" lon="-119.83014"><ele>2573.0</ele></trkpt><trkpt lat="38.58735" lon="-119.83005"><ele>2574.0933733582497</ele></trkpt><trkpt lat="38.5873" lon="-119.8299"><ele>2573.0672517026205</ele></trkpt><trkpt lat="38.58734" lon="-119.8298"><ele>2573.0</ele></trkpt><trkpt lat="38.58749" lon="-119.82967"><ele>2572.9328394794948</ele></trkpt><trkpt lat="38.58757" lon="-119.82951"><ele>2572.0</ele></trkpt><trkpt lat="38.58768796084508" lon="-119.8291603303521"><ele>2568.0310290610296</ele></trkpt><trkpt lat="38.587680877885234" lon="-119.82918132665581"><ele>2568.1061679753475</ele></trkpt><trkpt lat="38.58785" lon="-119.82868"><ele>2564.671404717385</ele></trkpt><trkpt lat="38.58812" lon="-119.82844"><ele>2562.557841778267</ele></trkpt><trkpt lat="38.58843" lon="-119.82825"><ele>2560.0</ele></trkpt><trkpt lat="38.58861" lon="-119.82822"><ele>2558.0</ele></trkpt><trkpt lat="38.58882" lon="-119.82788"><ele>2556.0</ele></trkpt><trkpt lat="38.58911" lon="-119.82785"><ele>2554.0880440901515</ele></trkpt><trkpt lat="38.58918" lon="-119.82781"><ele>2554.3593812962263</ele></trkpt><trkpt lat="38.58922" lon="-119.82765"><ele>2553.4346365386054</ele></trkpt><trkpt lat="38.58917" lon="-119.82758"><ele>2552.0</ele></trkpt><trkpt lat="38.58907" lon="-119.82755"><ele>2551.591038806542</ele></trkpt><trkpt lat="38.58895" lon="-119.82745"><ele>2551.579502222594</ele></trkpt><trkpt lat="38.58891" lon="-119.82738"><ele>2551.103412074968</ele></trkpt><trkpt lat="38.5889" lon="-119.82724"><ele>2550.8195263462285</ele></trkpt><trkpt lat="38.58896" lon="-119.82718"><ele>2551.0</ele></trkpt><trkpt lat="38.58906" lon="-119.82715"><ele>2549.4394844449125</ele></trkpt><trkpt lat="38.58913" lon="-119.82706"><ele>2548.2203749921173</ele></trkpt><trkpt lat="38.58907" lon="-119.82681"><ele>2549.787832438259</ele></trkpt><trkpt lat="38.58911" lon="-119.82666"><ele>2549.4130308824365</ele></trkpt><trkpt lat="38.58908" lon="-119.82649"><ele>2550.0762576510297</ele></trkpt><trkpt lat="38.58895" lon="-119.82624"><ele>2550.0</ele></trkpt><trkpt lat="38.58894" lon="-119.82595"><ele>2550.8920864704996</ele></trkpt><trkpt lat="38.58897" lon="-119.82578"><ele>2551.0</ele></trkpt><trkpt lat="38.58913" lon="-119.82553"><ele>2553.2203749921173</ele></trkpt><trkpt lat="38.58923" lon="-119.82532"><ele>2554.0283652041517</ele></trkpt><trkpt lat="38.58919" lon="-119.82517"><ele>2555.0</ele></trkpt><trkpt lat="38.58926" lon="-119.82453"><ele>2555.971326513216</ele></trkpt><trkpt lat="38.58919" lon="-119.8244"><ele>2554.0</ele></trkpt><trkpt lat="38.58899" lon="-119.82446"><ele>2555.9236017777584</ele></trkpt><trkpt lat="38.58882" lon="-119.82455"><ele>2555.800385975005</ele></trkpt><trkpt lat="38.58868" lon="-119.82458"><ele>2555.7389883481264</ele></trkpt><trkpt lat="38.5886" lon="-119.82447"><ele>2558.0</ele></trkpt><trkpt lat="38.5888" lon="-119.82337"><ele>2558.9380060500216</ele></trkpt><trkpt lat="38.58867" lon="-119.82304"><ele>2558.814721454499</ele></trkpt><trkpt lat="38.58872" lon="-119.82287"><ele>2559.0</ele></trkpt><trkpt lat="38.589" lon="-119.82266"><ele>2557.5704132106093</ele></trkpt><trkpt lat="38.58909" lon="-119.82255"><ele>2557.0</ele></trkpt><trkpt lat="38.5892" lon="-119.82249"><ele>2554.3939625285566</ele></trkpt><trkpt lat="38.58928" lon="-119.82234"><ele>2555.322643772971</ele></trkpt><trkpt lat="38.58957" lon="-119.82221"><ele>2555.0</ele></trkpt><trkpt lat="38.58964" lon="-119.82222"><ele>2554.254733870705</ele></trkpt><trkpt lat="38.58976" lon="-119.82237"><ele>2554.7458520841374</ele></trkpt><trkpt lat="38.58986" lon="-119.82242"><ele>2553.2548692133278</ele></trkpt><trkpt lat="38.58989" lon="-119.82258"><ele>2554.0</ele></trkpt><trkpt lat="38.58994" lon="-119.8226"><ele>2553.0</ele></trkpt><trkpt lat="38.59001" lon="-119.82253"><ele>2553.1318791112863</ele></trkpt><trkpt lat="38.59008" lon="-119.82238"><ele>2553.1219008294242</ele></trkpt><trkpt lat="38.59033" lon="-119.82212"><ele>2555.0</ele></trkpt><trkpt lat="38.59049" lon="-119.82205"><ele>2554.307947019115</ele></trkpt><trkpt lat="38.5905" lon="-119.82193"><ele>2555.9041848517954</ele></trkpt><trkpt lat="38.59057" lon="-119.82186"><ele>2557.0</ele></trkpt><trkpt lat="38.59064" lon="-119.82185"><ele>2557.111068205806</ele></trkpt><trkpt lat="38.59069" lon="-119.82181"><ele>2557.1343832091316</ele></trkpt><trkpt lat="38.59077" lon="-119.82165"><ele>2558.0</ele></trkpt><trkpt lat="38.59093" lon="-119.82159"><ele>2559.324703999795</ele></trkpt><trkpt lat="38.59121" lon="-119.82141"><ele>2561.951259361579</ele></trkpt><trkpt lat="38.59132" lon="-119.82138"><ele>2563.428227606214</ele></trkpt><trkpt lat="38.59165" lon="-119.82147"><ele>2564.732298667077</ele></trkpt><trkpt lat="38.59189" lon="-119.82136"><ele>2566.91411262222</ele></trkpt><trkpt lat="38.59202" lon="-119.8212"><ele>2568.149386667181</ele></trkpt><trkpt lat="38.59228" lon="-119.82112"><ele>2569.456959066447</ele></trkpt><trkpt lat="38.59251" lon="-119.82116"><ele>2573.2852515559644</ele></trkpt><trkpt lat="38.59295" lon="-119.82111"><ele>2580.940715581102</ele></trkpt><trkpt lat="38.59311" lon="-119.82099"><ele>2582.697335116757</ele></trkpt><trkpt lat="38.59323" lon="-119.82103"><ele>2583.247249862826</ele></trkpt><trkpt lat="38.59407" lon="-119.82031"><ele>2567.5612202775665</ele></trkpt><trkpt lat="38.59402" lon="-119.82078"><ele>2564.214937314391</ele></trkpt><trkpt lat="38.5941" lon="-119.82103"><ele>2558.343912098354</ele></trkpt><trkpt lat="38.59389" lon="-119.82114"><ele>2558.0</ele></trkpt><trkpt lat="38.59392" lon="-119.82123"><ele>2558.0</ele></trkpt><trkpt lat="38.59402" lon="-119.82132"><ele>2556.797290533995</ele></trkpt><trkpt lat="38.59411" lon="-119.82154"><ele>2552.9937073443893</ele></trkpt><trkpt lat="38.59429" lon="-119.8216"><ele>2548.9064328130335</ele></trkpt><trkpt lat="38.59441" lon="-119.82183"><ele>2543.489366830361</ele></trkpt><trkpt lat="38.5947" lon="-119.82201"><ele>2538.60046838973</ele></trkpt><trkpt lat="38.59462" lon="-119.82165"><ele>2532.506618651058</ele></trkpt><trkpt lat="38.59475" lon="-119.82143"><ele>2529.596616645483</ele></trkpt><trkpt lat="38.59468" lon="-119.82131"><ele>2526.275758222677</ele></trkpt><trkpt lat="38.59502" lon="-119.82086"><ele>2518.587810881436</ele></trkpt><trkpt lat="38.59521" lon="-119.8207"><ele>2516.258562957868</ele></trkpt><trkpt lat="38.59535" lon="-119.82067"><ele>2513.9598406426985</ele></trkpt><trkpt lat="38.59559" lon="-119.82052"><ele>2510.816353599565</ele></trkpt><trkpt lat="38.5957" lon="-119.82027"><ele>2508.1917546666227</ele></trkpt><trkpt lat="38.5959" lon="-119.82028"><ele>2505.7257208884694</ele></trkpt><trkpt lat="38.59628" lon="-119.82017"><ele>2499.8520924439654</ele></trkpt><trkpt lat="38.59644" lon="-119.82003"><ele>2498.9475467926154</ele></trkpt><trkpt lat="38.59652" lon="-119.82007"><ele>2496.583402726352</ele></trkpt><trkpt lat="38.59629" lon="-119.82069"><ele>2489.9466292489033</ele></trkpt><trkpt lat="38.5963" lon="-119.82102"><ele>2487.2007519830013</ele></trkpt><trkpt lat="38.59639" lon="-119.82111"><ele>2486.8523818412796</ele></trkpt><trkpt lat="38.59638" lon="-119.82137"><ele>2484.0</ele></trkpt><trkpt lat="38.59654" lon="-119.82134"><ele>2483.0</ele></trkpt><trkpt lat="38.5966" lon="-119.82149"><ele>2483.0</ele></trkpt><trkpt lat="38.59659" lon="-119.82162"><ele>2480.97154661268</ele></trkpt><trkpt lat="38.59669" lon="-119.82167"><ele>2479.0004586440714</ele></trkpt><trkpt lat="38.59685" lon="-119.82095"><ele>2483.5319813955575</ele></trkpt><trkpt lat="38.59716" lon="-119.82065"><ele>2487.525745608035</ele></trkpt><trkpt lat="38.59745" lon="-119.82056"><ele>2491.0</ele></trkpt><trkpt lat="38.59754" lon="-119.82067"><ele>2494.0</ele></trkpt><trkpt lat="38.59773" lon="-119.8208"><ele>2498.0</ele></trkpt><trkpt lat="38.59787" lon="-119.82069"><ele>2498.354056634009</ele></trkpt><trkpt lat="38.59811" lon="-119.82069"><ele>2499.71640523104</ele></trkpt><trkpt lat="38.59817" lon="-119.82054"><ele>2498.243066780269</ele></trkpt><trkpt lat="38.59821" lon="-119.82033"><ele>2499.232721781358</ele></trkpt><trkpt lat="38.59832" lon="-119.82027"><ele>2500.187599889934</ele></trkpt><trkpt lat="38.59838" lon="-119.81997"><ele>2500.592650369741</ele></trkpt><trkpt lat="38.59859" lon="-119.81988"><ele>2505.9207345927134</ele></trkpt><trkpt lat="38.59887" lon="-119.81946"><ele>2509.0</ele></trkpt><trkpt lat="38.59899" lon="-119.81941"><ele>2511.767253351802</ele></trkpt><trkpt lat="38.59915" lon="-119.81923"><ele>2514.470728459315</ele></trkpt><trkpt lat="38.5993" lon="-119.81888"><ele>2516.0184888711237</ele></trkpt><trkpt lat="38.59958" lon="-119.81868"><ele>2521.7088746670634</ele></trkpt><trkpt lat="38.5997" lon="-119.81851"><ele>2522.478181563318</ele></trkpt><trkpt lat="38.5997" lon="-119.81851"><ele>2522.478181563318</ele></trkpt><trkpt lat="38.59981" lon="-119.81839"><ele>2523.0072989562727</ele></trkpt><trkpt lat="38.59996" lon="-119.81838"><ele>2527.7102426602505</ele></trkpt><trkpt lat="38.60049" lon="-119.81784"><ele>2534.149307494983</ele></trkpt><trkpt lat="38.60063" lon="-119.81777"><ele>2536.2548273314433</ele></trkpt><trkpt lat="38.60078" lon="-119.81775"><ele>2537.6915629889727</ele></trkpt><trkpt lat="38.60107" lon="-119.81777"><ele>2539.299800888635</ele></trkpt><trkpt lat="38.60117" lon="-119.81772"><ele>2540.1331117315385</ele></trkpt><trkpt lat="38.60128" lon="-119.81754"><ele>2541.404902435996</ele></trkpt><trkpt lat="38.60139" lon="-119.81756"><ele>2543.5130915557966</ele></trkpt><trkpt lat="38.60161" lon="-119.81729"><ele>2547.9564130163444</ele></trkpt><trkpt lat="38.60203" lon="-119.81701"><ele>2557.302901484538</ele></trkpt><trkpt lat="38.60216" lon="-119.81696"><ele>2557.629185092025</ele></trkpt><trkpt lat="38.60227" lon="-119.81696"><ele>2559.551064888481</ele></trkpt><trkpt lat="38.60258" lon="-119.81702"><ele>2562.3472675555386</ele></trkpt><trkpt lat="38.60277" lon="-119.81697"><ele>2565.5582700452146</ele></trkpt><trkpt lat="38.60283" lon="-119.81689"><ele>2567.4174544201232</ele></trkpt><trkpt lat="38.60283" lon="-119.81689"><ele>2567.4174544201232</ele></trkpt><trkpt lat="38.6029" lon="-119.81681"><ele>2568.5605582227</ele></trkpt><trkpt lat="38.6031" lon="-119.81677"><ele>2571.160068969528</ele></trkpt><trkpt lat="38.60332" lon="-119.8166"><ele>2572.123249427881</ele></trkpt><trkpt lat="38.60355" lon="-119.81657"><ele>2575.375747555867</ele></trkpt><trkpt lat="38.60368" lon="-119.81665"><ele>2577.208035555668</ele></trkpt><trkpt lat="38.60378" lon="-119.81665"><ele>2578.0227456030652</ele></trkpt><trkpt lat="38.604" lon="-119.81652"><ele>2580.045578666497</ele></trkpt><trkpt lat="38.6042" lon="-119.8166"><ele>2581.945821690839</ele></trkpt><trkpt lat="38.60438" lon="-119.81657"><ele>2584.81337653473</ele></trkpt><trkpt lat="38.60455" lon="-119.81677"><ele>2589.605467569081</ele></trkpt><trkpt lat="38.60465" lon="-119.81674"><ele>2590.100254841328</ele></trkpt><trkpt lat="38.60495" lon="-119.81689"><ele>2593.7341910251416</ele></trkpt><trkpt lat="38.60495" lon="-119.81689"><ele>2593.7341910251416</ele></trkpt><trkpt lat="38.60504" lon="-119.817"><ele>2595.4933379394934</ele></trkpt><trkpt lat="38.60516" lon="-119.81703"><ele>2597.735129285138</ele></trkpt><trkpt lat="38.60524" lon="-119.81712"><ele>2598.1574053009176</ele></trkpt><trkpt lat="38.60536" lon="-119.81729"><ele>2600.9247975973412</ele></trkpt><trkpt lat="38.60544" lon="-119.81745"><ele>2602.2237247694284</ele></trkpt><trkpt lat="38.60571" lon="-119.81776"><ele>2604.9797327684364</ele></trkpt><trkpt lat="38.60619" lon="-119.81774"><ele>2609.901699555572</ele></trkpt><trkpt lat="38.60647" lon="-119.81781"><ele>2609.1639359998517</ele></trkpt><trkpt lat="38.60669" lon="-119.81764"><ele>2612.0777603539773</ele></trkpt><trkpt lat="38.60691" lon="-119.81771"><ele>2615.723199375534</ele></trkpt><trkpt lat="38.60714" lon="-119.81768"><ele>2618.1054968889803</ele></trkpt><trkpt lat="38.60725" lon="-119.81761"><ele>2617.6064366823193</ele></trkpt><trkpt lat="38.60728" lon="-119.81748"><ele>2618.2931098472327</ele></trkpt><trkpt lat="38.60742" lon="-119.81743"><ele>2621.31223107595</ele></trkpt><trkpt lat="38.60748" lon="-119.81727"><ele>2622.4350279218934</ele></trkpt><trkpt lat="38.60761" lon="-119.81716"><ele>2622.871740445029</ele></trkpt><trkpt lat="38.60784" lon="-119.81715"><ele>2625.9055467229337</ele></trkpt><trkpt lat="38.60795" lon="-119.81722"><ele>2626.0</ele></trkpt><trkpt lat="38.60815" lon="-119.81741"><ele>2624.6065732631832</ele></trkpt><trkpt lat="38.60823" lon="-119.81755"><ele>2623.0</ele></trkpt><trkpt lat="38.60832" lon="-119.81781"><ele>2620.555234438365</ele></trkpt><trkpt lat="38.60836" lon="-119.81806"><ele>2618.2524227497224</ele></trkpt><trkpt lat="38.60832" lon="-119.81838"><ele>2615.127367564409</ele></trkpt><trkpt lat="38.60821" lon="-119.81888"><ele>2612.0</ele></trkpt><trkpt lat="38.60826" lon="-119.8197"><ele>2606.011321439727</ele></trkpt><trkpt lat="38.60839" lon="-119.81995"><ele>2602.9259149119725</ele></trkpt><trkpt lat="38.60863" lon="-119.82024"><ele>2599.9800208061934</ele></trkpt><trkpt lat="38.60871" lon="-119.82039"><ele>2597.208910111338</ele></trkpt><trkpt lat="38.60874" lon="-119.82059"><ele>2596.116971152322</ele></trkpt><trkpt lat="38.60873" lon="-119.82073"><ele>2594.0121664729522</ele></trkpt><trkpt lat="38.60864" lon="-119.82093"><ele>2591.166314303723</ele></trkpt><trkpt lat="38.60834" lon="-119.82138"><ele>2586.6100897003844</ele></trkpt><trkpt lat="38.60806" lon="-119.82168"><ele>2586.9865216354124</ele></trkpt><trkpt lat="38.60814" lon="-119.82181"><ele>2585.2029577344656</ele></trkpt><trkpt lat="38.60818" lon="-119.82205"><ele>2584.623084253729</ele></trkpt><trkpt lat="38.60843" lon="-119.82233"><ele>2580.7363897152295</ele></trkpt><trkpt lat="38.60862" lon="-119.8228"><ele>2578.576409270987</ele></trkpt><trkpt lat="38.60875" lon="-119.82299"><ele>2576.0</ele></trkpt><trkpt lat="38.60897" lon="-119.82315"><ele>2576.0</ele></trkpt><trkpt lat="38.60929" lon="-119.82322"><ele>2571.1781708485814</ele></trkpt><trkpt lat="38.60955" lon="-119.82323"><ele>2567.7542435554788</ele></trkpt><trkpt lat="38.60954" lon="-119.82332"><ele>2565.0514524444006</ele></trkpt><trkpt lat="38.60926" lon="-119.82365"><ele>2559.7520556375384</ele></trkpt><trkpt lat="38.60897" lon="-119.82411"><ele>2554.7725499622998</ele></trkpt><trkpt lat="38.6089" lon="-119.82433"><ele>2552.861741755853</ele></trkpt><trkpt lat="38.60894" lon="-119.8244"><ele>2555.14235692903</ele></trkpt><trkpt lat="38.60942" lon="-119.82427"><ele>2558.2217564443126</ele></trkpt><trkpt lat="38.60967" lon="-119.82427"><ele>2561.2217564443126</ele></trkpt><trkpt lat="38.6099" lon="-119.82419"><ele>2560.7314966493286</ele></trkpt><trkpt lat="38.61003" lon="-119.82428"><ele>2560.687790222466</ele></trkpt><trkpt lat="38.61019" lon="-119.82433"><ele>2561.0179591109045</ele></trkpt><trkpt lat="38.6104" lon="-119.82415"><ele>2562.629351111129</ele></trkpt><trkpt lat="38.61066" lon="-119.82415"><ele>2562.0</ele></trkpt><trkpt lat="38.6109" lon="-119.8243"><ele>2561.0</ele></trkpt><trkpt lat="38.61099" lon="-119.82465"><ele>2558.0</ele></trkpt><trkpt lat="38.610988181334115" lon="-119.82470092264475"><ele>2558.235515895284</ele></trkpt><trkpt lat="38.61098708565908" lon="-119.82473160154959"><ele>2557.562444255252</ele></trkpt><trkpt lat="38.61098" lon="-119.82493"><ele>2556.8264270685613</ele></trkpt><trkpt lat="38.611" lon="-119.82538"><ele>2558.6336108278483</ele></trkpt><trkpt lat="38.61081" lon="-119.82565"><ele>2561.965351710096</ele></trkpt><trkpt lat="38.61081" lon="-119.82577"><ele>2564.249252018943</ele></trkpt><trkpt lat="38.61093" lon="-119.82583"><ele>2563.7314920015633</ele></trkpt><trkpt lat="38.61104" lon="-119.82611"><ele>2566.978921974713</ele></trkpt><trkpt lat="38.61103" lon="-119.82615"><ele>2567.705996628642</ele></trkpt><trkpt lat="38.61083" lon="-119.82626"><ele>2563.7810730624337</ele></trkpt><trkpt lat="38.61085" lon="-119.82639"><ele>2565.588515586393</ele></trkpt><trkpt lat="38.61089" lon="-119.8265"><ele>2566.0</ele></trkpt><trkpt lat="38.61085" lon="-119.82659"><ele>2565.7232876515463</ele></trkpt><trkpt lat="38.61092" lon="-119.82681"><ele>2567.4048738051206</ele></trkpt><trkpt lat="38.61086" lon="-119.82699"><ele>2566.999715464035</ele></trkpt><trkpt lat="38.61091" lon="-119.8271"><ele>2569.0</ele></trkpt><trkpt lat="38.61096" lon="-119.8271"><ele>2568.0021035572163</ele></trkpt><trkpt lat="38.61099" lon="-119.82715"><ele>2568.4394844449125</ele></trkpt><trkpt lat="38.61111" lon="-119.8271"><ele>2568.1093155560084</ele></trkpt><trkpt lat="38.61118" lon="-119.82711"><ele>2569.0</ele></trkpt><trkpt lat="38.61132" lon="-119.82744"><ele>2572.979440756114</ele></trkpt><trkpt lat="38.61139" lon="-119.82745"><ele>2575.7834819628138</ele></trkpt><trkpt lat="38.61149" lon="-119.82738"><ele>2576.0648094399703</ele></trkpt><trkpt lat="38.61155" lon="-119.82748"><ele>2577.68028355368</ele></trkpt><trkpt lat="38.61165" lon="-119.82756"><ele>2580.133098093793</ele></trkpt><trkpt lat="38.61173" lon="-119.82744"><ele>2580.8632264245794</ele></trkpt><trkpt lat="38.61178" lon="-119.82741"><ele>2580.556362667121</ele></trkpt><trkpt lat="38.61194" lon="-119.82752"><ele>2583.0</ele></trkpt><trkpt lat="38.61222" lon="-119.82727"><ele>2587.0</ele></trkpt><trkpt lat="38.6125" lon="-119.82722"><ele>2586.948861570354</ele></trkpt><trkpt lat="38.61261" lon="-119.82731"><ele>2589.896024888847</ele></trkpt><trkpt lat="38.6127" lon="-119.82731"><ele>2590.9747325121225</ele></trkpt><trkpt lat="38.61279" lon="-119.82744"><ele>2592.954464000184</ele></trkpt><trkpt lat="38.61285" lon="-119.82747"><ele>2594.247969649391</ele></trkpt><trkpt lat="38.61319" lon="-119.82753"><ele>2598.1460573816707</ele></trkpt><trkpt lat="38.61336" lon="-119.82769"><ele>2600.6530821313795</ele></trkpt><trkpt lat="38.6135" lon="-119.82774"><ele>2601.935477333609</ele></trkpt><trkpt lat="38.61353" lon="-119.82771"><ele>2601.0</ele></trkpt><trkpt lat="38.61352" lon="-119.82765"><ele>2601.9227230553515</ele></trkpt><trkpt lat="38.61338" lon="-119.82714"><ele>2605.313896374777</ele></trkpt><trkpt lat="38.61335" lon="-119.82693"><ele>2607.4266458871784</ele></trkpt><trkpt lat="38.61335" lon="-119.82652"><ele>2611.0</ele></trkpt><trkpt lat="38.61339" lon="-119.82645"><ele>2612.0</ele></trkpt><trkpt lat="38.6135" lon="-119.82635"><ele>2614.0</ele></trkpt><trkpt lat="38.61365" lon="-119.82633"><ele>2615.224714666605</ele></trkpt><trkpt lat="38.61387" lon="-119.82634"><ele>2616.833323393429</ele></trkpt><trkpt lat="38.61397" lon="-119.82646"><ele>2619.140644597794</ele></trkpt><trkpt lat="38.6141" lon="-119.82655"><ele>2621.477457777597</ele></trkpt><trkpt lat="38.6144" lon="-119.82662"><ele>2624.739694222808</ele></trkpt><trkpt lat="38.61455" lon="-119.82674"><ele>2627.3000385542314</ele></trkpt><trkpt lat="38.61474" lon="-119.82699"><ele>2630.0</ele></trkpt><trkpt lat="38.61484" lon="-119.82719"><ele>2633.0</ele></trkpt><trkpt lat="38.61498" lon="-119.8273"><ele>2635.0</ele></trkpt><trkpt lat="38.61534" lon="-119.82771"><ele>2642.0</ele></trkpt><trkpt lat="38.61544" lon="-119.82791"><ele>2643.8580515561625</ele></trkpt><trkpt lat="38.61547" lon="-119.82805"><ele>2645.3825244447216</ele></trkpt><trkpt lat="38.61528" lon="-119.82876"><ele>2654.0</ele></trkpt><trkpt lat="38.61532" lon="-119.82921"><ele>2657.0</ele></trkpt><trkpt lat="38.61543" lon="-119.82968"><ele>2657.0</ele></trkpt><trkpt lat="38.61546181904386" lon="-119.82974128112149"><ele>2657.0</ele></trkpt><trkpt lat="38.61548739650584" lon="-119.82979054125482"><ele>2657.0</ele></trkpt><trkpt lat="38.6157" lon="-119.8302"><ele>2654.0</ele></trkpt><trkpt lat="38.61583" lon="-119.83028"><ele>2651.558750620112</ele></trkpt><trkpt lat="38.61628" lon="-119.8308"><ele>2644.0</ele></trkpt><trkpt lat="38.61637" lon="-119.83097"><ele>2643.0</ele></trkpt><trkpt lat="38.61687" lon="-119.83171"><ele>2630.0</ele></trkpt><trkpt lat="38.61687" lon="-119.83171"><ele>2630.0</ele></trkpt><trkpt lat="38.61687" lon="-119.83171"><ele>2630.0</ele></trkpt><trkpt lat="38.616617275532825" lon="-119.83165206927617"><ele>2632.0</ele></trkpt><trkpt lat="38.616623391462056" lon="-119.83163126253643"><ele>2632.7185446489602</ele></trkpt><trkpt lat="38.6166" lon="-119.83162"><ele>2633.0</ele></trkpt><trkpt lat="38.61648" lon="-119.83162"><ele>2633.243416889105</ele></trkpt><trkpt lat="38.61612" lon="-119.8315"><ele>2638.8787897124894</ele></trkpt><trkpt lat="38.61584" lon="-119.83154"><ele>2642.0</ele></trkpt><trkpt lat="38.61501" lon="-119.83183"><ele>2652.2133905171972</ele></trkpt><trkpt lat="38.61497655523549" lon="-119.8318354603697"><ele>2652.6642567799427</ele></trkpt><trkpt lat="38.61497750800565" lon="-119.83183530483231"><ele>2652.6146782045253</ele></trkpt><trkpt lat="38.61452" lon="-119.83191"><ele>2659.5046413150203</ele></trkpt><trkpt lat="38.61404" lon="-119.8319"><ele>2665.1944711110555</ele></trkpt><trkpt lat="38.61364" lon="-119.83178"><ele>2670.0</ele></trkpt><trkpt lat="38.61312" lon="-119.83146"><ele>2677.9420307725886</ele></trkpt><trkpt lat="38.61242" lon="-119.8311"><ele>2687.0</ele></trkpt><trkpt lat="38.61164" lon="-119.83079"><ele>2690.0</ele></trkpt><trkpt lat="38.61148" lon="-119.83094"><ele>2692.0</ele></trkpt><trkpt lat="38.61113" lon="-119.83121"><ele>2694.308809801243</ele></trkpt><trkpt lat="38.6108" lon="-119.83163"><ele>2698.339141405653</ele></trkpt><trkpt lat="38.61056" lon="-119.83185"><ele>2699.4001313676126</ele></trkpt><trkpt lat="38.61034" lon="-119.83214"><ele>2703.9903045007704</ele></trkpt><trkpt lat="38.61038" lon="-119.83219"><ele>2705.641016888432</ele></trkpt><trkpt lat="38.61067" lon="-119.83232"><ele>2708.1193822430696</ele></trkpt><trkpt lat="38.61083" lon="-119.83261"><ele>2712.690592926784</ele></trkpt><trkpt lat="38.61097" lon="-119.83276"><ele>2712.93329922873</ele></trkpt><trkpt lat="38.61106" lon="-119.83299"><ele>2717.6032106671482</ele></trkpt><trkpt lat="38.6112" lon="-119.83321"><ele>2715.7054301053286</ele></trkpt><trkpt lat="38.61103" lon="-119.8336"><ele>2721.031271111686</ele></trkpt><trkpt lat="38.6113" lon="-119.83404"><ele>2726.8801717569745</ele></trkpt><trkpt lat="38.6114" lon="-119.83415"><ele>2726.9249505510534</ele></trkpt><trkpt lat="38.61145" lon="-119.83435"><ele>2729.7822794274452</ele></trkpt><trkpt lat="38.61144" lon="-119.83437"><ele>2730.358627400295</ele></trkpt><trkpt lat="38.61089" lon="-119.83397"><ele>2738.05328342041</ele></trkpt><trkpt lat="38.61068" lon="-119.83407"><ele>2743.934858666733</ele></trkpt><trkpt lat="38.61052" lon="-119.8342"><ele>2747.0</ele></trkpt><trkpt lat="38.60996" lon="-119.8338"><ele>2749.6480533331633</ele></trkpt><trkpt lat="38.60935" lon="-119.83361"><ele>2747.502695111092</ele></trkpt><trkpt lat="38.60909" lon="-119.83371"><ele>2750.388419000432</ele></trkpt><trkpt lat="38.60895" lon="-119.8341"><ele>2748.965221032205</ele></trkpt><trkpt lat="38.6088" lon="-119.83444"><ele>2748.6915430244453</ele></trkpt><trkpt lat="38.60875" lon="-119.83468"><ele>2749.9358913439232</ele></trkpt><trkpt lat="38.60876671022766" lon="-119.83485545739043"><ele>2749.446313273346</ele></trkpt><trkpt lat="38.60876844323348" lon="-119.83487365394947"><ele>2749.7234175466</ele></trkpt><trkpt lat="38.60875" lon="-119.83468"><ele>2749.9358913439232</ele></trkpt><trkpt lat="38.6088" lon="-119.83444"><ele>2748.6915430244453</ele></trkpt><trkpt lat="38.60895" lon="-119.8341"><ele>2748.965221032205</ele></trkpt><trkpt lat="38.60909" lon="-119.83371"><ele>2750.388419000432</ele></trkpt><trkpt lat="38.60935" lon="-119.83361"><ele>2747.502695111092</ele></trkpt><trkpt lat="38.60996" lon="-119.8338"><ele>2749.6480533331633</ele></trkpt><trkpt lat="38.610061210752654" lon="-119.83387229339475"><ele>2748.2789369472302</ele></trkpt><trkpt lat="38.61008519240231" lon="-119.83388942287353"><ele>2747.4806453762576</ele></trkpt><trkpt lat="38.61052" lon="-119.8342"><ele>2747.0</ele></trkpt><trkpt lat="38.61068" lon="-119.83407"><ele>2743.934858666733</ele></trkpt><trkpt lat="38.61089" lon="-119.83397"><ele>2738.05328342041</ele></trkpt><trkpt lat="38.61144" lon="-119.83437"><ele>2730.358627400295</ele></trkpt><trkpt lat="38.61145" lon="-119.83435"><ele>2729.7822794274452</ele></trkpt><trkpt lat="38.6114" lon="-119.83415"><ele>2726.9249505510534</ele></trkpt><trkpt lat="38.6113" lon="-119.83404"><ele>2726.8801717569745</ele></trkpt><trkpt lat="38.61103" lon="-119.8336"><ele>2721.031271111686</ele></trkpt><trkpt lat="38.6112" lon="-119.83321"><ele>2715.7054301053286</ele></trkpt><trkpt lat="38.61106" lon="-119.83299"><ele>2717.6032106671482</ele></trkpt><trkpt lat="38.61097" lon="-119.83276"><ele>2712.93329922873</ele></trkpt><trkpt lat="38.61083" lon="-119.83261"><ele>2712.690592926784</ele></trkpt><trkpt lat="38.61067" lon="-119.83232"><ele>2708.1193822430696</ele></trkpt><trkpt lat="38.61038" lon="-119.83219"><ele>2705.641016888432</ele></trkpt><trkpt lat="38.61034" lon="-119.83214"><ele>2703.9903045007704</ele></trkpt><trkpt lat="38.61056" lon="-119.83185"><ele>2699.4001313676126</ele></trkpt><trkpt lat="38.6108" lon="-119.83163"><ele>2698.339141405653</ele></trkpt><trkpt lat="38.61113" lon="-119.83121"><ele>2694.308809801243</ele></trkpt><trkpt lat="38.61148" lon="-119.83094"><ele>2692.0</ele></trkpt><trkpt lat="38.61164" lon="-119.83079"><ele>2690.0</ele></trkpt><trkpt lat="38.61242" lon="-119.8311"><ele>2687.0</ele></trkpt><trkpt lat="38.61312" lon="-119.83146"><ele>2677.9420307725886</ele></trkpt><trkpt lat="38.61364" lon="-119.83178"><ele>2670.0</ele></trkpt><trkpt lat="38.61404" lon="-119.8319"><ele>2665.1944711110555</ele></trkpt><trkpt lat="38.61452" lon="-119.83191"><ele>2659.5046413150203</ele></trkpt><trkpt lat="38.61481042692237" lon="-119.83186258342558"><ele>2655.0</ele></trkpt><trkpt lat="38.61501" lon="-119.83183"><ele>2652.2133905171972</ele></trkpt><trkpt lat="38.61584" lon="-119.83154"><ele>2642.0</ele></trkpt><trkpt lat="38.61593142983147" lon="-119.83152693859552"><ele>2640.793964694416</ele></trkpt><trkpt lat="38.61594676754437" lon="-119.83152474751208"><ele>2640.405519580735</ele></trkpt><trkpt lat="38.616116357541216" lon="-119.83150052035126"><ele>2638.901823017509</ele></trkpt><trkpt lat="38.61612672275725" lon="-119.83150224091357"><ele>2638.7313880803995</ele></trkpt><trkpt lat="38.616434348143734" lon="-119.83160478271458"><ele>2634.5123528018594</ele></trkpt><trkpt lat="38.61644343899952" lon="-119.83160781297235"><ele>2633.9943648971735</ele></trkpt><trkpt lat="38.61648" lon="-119.83162"><ele>2633.243416889105</ele></trkpt><trkpt lat="38.6166" lon="-119.83162"><ele>2633.0</ele></trkpt><trkpt lat="38.61680926643335" lon="-119.83172075791236"><ele>2630.0</ele></trkpt><trkpt lat="38.61687" lon="-119.83171"><ele>2630.0</ele></trkpt><trkpt lat="38.61687" lon="-119.83171"><ele>2630.0</ele></trkpt><trkpt lat="38.61687" lon="-119.83171"><ele>2630.0</ele></trkpt><trkpt lat="38.61655772323726" lon="-119.83124783039113"><ele>2638.0</ele></trkpt><trkpt lat="38.616561546387594" lon="-119.8312534880441"><ele>2637.949689433314</ele></trkpt><trkpt lat="38.61637" lon="-119.83097"><ele>2643.0</ele></trkpt><trkpt lat="38.61628" lon="-119.8308"><ele>2644.0</ele></trkpt><trkpt lat="38.61583" lon="-119.83028"><ele>2651.558750620112</ele></trkpt><trkpt lat="38.6157" lon="-119.8302"><ele>2654.0</ele></trkpt><trkpt lat="38.61543" lon="-119.82968"><ele>2657.0</ele></trkpt><trkpt lat="38.61532" lon="-119.82921"><ele>2657.0</ele></trkpt><trkpt lat="38.61528" lon="-119.82876"><ele>2654.0</ele></trkpt><trkpt lat="38.61547" lon="-119.82805"><ele>2645.3825244447216</ele></trkpt><trkpt lat="38.61544" lon="-119.82791"><ele>2643.8580515561625</ele></trkpt><trkpt lat="38.61534" lon="-119.82771"><ele>2642.0</ele></trkpt><trkpt lat="38.61498" lon="-119.8273"><ele>2635.0</ele></trkpt><trkpt lat="38.61484" lon="-119.82719"><ele>2633.0</ele></trkpt><trkpt lat="38.61482192001587" lon="-119.82715384003174"><ele>2632.6184428939596</ele></trkpt><trkpt lat="38.61480078419328" lon="-119.82711156835333"><ele>2631.98091672897</ele></trkpt><trkpt lat="38.61474" lon="-119.82699"><ele>2630.0</ele></trkpt><trkpt lat="38.61455" lon="-119.82674"><ele>2627.3000385542314</ele></trkpt><trkpt lat="38.6144" lon="-119.82662"><ele>2624.739694222808</ele></trkpt><trkpt lat="38.6141" lon="-119.82655"><ele>2621.477457777597</ele></trkpt><trkpt lat="38.61397" lon="-119.82646"><ele>2619.140644597794</ele></trkpt><trkpt lat="38.61387" lon="-119.82634"><ele>2616.833323393429</ele></trkpt><trkpt lat="38.61365" lon="-119.82633"><ele>2615.224714666605</ele></trkpt><trkpt lat="38.6135" lon="-119.82635"><ele>2614.0</ele></trkpt><trkpt lat="38.61339" lon="-119.82645"><ele>2612.0</ele></trkpt><trkpt lat="38.61335" lon="-119.82652"><ele>2611.0</ele></trkpt><trkpt lat="38.61335" lon="-119.82693"><ele>2607.4266458871784</ele></trkpt><trkpt lat="38.61338" lon="-119.82714"><ele>2605.313896374777</ele></trkpt><trkpt lat="38.61352" lon="-119.82765"><ele>2601.9227230553515</ele></trkpt><trkpt lat="38.61353" lon="-119.82771"><ele>2601.0</ele></trkpt><trkpt lat="38.6135" lon="-119.82774"><ele>2601.935477333609</ele></trkpt><trkpt lat="38.61336" lon="-119.82769"><ele>2600.6530821313795</ele></trkpt><trkpt lat="38.61319" lon="-119.82753"><ele>2598.1460573816707</ele></trkpt><trkpt lat="38.61285" lon="-119.82747"><ele>2594.247969649391</ele></trkpt><trkpt lat="38.61279" lon="-119.82744"><ele>2592.954464000184</ele></trkpt><trkpt lat="38.6127" lon="-119.82731"><ele>2590.9747325121225</ele></trkpt><trkpt lat="38.61261" lon="-119.82731"><ele>2589.896024888847</ele></trkpt><trkpt lat="38.6125" lon="-119.82722"><ele>2586.948861570354</ele></trkpt><trkpt lat="38.61222" lon="-119.82727"><ele>2587.0</ele></trkpt><trkpt lat="38.61194" lon="-119.82752"><ele>2583.0</ele></trkpt><trkpt lat="38.61178" lon="-119.82741"><ele>2580.556362667121</ele></trkpt><trkpt lat="38.61173" lon="-119.82744"><ele>2580.8632264245794</ele></trkpt><trkpt lat="38.61165" lon="-119.82756"><ele>2580.133098093793</ele></trkpt><trkpt lat="38.61155" lon="-119.82748"><ele>2577.68028355368</ele></trkpt><trkpt lat="38.61149" lon="-119.82738"><ele>2576.0648094399703</ele></trkpt><trkpt lat="38.61139" lon="-119.82745"><ele>2575.7834819628138</ele></trkpt><trkpt lat="38.61132" lon="-119.82744"><ele>2572.979440756114</ele></trkpt><trkpt lat="38.61118" lon="-119.82711"><ele>2569.0</ele></trkpt><trkpt lat="38.61111" lon="-119.8271"><ele>2568.1093155560084</ele></trkpt><trkpt lat="38.61099" lon="-119.82715"><ele>2568.4394844449125</ele></trkpt><trkpt lat="38.61096" lon="-119.8271"><ele>2568.0021035572163</ele></trkpt><trkpt lat="38.61091" lon="-119.8271"><ele>2569.0</ele></trkpt><trkpt lat="38.61086" lon="-119.82699"><ele>2566.999715464035</ele></trkpt><trkpt lat="38.61092" lon="-119.82681"><ele>2567.4048738051206</ele></trkpt><trkpt lat="38.61085" lon="-119.82659"><ele>2565.7232876515463</ele></trkpt><trkpt lat="38.61089" lon="-119.8265"><ele>2566.0</ele></trkpt><trkpt lat="38.61085" lon="-119.82639"><ele>2565.588515586393</ele></trkpt><trkpt lat="38.61083" lon="-119.82626"><ele>2563.7810730624337</ele></trkpt><trkpt lat="38.61103" lon="-119.82615"><ele>2567.705996628642</ele></trkpt><trkpt lat="38.61104" lon="-119.82611"><ele>2566.978921974713</ele></trkpt><trkpt lat="38.61093" lon="-119.82583"><ele>2563.7314920015633</ele></trkpt><trkpt lat="38.61081" lon="-119.82577"><ele>2564.249252018943</ele></trkpt><trkpt lat="38.61081" lon="-119.82565"><ele>2561.965351710096</ele></trkpt><trkpt lat="38.611" lon="-119.82538"><ele>2558.6336108278483</ele></trkpt><trkpt lat="38.61098" lon="-119.82493"><ele>2556.8264270685613</ele></trkpt><trkpt lat="38.61099" lon="-119.82465"><ele>2558.0</ele></trkpt><trkpt lat="38.6109" lon="-119.8243"><ele>2561.0</ele></trkpt><trkpt lat="38.61066" lon="-119.82415"><ele>2562.0</ele></trkpt><trkpt lat="38.6104" lon="-119.82415"><ele>2562.629351111129</ele></trkpt><trkpt lat="38.61019" lon="-119.82433"><ele>2561.0179591109045</ele></trkpt><trkpt lat="38.61003" lon="-119.82428"><ele>2560.687790222466</ele></trkpt><trkpt lat="38.6099" lon="-119.82419"><ele>2560.7314966493286</ele></trkpt><trkpt lat="38.60967" lon="-119.82427"><ele>2561.2217564443126</ele></trkpt><trkpt lat="38.60942" lon="-119.82427"><ele>2558.2217564443126</ele></trkpt><trkpt lat="38.60894" lon="-119.8244"><ele>2555.14235692903</ele></trkpt><trkpt lat="38.6089" lon="-119.82433"><ele>2552.861741755853</ele></trkpt><trkpt lat="38.60897" lon="-119.82411"><ele>2554.7725499622998</ele></trkpt><trkpt lat="38.60926" lon="-119.82365"><ele>2559.7520556375384</ele></trkpt><trkpt lat="38.60954" lon="-119.82332"><ele>2565.0514524444006</ele></trkpt><trkpt lat="38.60955" lon="-119.82323"><ele>2567.7542435554788</ele></trkpt><trkpt lat="38.60929" lon="-119.82322"><ele>2571.1781708485814</ele></trkpt><trkpt lat="38.60897" lon="-119.82315"><ele>2576.0</ele></trkpt><trkpt lat="38.60875" lon="-119.82299"><ele>2576.0</ele></trkpt><trkpt lat="38.60862" lon="-119.8228"><ele>2578.576409270987</ele></trkpt><trkpt lat="38.60843" lon="-119.82233"><ele>2580.7363897152295</ele></trkpt><trkpt lat="38.60818" lon="-119.82205"><ele>2584.623084253729</ele></trkpt><trkpt lat="38.60814" lon="-119.82181"><ele>2585.2029577344656</ele></trkpt><trkpt lat="38.60806" lon="-119.82168"><ele>2586.9865216354124</ele></trkpt><trkpt lat="38.60834" lon="-119.82138"><ele>2586.6100897003844</ele></trkpt><trkpt lat="38.60864" lon="-119.82093"><ele>2591.166314303723</ele></trkpt><trkpt lat="38.60873" lon="-119.82073"><ele>2594.0121664729522</ele></trkpt><trkpt lat="38.60874" lon="-119.82059"><ele>2596.116971152322</ele></trkpt><trkpt lat="38.60871" lon="-119.82039"><ele>2597.208910111338</ele></trkpt><trkpt lat="38.60863" lon="-119.82024"><ele>2599.9800208061934</ele></trkpt><trkpt lat="38.60839" lon="-119.81995"><ele>2602.9259149119725</ele></trkpt><trkpt lat="38.60826" lon="-119.8197"><ele>2606.011321439727</ele></trkpt><trkpt lat="38.60821" lon="-119.81888"><ele>2612.0</ele></trkpt><trkpt lat="38.60832" lon="-119.81838"><ele>2615.127367564409</ele></trkpt><trkpt lat="38.60836" lon="-119.81806"><ele>2618.2524227497224</ele></trkpt><trkpt lat="38.60832" lon="-119.81781"><ele>2620.555234438365</ele></trkpt><trkpt lat="38.60823" lon="-119.81755"><ele>2623.0</ele></trkpt><trkpt lat="38.60815" lon="-119.81741"><ele>2624.6065732631832</ele></trkpt><trkpt lat="38.60795" lon="-119.81722"><ele>2626.0</ele></trkpt><trkpt lat="38.60784" lon="-119.81715"><ele>2625.9055467229337</ele></trkpt><trkpt lat="38.60761" lon="-119.81716"><ele>2622.871740445029</ele></trkpt><trkpt lat="38.60748" lon="-119.81727"><ele>2622.4350279218934</ele></trkpt><trkpt lat="38.60742" lon="-119.81743"><ele>2621.31223107595</ele></trkpt><trkpt lat="38.60728" lon="-119.81748"><ele>2618.2931098472327</ele></trkpt><trkpt lat="38.60725" lon="-119.81761"><ele>2617.6064366823193</ele></trkpt><trkpt lat="38.60714" lon="-119.81768"><ele>2618.1054968889803</ele></trkpt><trkpt lat="38.60691" lon="-119.81771"><ele>2615.723199375534</ele></trkpt><trkpt lat="38.60669" lon="-119.81764"><ele>2612.0777603539773</ele></trkpt><trkpt lat="38.60647" lon="-119.81781"><ele>2609.1639359998517</ele></trkpt><trkpt lat="38.60619" lon="-119.81774"><ele>2609.901699555572</ele></trkpt><trkpt lat="38.60571" lon="-119.81776"><ele>2604.9797327684364</ele></trkpt><trkpt lat="38.60544" lon="-119.81745"><ele>2602.2237247694284</ele></trkpt><trkpt lat="38.60536" lon="-119.81729"><ele>2600.9247975973412</ele></trkpt><trkpt lat="38.60524" lon="-119.81712"><ele>2598.1574053009176</ele></trkpt><trkpt lat="38.60516" lon="-119.81703"><ele>2597.735129285138</ele></trkpt><trkpt lat="38.60504" lon="-119.817"><ele>2595.4933379394934</ele></trkpt><trkpt lat="38.60495" lon="-119.81689"><ele>2593.7341910251416</ele></trkpt><trkpt lat="38.60495" lon="-119.81689"><ele>2593.7341910251416</ele></trkpt><trkpt lat="38.60465" lon="-119.81674"><ele>2590.100254841328</ele></trkpt><trkpt lat="38.60455" lon="-119.81677"><ele>2589.605467569081</ele></trkpt><trkpt lat="38.60438" lon="-119.81657"><ele>2584.81337653473</ele></trkpt><trkpt lat="38.6042" lon="-119.8166"><ele>2581.945821690839</ele></trkpt><trkpt lat="38.604" lon="-119.81652"><ele>2580.045578666497</ele></trkpt><trkpt lat="38.60378" lon="-119.81665"><ele>2578.0227456030652</ele></trkpt><trkpt lat="38.60368" lon="-119.81665"><ele>2577.208035555668</ele></trkpt><trkpt lat="38.60355" lon="-119.81657"><ele>2575.375747555867</ele></trkpt><trkpt lat="38.60332" lon="-119.8166"><ele>2572.123249427881</ele></trkpt><trkpt lat="38.6031" lon="-119.81677"><ele>2571.160068969528</ele></trkpt><trkpt lat="38.6029" lon="-119.81681"><ele>2568.5605582227</ele></trkpt><trkpt lat="38.60283" lon="-119.81689"><ele>2567.4174544201232</ele></trkpt><trkpt lat="38.60283" lon="-119.81689"><ele>2567.4174544201232</ele></trkpt><trkpt lat="38.60277" lon="-119.81697"><ele>2565.5582700452146</ele></trkpt><trkpt lat="38.60258" lon="-119.81702"><ele>2562.3472675555386</ele></trkpt><trkpt lat="38.60227" lon="-119.81696"><ele>2559.551064888481</ele></trkpt><trkpt lat="38.60216" lon="-119.81696"><ele>2557.629185092025</ele></trkpt><trkpt lat="38.60203" lon="-119.81701"><ele>2557.302901484538</ele></trkpt><trkpt lat="38.60161" lon="-119.81729"><ele>2547.9564130163444</ele></trkpt><trkpt lat="38.60139" lon="-119.81756"><ele>2543.5130915557966</ele></trkpt><trkpt lat="38.60128" lon="-119.81754"><ele>2541.404902435996</ele></trkpt><trkpt lat="38.60117" lon="-119.81772"><ele>2540.1331117315385</ele></trkpt><trkpt lat="38.60107" lon="-119.81777"><ele>2539.299800888635</ele></trkpt><trkpt lat="38.60078" lon="-119.81775"><ele>2537.6915629889727</ele></trkpt><trkpt lat="38.60063" lon="-119.81777"><ele>2536.2548273314433</ele></trkpt><trkpt lat="38.60049" lon="-119.81784"><ele>2534.149307494983</ele></trkpt><trkpt lat="38.60033187309215" lon="-119.81800111043441"><ele>2533.228170969058</ele></trkpt><trkpt lat="38.600320698361095" lon="-119.81801249644293"><ele>2533.2953522942994</ele></trkpt><trkpt lat="38.59996" lon="-119.81838"><ele>2527.7102426602505</ele></trkpt><trkpt lat="38.59981" lon="-119.81839"><ele>2523.0072989562727</ele></trkpt><trkpt lat="38.5997" lon="-119.81851"><ele>2522.478181563318</ele></trkpt><trkpt lat="38.5997" lon="-119.81851"><ele>2522.478181563318</ele></trkpt><trkpt lat="38.59958" lon="-119.81868"><ele>2521.7088746670634</ele></trkpt><trkpt lat="38.5993" lon="-119.81888"><ele>2516.0184888711237</ele></trkpt><trkpt lat="38.59915" lon="-119.81923"><ele>2514.470728459315</ele></trkpt><trkpt lat="38.59899" lon="-119.81941"><ele>2511.767253351802</ele></trkpt><trkpt lat="38.59887" lon="-119.81946"><ele>2509.0</ele></trkpt><trkpt lat="38.59859" lon="-119.81988"><ele>2505.9207345927134</ele></trkpt><trkpt lat="38.59838" lon="-119.81997"><ele>2500.592650369741</ele></trkpt><trkpt lat="38.59832" lon="-119.82027"><ele>2500.187599889934</ele></trkpt><trkpt lat="38.59821" lon="-119.82033"><ele>2499.232721781358</ele></trkpt><trkpt lat="38.59817" lon="-119.82054"><ele>2498.243066780269</ele></trkpt><trkpt lat="38.59811" lon="-119.82069"><ele>2499.71640523104</ele></trkpt><trkpt lat="38.59787" lon="-119.82069"><ele>2498.354056634009</ele></trkpt><trkpt lat="38.59773" lon="-119.8208"><ele>2498.0</ele></trkpt><trkpt lat="38.59754" lon="-119.82067"><ele>2494.0</ele></trkpt><trkpt lat="38.59745" lon="-119.82056"><ele>2491.0</ele></trkpt><trkpt lat="38.59716" lon="-119.82065"><ele>2487.525745608035</ele></trkpt><trkpt lat="38.59685" lon="-119.82095"><ele>2483.5319813955575</ele></trkpt><trkpt lat="38.59669" lon="-119.82167"><ele>2479.0004586440714</ele></trkpt><trkpt lat="38.59659" lon="-119.82162"><ele>2480.97154661268</ele></trkpt><trkpt lat="38.5966" lon="-119.82149"><ele>2483.0</ele></trkpt><trkpt lat="38.59654" lon="-119.82134"><ele>2483.0</ele></trkpt><trkpt lat="38.59638" lon="-119.82137"><ele>2484.0</ele></trkpt><trkpt lat="38.59639" lon="-119.82111"><ele>2486.8523818412796</ele></trkpt><trkpt lat="38.5963" lon="-119.82102"><ele>2487.2007519830013</ele></trkpt><trkpt lat="38.59629" lon="-119.82069"><ele>2489.9466292489033</ele></trkpt><trkpt lat="38.59652" lon="-119.82007"><ele>2496.583402726352</ele></trkpt><trkpt lat="38.59644" lon="-119.82003"><ele>2498.9475467926154</ele></trkpt><trkpt lat="38.59628" lon="-119.82017"><ele>2499.8520924439654</ele></trkpt><trkpt lat="38.5959" lon="-119.82028"><ele>2505.7257208884694</ele></trkpt><trkpt lat="38.5957" lon="-119.82027"><ele>2508.1917546666227</ele></trkpt><trkpt lat="38.59559" lon="-119.82052"><ele>2510.816353599565</ele></trkpt><trkpt lat="38.59535" lon="-119.82067"><ele>2513.9598406426985</ele></trkpt><trkpt lat="38.59521" lon="-119.8207"><ele>2516.258562957868</ele></trkpt><trkpt lat="38.59502" lon="-119.82086"><ele>2518.587810881436</ele></trkpt><trkpt lat="38.59468" lon="-119.82131"><ele>2526.275758222677</ele></trkpt><trkpt lat="38.59475" lon="-119.82143"><ele>2529.596616645483</ele></trkpt><trkpt lat="38.59462" lon="-119.82165"><ele>2532.506618651058</ele></trkpt><trkpt lat="38.5947" lon="-119.82201"><ele>2538.60046838973</ele></trkpt><trkpt lat="38.59441" lon="-119.82183"><ele>2543.489366830361</ele></trkpt><trkpt lat="38.59429" lon="-119.8216"><ele>2548.9064328130335</ele></trkpt><trkpt lat="38.59411" lon="-119.82154"><ele>2552.9937073443893</ele></trkpt><trkpt lat="38.59402" lon="-119.82132"><ele>2556.797290533995</ele></trkpt><trkpt lat="38.59392" lon="-119.82123"><ele>2558.0</ele></trkpt><trkpt lat="38.59389" lon="-119.82114"><ele>2558.0</ele></trkpt><trkpt lat="38.5941" lon="-119.82103"><ele>2558.343912098354</ele></trkpt><trkpt lat="38.59402" lon="-119.82078"><ele>2564.214937314391</ele></trkpt><trkpt lat="38.59407" lon="-119.82031"><ele>2567.5612202775665</ele></trkpt><trkpt lat="38.59323" lon="-119.82103"><ele>2583.247249862826</ele></trkpt><trkpt lat="38.59311" lon="-119.82099"><ele>2582.697335116757</ele></trkpt><trkpt lat="38.59295" lon="-119.82111"><ele>2580.940715581102</ele></trkpt><trkpt lat="38.59251" lon="-119.82116"><ele>2573.2852515559644</ele></trkpt><trkpt lat="38.59228" lon="-119.82112"><ele>2569.456959066447</ele></trkpt><trkpt lat="38.59202" lon="-119.8212"><ele>2568.149386667181</ele></trkpt><trkpt lat="38.59189" lon="-119.82136"><ele>2566.91411262222</ele></trkpt><trkpt lat="38.59165" lon="-119.82147"><ele>2564.732298667077</ele></trkpt><trkpt lat="38.59132" lon="-119.82138"><ele>2563.428227606214</ele></trkpt><trkpt lat="38.59121" lon="-119.82141"><ele>2561.951259361579</ele></trkpt><trkpt lat="38.59093" lon="-119.82159"><ele>2559.324703999795</ele></trkpt><trkpt lat="38.59077" lon="-119.82165"><ele>2558.0</ele></trkpt><trkpt lat="38.59069" lon="-119.82181"><ele>2557.1343832091316</ele></trkpt><trkpt lat="38.59064" lon="-119.82185"><ele>2557.111068205806</ele></trkpt><trkpt lat="38.59057" lon="-119.82186"><ele>2557.0</ele></trkpt><trkpt lat="38.5905" lon="-119.82193"><ele>2555.9041848517954</ele></trkpt><trkpt lat="38.59049" lon="-119.82205"><ele>2554.307947019115</ele></trkpt><trkpt lat="38.59033" lon="-119.82212"><ele>2555.0</ele></trkpt><trkpt lat="38.59008" lon="-119.82238"><ele>2553.1219008294242</ele></trkpt><trkpt lat="38.59001" lon="-119.82253"><ele>2553.1318791112863</ele></trkpt><trkpt lat="38.58994" lon="-119.8226"><ele>2553.0</ele></trkpt><trkpt lat="38.58989" lon="-119.82258"><ele>2554.0</ele></trkpt><trkpt lat="38.58986" lon="-119.82242"><ele>2553.2548692133278</ele></trkpt><trkpt lat="38.58976" lon="-119.82237"><ele>2554.7458520841374</ele></trkpt><trkpt lat="38.58964" lon="-119.82222"><ele>2554.254733870705</ele></trkpt><trkpt lat="38.58957" lon="-119.82221"><ele>2555.0</ele></trkpt><trkpt lat="38.58928" lon="-119.82234"><ele>2555.322643772971</ele></trkpt><trkpt lat="38.5892" lon="-119.82249"><ele>2554.3939625285566</ele></trkpt><trkpt lat="38.58909" lon="-119.82255"><ele>2557.0</ele></trkpt><trkpt lat="38.589" lon="-119.82266"><ele>2557.5704132106093</ele></trkpt><trkpt lat="38.58872" lon="-119.82287"><ele>2559.0</ele></trkpt><trkpt lat="38.58867" lon="-119.82304"><ele>2558.814721454499</ele></trkpt><trkpt lat="38.5888" lon="-119.82337"><ele>2558.9380060500216</ele></trkpt><trkpt lat="38.5886" lon="-119.82447"><ele>2558.0</ele></trkpt><trkpt lat="38.58868" lon="-119.82458"><ele>2555.7389883481264</ele></trkpt><trkpt lat="38.58882" lon="-119.82455"><ele>2555.800385975005</ele></trkpt><trkpt lat="38.58899" lon="-119.82446"><ele>2555.9236017777584</ele></trkpt><trkpt lat="38.58919" lon="-119.8244"><ele>2554.0</ele></trkpt><trkpt lat="38.58926" lon="-119.82453"><ele>2555.971326513216</ele></trkpt><trkpt lat="38.58919" lon="-119.82517"><ele>2555.0</ele></trkpt><trkpt lat="38.58923" lon="-119.82532"><ele>2554.0283652041517</ele></trkpt><trkpt lat="38.58913" lon="-119.82553"><ele>2553.2203749921173</ele></trkpt><trkpt lat="38.58897" lon="-119.82578"><ele>2551.0</ele></trkpt><trkpt lat="38.58894" lon="-119.82595"><ele>2550.8920864704996</ele></trkpt><trkpt lat="38.58895" lon="-119.82624"><ele>2550.0</ele></trkpt><trkpt lat="38.58908" lon="-119.82649"><ele>2550.0762576510297</ele></trkpt><trkpt lat="38.58911" lon="-119.82666"><ele>2549.4130308824365</ele></trkpt><trkpt lat="38.58907" lon="-119.82681"><ele>2549.787832438259</ele></trkpt><trkpt lat="38.58913" lon="-119.82706"><ele>2548.2203749921173</ele></trkpt><trkpt lat="38.58906" lon="-119.82715"><ele>2549.4394844449125</ele></trkpt><trkpt lat="38.58896" lon="-119.82718"><ele>2551.0</ele></trkpt><trkpt lat="38.5889" lon="-119.82724"><ele>2550.8195263462285</ele></trkpt><trkpt lat="38.58891" lon="-119.82738"><ele>2551.103412074968</ele></trkpt><trkpt lat="38.58895" lon="-119.82745"><ele>2551.579502222594</ele></trkpt><trkpt lat="38.58907" lon="-119.82755"><ele>2551.591038806542</ele></trkpt><trkpt lat="38.58917" lon="-119.82758"><ele>2552.0</ele></trkpt><trkpt lat="38.58922" lon="-119.82765"><ele>2553.4346365386054</ele></trkpt><trkpt lat="38.58918" lon="-119.82781"><ele>2554.3593812962263</ele></trkpt><trkpt lat="38.58911" lon="-119.82785"><ele>2554.0880440901515</ele></trkpt><trkpt lat="38.58882" lon="-119.82788"><ele>2556.0</ele></trkpt><trkpt lat="38.58861" lon="-119.82822"><ele>2558.0</ele></trkpt><trkpt lat="38.58843" lon="-119.82825"><ele>2560.0</ele></trkpt><trkpt lat="38.58812" lon="-119.82844"><ele>2562.557841778267</ele></trkpt><trkpt lat="38.58785" lon="-119.82868"><ele>2564.671404717385</ele></trkpt><trkpt lat="38.58757" lon="-119.82951"><ele>2572.0</ele></trkpt><trkpt lat="38.58749" lon="-119.82967"><ele>2572.9328394794948</ele></trkpt><trkpt lat="38.58734" lon="-119.8298"><ele>2573.0</ele></trkpt><trkpt lat="38.5873" lon="-119.8299"><ele>2573.0672517026205</ele></trkpt><trkpt lat="38.58735" lon="-119.83005"><ele>2574.0933733582497</ele></trkpt><trkpt lat="38.58733" lon="-119.83014"><ele>2573.0</ele></trkpt><trkpt lat="38.58729" lon="-119.83017"><ele>2574.0</ele></trkpt><trkpt lat="38.58711" lon="-119.8301"><ele>2575.0</ele></trkpt><trkpt lat="38.587" lon="-119.83037"><ele>2577.1135405947725</ele></trkpt><trkpt lat="38.58654" lon="-119.83092"><ele>2581.134218667168</ele></trkpt><trkpt lat="38.58611" lon="-119.83119"><ele>2582.1174361511867</ele></trkpt><trkpt lat="38.58587" lon="-119.83142"><ele>2579.0</ele></trkpt><trkpt lat="38.58577" lon="-119.83146"><ele>2578.0</ele></trkpt><trkpt lat="38.58568" lon="-119.83172"><ele>2575.3073840698853</ele></trkpt><trkpt lat="38.58569" lon="-119.83187"><ele>2573.0731067061242</ele></trkpt><trkpt lat="38.58576" lon="-119.83193"><ele>2571.856798951603</ele></trkpt><trkpt lat="38.58586" lon="-119.83193"><ele>2573.0</ele></trkpt><trkpt lat="38.58588" lon="-119.83199"><ele>2574.0</ele></trkpt><trkpt lat="38.58584" lon="-119.8321"><ele>2574.1841809261277</ele></trkpt><trkpt lat="38.58577" lon="-119.83216"><ele>2574.922407111153</ele></trkpt><trkpt lat="38.58571" lon="-119.83218"><ele>2575.584659076095</ele></trkpt><trkpt lat="38.58556" lon="-119.83215"><ele>2579.2862348051176</ele></trkpt><trkpt lat="38.58546" lon="-119.83217"><ele>2579.0</ele></trkpt><trkpt lat="38.58535" lon="-119.83235"><ele>2580.967157042385</ele></trkpt><trkpt lat="38.58519" lon="-119.83244"><ele>2582.0</ele></trkpt><trkpt lat="38.58514" lon="-119.83244"><ele>2582.0</ele></trkpt><trkpt lat="38.58505" lon="-119.83255"><ele>2582.9701110230385</ele></trkpt><trkpt lat="38.58498" lon="-119.83272"><ele>2583.0</ele></trkpt><trkpt lat="38.58481" lon="-119.83335"><ele>2585.3804266666993</ele></trkpt><trkpt lat="38.58464" lon="-119.83323"><ele>2587.0</ele></trkpt><trkpt lat="38.5845" lon="-119.8334"><ele>2589.0</ele></trkpt><trkpt lat="38.58443" lon="-119.83356"><ele>2590.000516558542</ele></trkpt><trkpt lat="38.58443" lon="-119.83361"><ele>2590.0030906479806</ele></trkpt><trkpt lat="38.58412" lon="-119.83351"><ele>2592.0</ele></trkpt><trkpt lat="38.58398" lon="-119.8336"><ele>2592.200545097593</ele></trkpt><trkpt lat="38.58392" lon="-119.8336"><ele>2592.0125823292383</ele></trkpt><trkpt lat="38.58384" lon="-119.83351"><ele>2593.0</ele></trkpt><trkpt lat="38.58367" lon="-119.83353"><ele>2594.0</ele></trkpt><trkpt lat="38.58334" lon="-119.83329"><ele>2596.584224000573</ele></trkpt><trkpt lat="38.58338" lon="-119.83318"><ele>2596.815090242948</ele></trkpt><trkpt lat="38.58337" lon="-119.83313"><ele>2597.8968719726067</ele></trkpt><trkpt lat="38.58325" lon="-119.83296"><ele>2599.480502113375</ele></trkpt><trkpt lat="38.58324" lon="-119.83288"><ele>2600.0</ele></trkpt><trkpt lat="38.58308" lon="-119.83273"><ele>2602.4814622420818</ele></trkpt><trkpt lat="38.5831" lon="-119.83244"><ele>2604.0</ele></trkpt><trkpt lat="38.58315" lon="-119.83238"><ele>2604.824849777855</ele></trkpt><trkpt lat="38.58328" lon="-119.83232"><ele>2604.832474956949</ele></trkpt><trkpt lat="38.58332" lon="-119.83219"><ele>2607.0</ele></trkpt><trkpt lat="38.58344" lon="-119.83152"><ele>2610.0172280408883</ele></trkpt><trkpt lat="38.58346" lon="-119.83148"><ele>2610.1330721846216</ele></trkpt><trkpt lat="38.58353" lon="-119.83146"><ele>2610.699957332574</ele></trkpt><trkpt lat="38.58387" lon="-119.83089"><ele>2617.1011403910834</ele></trkpt><trkpt lat="38.58386" lon="-119.83073"><ele>2619.0</ele></trkpt><trkpt lat="38.58393" lon="-119.8305"><ele>2621.891305421471</ele></trkpt><trkpt lat="38.58386" lon="-119.83032"><ele>2624.0</ele></trkpt><trkpt lat="38.58386" lon="-119.83032"><ele>2624.0</ele></trkpt><trkpt lat="38.58386" lon="-119.83032"><ele>2624.0</ele></trkpt><trkpt lat="38.58377" lon="-119.83033"><ele>2625.0</ele></trkpt><trkpt lat="38.58354" lon="-119.83043"><ele>2627.0</ele></trkpt><trkpt lat="38.58336" lon="-119.83045"><ele>2629.0</ele></trkpt><trkpt lat="38.58326" lon="-119.83049"><ele>2630.0</ele></trkpt><trkpt lat="38.58278" lon="-119.83089"><ele>2632.8328865313056</ele></trkpt><trkpt lat="38.58253" lon="-119.83116"><ele>2638.0</ele></trkpt><trkpt lat="38.58253" lon="-119.83116"><ele>2638.0</ele></trkpt><trkpt lat="38.58244" lon="-119.83124"><ele>2639.0</ele></trkpt><trkpt lat="38.58236" lon="-119.83127"><ele>2640.0</ele></trkpt><trkpt lat="38.58217" lon="-119.83122"><ele>2640.969251386231</ele></trkpt><trkpt lat="38.58203" lon="-119.83122"><ele>2643.0</ele></trkpt><trkpt lat="38.58194" lon="-119.83131"><ele>2644.0</ele></trkpt><trkpt lat="38.58182" lon="-119.8315"><ele>2645.599013276398</ele></trkpt><trkpt lat="38.58176" lon="-119.83156"><ele>2647.0</ele></trkpt><trkpt lat="38.58167" lon="-119.83159"><ele>2647.835632911908</ele></trkpt><trkpt lat="38.58167" lon="-119.83159"><ele>2647.835632911908</ele></trkpt><trkpt lat="38.58167" lon="-119.83159"><ele>2647.835632911908</ele></trkpt><trkpt lat="38.58148" lon="-119.83163"><ele>2650.0</ele></trkpt><trkpt lat="38.58121" lon="-119.83159"><ele>2653.0</ele></trkpt><trkpt lat="38.58081" lon="-119.83175"><ele>2652.0</ele></trkpt><trkpt lat="38.58053" lon="-119.8317"><ele>2648.0</ele></trkpt><trkpt lat="38.58037" lon="-119.83176"><ele>2647.2810560003854</ele></trkpt><trkpt lat="38.58025" lon="-119.83177"><ele>2646.0</ele></trkpt><trkpt lat="38.57994" lon="-119.83209"><ele>2645.213420806218</ele></trkpt><trkpt lat="38.57987" lon="-119.83205"><ele>2644.796035555657</ele></trkpt><trkpt lat="38.57977" lon="-119.83189"><ele>2642.8753364635477</ele></trkpt><trkpt lat="38.57964" lon="-119.83185"><ele>2643.4753600000404</ele></trkpt><trkpt lat="38.57956" lon="-119.83178"><ele>2642.473081265849</ele></trkpt><trkpt lat="38.5795" lon="-119.83166"><ele>2640.0</ele></trkpt><trkpt lat="38.57919" lon="-119.83139"><ele>2638.0</ele></trkpt><trkpt lat="38.57897" lon="-119.83149"><ele>2636.848197161905</ele></trkpt><trkpt lat="38.57858" lon="-119.83131"><ele>2634.3095359997824</ele></trkpt><trkpt lat="38.57819" lon="-119.83121"><ele>2632.6491982224397</ele></trkpt><trkpt lat="38.57805107653101" lon="-119.83124638471807"><ele>2632.344848983921</ele></trkpt><trkpt lat="38.5780606716941" lon="-119.8312438717677"><ele>2632.450574565465</ele></trkpt><trkpt lat="38.57777" lon="-119.83132"><ele>2630.0</ele></trkpt><trkpt lat="38.57764" lon="-119.83131"><ele>2628.0652902090733</ele></trkpt><trkpt lat="38.57752" lon="-119.83138"><ele>2628.0</ele></trkpt><trkpt lat="38.57745" lon="-119.83138"><ele>2628.0</ele></trkpt><trkpt lat="38.57739" lon="-119.83149"><ele>2628.0</ele></trkpt><trkpt lat="38.57729" lon="-119.83147"><ele>2627.6536089517176</ele></trkpt><trkpt lat="38.57663" lon="-119.83172"><ele>2634.0</ele></trkpt><trkpt lat="38.57646" lon="-119.83182"><ele>2634.0772586665116</ele></trkpt><trkpt lat="38.57641" lon="-119.8318"><ele>2634.0163442000603</ele></trkpt><trkpt lat="38.57619" lon="-119.83187"><ele>2634.4074275558814</ele></trkpt><trkpt lat="38.57604" lon="-119.83198"><ele>2635.921218075531</ele></trkpt><trkpt lat="38.57598" lon="-119.83208"><ele>2637.0</ele></trkpt><trkpt lat="38.57575" lon="-119.83218"><ele>2637.0</ele></trkpt><trkpt lat="38.57553" lon="-119.83221"><ele>2637.5708889104426</ele></trkpt><trkpt lat="38.57525" lon="-119.8321"><ele>2637.3551715211147</ele></trkpt><trkpt lat="38.57514" lon="-119.83214"><ele>2638.1789974934236</ele></trkpt><trkpt lat="38.57497" lon="-119.83215"><ele>2638.4349788889244</ele></trkpt><trkpt lat="38.57476" lon="-119.83205"><ele>2637.796035555657</ele></trkpt><trkpt lat="38.57461" lon="-119.83209"><ele>2639.272643555265</ele></trkpt><trkpt lat="38.57451" lon="-119.83206"><ele>2640.0</ele></trkpt><trkpt lat="38.57424" lon="-119.83192"><ele>2640.0</ele></trkpt><trkpt lat="38.57404" lon="-119.83191"><ele>2640.715257409894</ele></trkpt><trkpt lat="38.57374" lon="-119.83198"><ele>2640.5337991113774</ele></trkpt><trkpt lat="38.57363" lon="-119.83198"><ele>2640.0</ele></trkpt><trkpt lat="38.57343" lon="-119.83175"><ele>2640.0</ele></trkpt><trkpt lat="38.57337" lon="-119.83153"><ele>2639.0</ele></trkpt><trkpt lat="38.57337" lon="-119.83129"><ele>2638.0</ele></trkpt><trkpt lat="38.57343" lon="-119.83105"><ele>2636.7529165092856</ele></trkpt><trkpt lat="38.57324" lon="-119.83084"><ele>2636.4059484447353</ele></trkpt><trkpt lat="38.57314" lon="-119.83082"><ele>2634.494752487682</ele></trkpt><trkpt lat="38.57319" lon="-119.83057"><ele>2636.0</ele></trkpt><trkpt lat="38.57308" lon="-119.83038"><ele>2636.0</ele></trkpt><trkpt lat="38.57308" lon="-119.8302"><ele>2636.0</ele></trkpt><trkpt lat="38.57303" lon="-119.83"><ele>2635.0</ele></trkpt><trkpt lat="38.57313" lon="-119.82974"><ele>2637.0</ele></trkpt><trkpt lat="38.57312" lon="-119.82939"><ele>2639.0391722953923</ele></trkpt><trkpt lat="38.57318" lon="-119.82918"><ele>2639.9847153250903</ele></trkpt><trkpt lat="38.5733" lon="-119.82902"><ele>2640.412199110724</ele></trkpt><trkpt lat="38.57332" lon="-119.82873"><ele>2645.0</ele></trkpt><trkpt lat="38.57346" lon="-119.82817"><ele>2651.0</ele></trkpt><trkpt lat="38.57356" lon="-119.82807"><ele>2651.686559139568</ele></trkpt><trkpt lat="38.57363" lon="-119.82793"><ele>2653.1744060445094</ele></trkpt><trkpt lat="38.57364" lon="-119.82785"><ele>2654.9526780799524</ele></trkpt><trkpt lat="38.57359" lon="-119.82778"><ele>2656.0</ele></trkpt><trkpt lat="38.57299" lon="-119.82778"><ele>2661.599224889651</ele></trkpt><trkpt lat="38.57256" lon="-119.82791"><ele>2663.2450813306496</ele></trkpt><trkpt lat="38.57211" lon="-119.82827"><ele>2665.6352675557137</ele></trkpt><trkpt lat="38.57179" lon="-119.8283"><ele>2667.0333688887767</ele></trkpt><trkpt lat="38.57144" lon="-119.82884"><ele>2671.7001669175747</ele></trkpt><trkpt lat="38.57129" lon="-119.82879"><ele>2670.1846233257093</ele></trkpt><trkpt lat="38.5712" lon="-119.82862"><ele>2672.6438714826736</ele></trkpt><trkpt lat="38.57113" lon="-119.82856"><ele>2672.150247111451</ele></trkpt><trkpt lat="38.57101" lon="-119.82862"><ele>2674.946141183481</ele></trkpt><trkpt lat="38.57086" lon="-119.82864"><ele>2673.8785173329525</ele></trkpt><trkpt lat="38.57068" lon="-119.82865"><ele>2676.0</ele></trkpt><trkpt lat="38.57049" lon="-119.82862"><ele>2674.9464497780427</ele></trkpt><trkpt lat="38.57034" lon="-119.82865"><ele>2675.344551111106</ele></trkpt><trkpt lat="38.57014" lon="-119.82854"><ele>2673.21817955561</ele></trkpt><trkpt lat="38.57007" lon="-119.82845"><ele>2671.059552711961</ele></trkpt><trkpt lat="38.56984" lon="-119.82829"><ele>2670.5673351106234</ele></trkpt><trkpt lat="38.56953" lon="-119.82799"><ele>2666.58632177813</ele></trkpt><trkpt lat="38.5696" lon="-119.82769"><ele>2663.4259669086164</ele></trkpt><trkpt lat="38.56947" lon="-119.82746"><ele>2666.8004987109452</ele></trkpt><trkpt lat="38.56942" lon="-119.82721"><ele>2667.8324735481956</ele></trkpt><trkpt lat="38.56943" lon="-119.82665"><ele>2667.0</ele></trkpt><trkpt lat="38.56922" lon="-119.82639"><ele>2668.020917333197</ele></trkpt><trkpt lat="38.56907" lon="-119.82637"><ele>2667.0888497778215</ele></trkpt><trkpt lat="38.56885" lon="-119.82613"><ele>2667.68369359487</ele></trkpt><trkpt lat="38.56874" lon="-119.82605"><ele>2668.4336712142135</ele></trkpt><trkpt lat="38.56844" lon="-119.82616"><ele>2671.302140444983</ele></trkpt><trkpt lat="38.56823" lon="-119.8264"><ele>2672.2882865816355</ele></trkpt><trkpt lat="38.56814" lon="-119.82688"><ele>2674.7803850262426</ele></trkpt><trkpt lat="38.56804" lon="-119.82702"><ele>2674.9772805228454</ele></trkpt><trkpt lat="38.56793" lon="-119.82748"><ele>2676.0</ele></trkpt><trkpt lat="38.56778" lon="-119.82777"><ele>2675.644120193751</ele></trkpt><trkpt lat="38.56767" lon="-119.82802"><ele>2675.8938695238903</ele></trkpt><trkpt lat="38.56757" lon="-119.82815"><ele>2675.9511540156213</ele></trkpt><trkpt lat="38.56734" lon="-119.82829"><ele>2674.5673351106234</ele></trkpt><trkpt lat="38.56717" lon="-119.82852"><ele>2677.362591081207</ele></trkpt><trkpt lat="38.56692" lon="-119.82863"><ele>2676.6185336592607</ele></trkpt><trkpt lat="38.56678" lon="-119.82877"><ele>2677.7984242476523</ele></trkpt><trkpt lat="38.56662" lon="-119.82878"><ele>2677.402990222443</ele></trkpt><trkpt lat="38.56584" lon="-119.82949"><ele>2684.91555985003</ele></trkpt><trkpt lat="38.5656" lon="-119.82963"><ele>2685.5450671450235</ele></trkpt><trkpt lat="38.56535" lon="-119.82989"><ele>2687.0</ele></trkpt><trkpt lat="38.56535" lon="-119.82989"><ele>2687.0</ele></trkpt><trkpt lat="38.56521352823777" lon="-119.83002647176224"><ele>2686.7435234964796</ele></trkpt><trkpt lat="38.56519154926814" lon="-119.83004845098714"><ele>2687.0</ele></trkpt><trkpt lat="38.56496" lon="-119.83028"><ele>2687.573332155356</ele></trkpt><trkpt lat="38.56464" lon="-119.83078"><ele>2686.0</ele></trkpt><trkpt lat="38.56418" lon="-119.83087"><ele>2685.7185053701887</ele></trkpt><trkpt lat="38.56401" lon="-119.83097"><ele>2685.8721436543938</ele></trkpt><trkpt lat="38.56368" lon="-119.83107"><ele>2685.0</ele></trkpt><trkpt lat="38.56291" lon="-119.8312"><ele>2682.0</ele></trkpt><trkpt lat="38.56262" lon="-119.83106"><ele>2685.396912964223</ele></trkpt><trkpt lat="38.5622" lon="-119.8311"><ele>2689.0</ele></trkpt><trkpt lat="38.56129" lon="-119.8314"><ele>2695.0</ele></trkpt><trkpt lat="38.56075" lon="-119.83135"><ele>2695.173671110999</ele></trkpt><trkpt lat="38.5606" lon="-119.83149"><ele>2694.0</ele></trkpt><trkpt lat="38.56044" lon="-119.83146"><ele>2692.300042667426</ele></trkpt><trkpt lat="38.56036" lon="-119.83152"><ele>2691.0</ele></trkpt><trkpt lat="38.55988" lon="-119.83253"><ele>2682.6129124350846</ele></trkpt><trkpt lat="38.55984" lon="-119.83302"><ele>2678.0</ele></trkpt><trkpt lat="38.55987" lon="-119.83317"><ele>2678.0169286876917</ele></trkpt><trkpt lat="38.5598" lon="-119.83327"><ele>2677.0</ele></trkpt><trkpt lat="38.55948" lon="-119.83353"><ele>2673.0</ele></trkpt><trkpt lat="38.55899" lon="-119.83355"><ele>2669.4001075365486</ele></trkpt><trkpt lat="38.55868" lon="-119.83392"><ele>2668.0</ele></trkpt><trkpt lat="38.55837" lon="-119.83412"><ele>2666.0</ele></trkpt><trkpt lat="38.55803" lon="-119.83391"><ele>2663.5216817772016</ele></trkpt><trkpt lat="38.55786" lon="-119.83374"><ele>2662.0</ele></trkpt><trkpt lat="38.55733" lon="-119.83343"><ele>2660.0</ele></trkpt><trkpt lat="38.55693" lon="-119.83339"><ele>2662.0</ele></trkpt><trkpt lat="38.55671" lon="-119.83322"><ele>2663.6780124446377</ele></trkpt><trkpt lat="38.5564" lon="-119.83314"><ele>2664.0</ele></trkpt><trkpt lat="38.55631" lon="-119.83323"><ele>2666.116640310388</ele></trkpt><trkpt lat="38.55618" lon="-119.83314"><ele>2667.0</ele></trkpt><trkpt lat="38.556" lon="-119.83285"><ele>2667.0</ele></trkpt><trkpt lat="38.55571" lon="-119.83217"><ele>2667.0</ele></trkpt><trkpt lat="38.55565" lon="-119.8318"><ele>2666.0</ele></trkpt><trkpt lat="38.55547" lon="-119.83158"><ele>2666.0</ele></trkpt><trkpt lat="38.55542" lon="-119.83107"><ele>2665.187611270696</ele></trkpt><trkpt lat="38.55541" lon="-119.83073"><ele>2666.5644933239396</ele></trkpt><trkpt lat="38.55561" lon="-119.83022"><ele>2669.0</ele></trkpt><trkpt lat="38.55571" lon="-119.82965"><ele>2670.047130544957</ele></trkpt><trkpt lat="38.5558" lon="-119.82955"><ele>2669.6734122233247</ele></trkpt><trkpt lat="38.55577" lon="-119.82878"><ele>2673.3294220808893</ele></trkpt><trkpt lat="38.55564" lon="-119.82851"><ele>2672.0</ele></trkpt><trkpt lat="38.55554" lon="-119.82841"><ele>2675.005789562641</ele></trkpt><trkpt lat="38.55529" lon="-119.82834"><ele>2678.9933288243383</ele></trkpt><trkpt lat="38.55518" lon="-119.8284"><ele>2679.6937066670507</ele></trkpt><trkpt lat="38.55476" lon="-119.82796"><ele>2680.1882204450667</ele></trkpt><trkpt lat="38.55465" lon="-119.82792"><ele>2679.0752700306475</ele></trkpt><trkpt lat="38.55443" lon="-119.8277"><ele>2681.257281623315</ele></trkpt><trkpt lat="38.55439" lon="-119.82749"><ele>2681.0</ele></trkpt><trkpt lat="38.55433" lon="-119.82736"><ele>2682.145321305841</ele></trkpt><trkpt lat="38.55425" lon="-119.82726"><ele>2683.950669163049</ele></trkpt><trkpt lat="38.55426" lon="-119.8269"><ele>2686.0669765408174</ele></trkpt><trkpt lat="38.55418" lon="-119.82653"><ele>2686.0</ele></trkpt><trkpt lat="38.55429" lon="-119.82601"><ele>2684.3641951190893</ele></trkpt><trkpt lat="38.55436" lon="-119.82589"><ele>2685.2807715558447</ele></trkpt><trkpt lat="38.55441" lon="-119.8257"><ele>2687.1354133328423</ele></trkpt><trkpt lat="38.55436" lon="-119.82535"><ele>2687.0</ele></trkpt><trkpt lat="38.5545" lon="-119.82496"><ele>2684.0054320293652</ele></trkpt><trkpt lat="38.55450903251655" lon="-119.82451740668897"><ele>2681.0</ele></trkpt><trkpt lat="38.554508543681074" lon="-119.82454135963137"><ele>2681.0</ele></trkpt><trkpt lat="38.55451" lon="-119.82447"><ele>2681.0</ele></trkpt><trkpt lat="38.55447" lon="-119.82434"><ele>2680.0</ele></trkpt><trkpt lat="38.55428" lon="-119.82405"><ele>2682.97288695057</ele></trkpt><trkpt lat="38.55417" lon="-119.82348"><ele>2688.870499488223</ele></trkpt><trkpt lat="38.55418" lon="-119.82317"><ele>2692.0</ele></trkpt><trkpt lat="38.55424" lon="-119.82299"><ele>2694.7202706113185</ele></trkpt><trkpt lat="38.5543" lon="-119.8226"><ele>2699.605884444434</ele></trkpt><trkpt lat="38.55416" lon="-119.8223"><ele>2702.0</ele></trkpt><trkpt lat="38.55408" lon="-119.82196"><ele>2703.0</ele></trkpt><trkpt lat="38.55411" lon="-119.82151"><ele>2702.744067683816</ele></trkpt><trkpt lat="38.55423" lon="-119.82077"><ele>2697.0</ele></trkpt><trkpt lat="38.55446" lon="-119.82062"><ele>2696.0</ele></trkpt><trkpt lat="38.55452" lon="-119.82038"><ele>2696.0653831111267</ele></trkpt><trkpt lat="38.55437" lon="-119.82007"><ele>2697.371318290921</ele></trkpt><trkpt lat="38.55433" lon="-119.81986"><ele>2696.0</ele></trkpt><trkpt lat="38.55415" lon="-119.81985"><ele>2694.0</ele></trkpt><trkpt lat="38.55405" lon="-119.8196"><ele>2693.4856083967056</ele></trkpt><trkpt lat="38.55403" lon="-119.81946"><ele>2692.081533070094</ele></trkpt><trkpt lat="38.55408" lon="-119.81889"><ele>2698.0</ele></trkpt><trkpt lat="38.55392" lon="-119.8188"><ele>2697.0</ele></trkpt><trkpt lat="38.5536" lon="-119.81873"><ele>2697.0</ele></trkpt><trkpt lat="38.55343" lon="-119.81856"><ele>2697.0</ele></trkpt><trkpt lat="38.55318" lon="-119.81806"><ele>2694.0</ele></trkpt><trkpt lat="38.55324" lon="-119.81784"><ele>2691.495316588506</ele></trkpt><trkpt lat="38.55312" lon="-119.81762"><ele>2690.0</ele></trkpt><trkpt lat="38.55292" lon="-119.81765"><ele>2688.9497528742854</ele></trkpt><trkpt lat="38.55268" lon="-119.8175"><ele>2685.3771366264064</ele></trkpt><trkpt lat="38.55241" lon="-119.81749"><ele>2683.0</ele></trkpt><trkpt lat="38.55234" lon="-119.81743"><ele>2682.8796523279407</ele></trkpt><trkpt lat="38.55211" lon="-119.81689"><ele>2680.1275076377324</ele></trkpt><trkpt lat="38.55211" lon="-119.81689"><ele>2680.1275076377324</ele></trkpt><trkpt lat="38.55201" lon="-119.81668"><ele>2679.4006545580924</ele></trkpt><trkpt lat="38.55179" lon="-119.81634"><ele>2677.335608537982</ele></trkpt><trkpt lat="38.5516" lon="-119.81638"><ele>2679.521105777938</ele></trkpt><trkpt lat="38.55144" lon="-119.81633"><ele>2677.190936888568</ele></trkpt><trkpt lat="38.55117" lon="-119.81643"><ele>2675.9319551908065</ele></trkpt><trkpt lat="38.55091" lon="-119.81637"><ele>2676.0</ele></trkpt><trkpt lat="38.55067" lon="-119.81616"><ele>2675.0</ele></trkpt><trkpt lat="38.55056" lon="-119.81574"><ele>2673.0</ele></trkpt><trkpt lat="38.5505" lon="-119.81563"><ele>2672.0</ele></trkpt><trkpt lat="38.55048" lon="-119.81548"><ele>2670.8207715873828</ele></trkpt><trkpt lat="38.55011" lon="-119.81532"><ele>2670.1215253337286</ele></trkpt><trkpt lat="38.55001" lon="-119.81508"><ele>2670.0264085897506</ele></trkpt><trkpt lat="38.54982" lon="-119.81491"><ele>2670.0</ele></trkpt><trkpt lat="38.54966" lon="-119.81486"><ele>2670.616445277028</ele></trkpt><trkpt lat="38.54959044877251" lon="-119.81474953628576"><ele>2672.0</ele></trkpt><trkpt lat="38.54959044877251" lon="-119.81474953628576"><ele>2672.0</ele></trkpt><trkpt lat="38.54915" lon="-119.81405"><ele>2678.8299688771367</ele></trkpt><trkpt lat="38.54901" lon="-119.81375"><ele>2681.1724885422736</ele></trkpt><trkpt lat="38.54908" lon="-119.81348"><ele>2683.0</ele></trkpt><trkpt lat="38.54908" lon="-119.81319"><ele>2684.144723252441</ele></trkpt><trkpt lat="38.54929" lon="-119.81274"><ele>2690.0</ele></trkpt><trkpt lat="38.549290188163994" lon="-119.81273397875218"><ele>2690.0</ele></trkpt><trkpt lat="38.549290102940645" lon="-119.81273670589871"><ele>2690.0</ele></trkpt><trkpt lat="38.5493" lon="-119.81242"><ele>2690.8915369231254</ele></trkpt><trkpt lat="38.54924" lon="-119.8122"><ele>2692.1858986108564</ele></trkpt><trkpt lat="38.54897" lon="-119.81205"><ele>2695.8794621193065</ele></trkpt><trkpt lat="38.54883" lon="-119.81173"><ele>2697.0</ele></trkpt><trkpt lat="38.54876" lon="-119.81162"><ele>2698.7107348903387</ele></trkpt><trkpt lat="38.54851" lon="-119.81151"><ele>2699.5441271949776</ele></trkpt><trkpt lat="38.54839" lon="-119.81125"><ele>2697.0</ele></trkpt><trkpt lat="38.54822" lon="-119.81106"><ele>2694.0</ele></trkpt><trkpt lat="38.54817" lon="-119.81091"><ele>2694.3086075185875</ele></trkpt><trkpt lat="38.54817" lon="-119.81091"><ele>2694.3086075185875</ele></trkpt><trkpt lat="38.54811" lon="-119.81077"><ele>2692.258537701563</ele></trkpt><trkpt lat="38.54814" lon="-119.81055"><ele>2692.0</ele></trkpt><trkpt lat="38.54806" lon="-119.81035"><ele>2690.0</ele></trkpt><trkpt lat="38.54802" lon="-119.8101"><ele>2687.834443083033</ele></trkpt><trkpt lat="38.54785" lon="-119.80993"><ele>2683.9791068665204</ele></trkpt><trkpt lat="38.54781" lon="-119.80974"><ele>2683.0</ele></trkpt><trkpt lat="38.54775" lon="-119.80968"><ele>2681.9291464088137</ele></trkpt><trkpt lat="38.54773" lon="-119.80987"><ele>2679.0</ele></trkpt><trkpt lat="38.54758" lon="-119.81015"><ele>2676.1120706387237</ele></trkpt><trkpt lat="38.54757" lon="-119.8103"><ele>2676.0</ele></trkpt><trkpt lat="38.54749" lon="-119.81048"><ele>2674.0</ele></trkpt><trkpt lat="38.54736" lon="-119.81064"><ele>2672.506182057783</ele></trkpt><trkpt lat="38.54714" lon="-119.81072"><ele>2670.0</ele></trkpt><trkpt lat="38.54683" lon="-119.8107"><ele>2666.0</ele></trkpt><trkpt lat="38.54667" lon="-119.81087"><ele>2663.0</ele></trkpt><trkpt lat="38.5466" lon="-119.81124"><ele>2659.219540750608</ele></trkpt><trkpt lat="38.54649" lon="-119.81134"><ele>2656.0</ele></trkpt><trkpt lat="38.54613" lon="-119.81147"><ele>2652.1491816259468</ele></trkpt><trkpt lat="38.5459" lon="-119.8114"><ele>2650.436284445226</ele></trkpt><trkpt lat="38.5458" lon="-119.8112"><ele>2648.0</ele></trkpt><trkpt lat="38.5458" lon="-119.8112"><ele>2648.0</ele></trkpt><trkpt lat="38.5457" lon="-119.81106"><ele>2647.0</ele></trkpt><trkpt lat="38.5456" lon="-119.81054"><ele>2645.3674159850925</ele></trkpt><trkpt lat="38.54539" lon="-119.81011"><ele>2646.0</ele></trkpt><trkpt lat="38.545426078948395" lon="-119.80991929698708"><ele>2647.0</ele></trkpt><trkpt lat="38.54542360614491" lon="-119.80993236756461"><ele>2647.0</ele></trkpt><trkpt lat="38.54546" lon="-119.80974"><ele>2647.7312157957176</ele></trkpt><trkpt lat="38.54542" lon="-119.80958"><ele>2647.6536425974464</ele></trkpt><trkpt lat="38.5452" lon="-119.80943"><ele>2647.0</ele></trkpt><trkpt lat="38.54485" lon="-119.80937"><ele>2647.0</ele></trkpt><trkpt lat="38.5448" lon="-119.80926"><ele>2647.0</ele></trkpt><trkpt lat="38.545" lon="-119.80884"><ele>2645.8840528229935</ele></trkpt><trkpt lat="38.54526" lon="-119.80861"><ele>2647.0</ele></trkpt><trkpt lat="38.54554" lon="-119.80818"><ele>2651.590630030162</ele></trkpt><trkpt lat="38.54568" lon="-119.80793"><ele>2653.711328592306</ele></trkpt><trkpt lat="38.54577" lon="-119.80763"><ele>2658.0</ele></trkpt><trkpt lat="38.54585" lon="-119.80749"><ele>2658.78292266652</ele></trkpt><trkpt lat="38.546" lon="-119.80737"><ele>2661.1999495081045</ele></trkpt><trkpt lat="38.546" lon="-119.80737"><ele>2661.1999495081045</ele></trkpt><trkpt lat="38.546" lon="-119.80737"><ele>2661.1999495081045</ele></trkpt><trkpt lat="38.54668" lon="-119.80729"><ele>2653.0</ele></trkpt><trkpt lat="38.54691" lon="-119.80734"><ele>2651.0</ele></trkpt><trkpt lat="38.54713" lon="-119.80721"><ele>2646.865332712587</ele></trkpt><trkpt lat="38.54736" lon="-119.8068"><ele>2646.4330712757073</ele></trkpt><trkpt lat="38.54783" lon="-119.80644"><ele>2642.854652548817</ele></trkpt><trkpt lat="38.54817" lon="-119.80636"><ele>2640.101073928349</ele></trkpt><trkpt lat="38.54817" lon="-119.80636"><ele>2640.101073928349</ele></trkpt><trkpt lat="38.54835" lon="-119.80616"><ele>2638.883010413429</ele></trkpt><trkpt lat="38.54844" lon="-119.80601"><ele>2638.0</ele></trkpt></trkseg></trk></gpx>