<?xml version="1.0"?>
<gpx xmlns="http://www.topografix.com/GPX/1/1" xmlns:gpxx="http://www.garmin.com/xmlschemas/GpxExtensions/v3" creator="CALTOPO" version="1.1"><metadata><name><![CDATA[Echo-Showers]]></name></metadata><wpt lat="38.74170933590934" lon="-120.03431967764126"><name>Showers Lake</name></wpt><wpt lat="38.822938239662776" lon="-120.03978594180454"><name>Hwy 50 Trailhead</name></wpt><trk><name>Echo-Showers</name><trkseg><trkpt lat="38.82293998559186" lon="-120.03979113682436"><ele>2205.0</ele></trkpt><trkpt lat="38.82293960058956" lon="-120.03979030431321"><ele>2205.0</ele></trkpt><trkpt lat="38.82273" lon="-120.03994999999998"><ele>2202.0</ele></trkpt><trkpt lat="38.82266269813393" lon="-120.04007787354556"><ele>2201.0</ele></trkpt><trkpt lat="38.82266208934279" lon="-120.04007903027775"><ele>2201.0</ele></trkpt><trkpt lat="38.82263" lon="-120.04014000000001"><ele>2201.0</ele></trkpt><trkpt lat="38.82263" lon="-120.04014000000001"><ele>2201.0</ele></trkpt><trkpt lat="38.82259" lon="-120.04011000000003"><ele>2201.0</ele></trkpt><trkpt lat="38.82259" lon="-120.04011000000003"><ele>2201.0</ele></trkpt><trkpt lat="38.82244" lon="-120.03998000000001"><ele>2203.0</ele></trkpt><trkpt lat="38.82235" lon="-120.03983"><ele>2205.0</ele></trkpt><trkpt lat="38.82227" lon="-120.03956"><ele>2208.0</ele></trkpt><trkpt lat="38.82223" lon="-120.03953000000001"><ele>2209.0060115403467</ele></trkpt><trkpt lat="38.82215" lon="-120.03955000000002"><ele>2210.0</ele></trkpt><trkpt lat="38.82209" lon="-120.03962000000001"><ele>2212.0</ele></trkpt><trkpt lat="38.82203" lon="-120.03962000000001"><ele>2212.300751914808</ele></trkpt><trkpt lat="38.8219" lon="-120.03949999999998"><ele>2213.0</ele></trkpt><trkpt lat="38.8218" lon="-120.03946000000002"><ele>2214.0</ele></trkpt><trkpt lat="38.82171" lon="-120.03944999999999"><ele>2216.0</ele></trkpt><trkpt lat="38.82166" lon="-120.03939000000003"><ele>2216.0</ele></trkpt><trkpt lat="38.82157" lon="-120.03935000000001"><ele>2217.0</ele></trkpt><trkpt lat="38.82142" lon="-120.0394"><ele>2216.5444588065147</ele></trkpt><trkpt lat="38.82124" lon="-120.03967999999998"><ele>2219.0172426384843</ele></trkpt><trkpt lat="38.82116" lon="-120.03962999999999"><ele>2220.0</ele></trkpt><trkpt lat="38.82108" lon="-120.03949"><ele>2222.0</ele></trkpt><trkpt lat="38.82101" lon="-120.03949"><ele>2222.2560465830143</ele></trkpt><trkpt lat="38.8209" lon="-120.03958"><ele>2224.0</ele></trkpt><trkpt lat="38.8208273666874" lon="-120.03976561774311"><ele>2225.0</ele></trkpt><trkpt lat="38.8208273666874" lon="-120.03976561774311"><ele>2225.0</ele></trkpt><trkpt lat="38.82081" lon="-120.03980999999999"><ele>2225.0</ele></trkpt><trkpt lat="38.82071" lon="-120.03996000000001"><ele>2225.0</ele></trkpt><trkpt lat="38.82046" lon="-120.04003999999998"><ele>2225.16742044501</ele></trkpt><trkpt lat="38.82034" lon="-120.03998000000001"><ele>2225.9636231106706</ele></trkpt><trkpt lat="38.82031" lon="-120.03992"><ele>2226.7598257781938</ele></trkpt><trkpt lat="38.82003" lon="-120.03976999999998"><ele>2228.7503324458376</ele></trkpt><trkpt lat="38.81989" lon="-120.03978000000001"><ele>2229.954936492015</ele></trkpt><trkpt lat="38.81975" lon="-120.03967999999998"><ele>2230.9758001338664</ele></trkpt><trkpt lat="38.81949" lon="-120.03960000000001"><ele>2231.0</ele></trkpt><trkpt lat="38.81939" lon="-120.03949999999998"><ele>2233.00981534785</ele></trkpt><trkpt lat="38.81919" lon="-120.0394"><ele>2234.0600621248595</ele></trkpt><trkpt lat="38.81891" lon="-120.03913"><ele>2239.711326923537</ele></trkpt><trkpt lat="38.81883" lon="-120.03908999999999"><ele>2240.17952147248</ele></trkpt><trkpt lat="38.81866277001679" lon="-120.03889489835291"><ele>2243.78073101668</ele></trkpt><trkpt lat="38.81868328296948" lon="-120.03891883009112"><ele>2243.734117475846</ele></trkpt><trkpt lat="38.81865" lon="-120.03888"><ele>2244.174281899206</ele></trkpt><trkpt lat="38.81807" lon="-120.03840000000002"><ele>2243.0444415298684</ele></trkpt><trkpt lat="38.81775" lon="-120.03796"><ele>2244.9408143408173</ele></trkpt><trkpt lat="38.81736" lon="-120.03759000000002"><ele>2243.3456959985197</ele></trkpt><trkpt lat="38.81726" lon="-120.03745000000004"><ele>2244.495676157996</ele></trkpt><trkpt lat="38.81712" lon="-120.03721999999999"><ele>2246.692396783009</ele></trkpt><trkpt lat="38.81686" lon="-120.03661999999997"><ele>2251.251280919183</ele></trkpt><trkpt lat="38.81686" lon="-120.03661999999997"><ele>2251.251280919183</ele></trkpt><trkpt lat="38.81679" lon="-120.03647000000001"><ele>2251.776889467549</ele></trkpt><trkpt lat="38.81662" lon="-120.0358"><ele>2257.264375332785</ele></trkpt><trkpt lat="38.81628" lon="-120.03553"><ele>2258.354522134852</ele></trkpt><trkpt lat="38.81596" lon="-120.03539"><ele>2258.8731271103024</ele></trkpt><trkpt lat="38.81583" lon="-120.03529000000003"><ele>2260.5771046158757</ele></trkpt><trkpt lat="38.81543" lon="-120.03512"><ele>2263.45603911113</ele></trkpt><trkpt lat="38.81528" lon="-120.03508999999997"><ele>2264.85414044559</ele></trkpt><trkpt lat="38.81508" lon="-120.03508999999997"><ele>2266.65358547864</ele></trkpt><trkpt lat="38.81465" lon="-120.03517999999997"><ele>2268.979192524499</ele></trkpt><trkpt lat="38.81423" lon="-120.03514999999999"><ele>2274.057937778067</ele></trkpt><trkpt lat="38.81397" lon="-120.03520000000003"><ele>2275.7277688877657</ele></trkpt><trkpt lat="38.81377" lon="-120.03517999999997"><ele>2280.077414602115</ele></trkpt><trkpt lat="38.81368" lon="-120.03521"><ele>2280.6310459147844</ele></trkpt><trkpt lat="38.81355" lon="-120.03517999999997"><ele>2283.753570249121</ele></trkpt><trkpt lat="38.81313" lon="-120.03535999999997"><ele>2285.6669302154332</ele></trkpt><trkpt lat="38.81308" lon="-120.03541000000001"><ele>2284.941059554927</ele></trkpt><trkpt lat="38.81298" lon="-120.03541999999999"><ele>2286.4750257781707</ele></trkpt><trkpt lat="38.8128" lon="-120.03532999999999"><ele>2290.419594666866</ele></trkpt><trkpt lat="38.81264" lon="-120.03539"><ele>2291.0</ele></trkpt><trkpt lat="38.81237" lon="-120.03544"><ele>2291.5429582223296</ele></trkpt><trkpt lat="38.81225" lon="-120.03541999999999"><ele>2294.0</ele></trkpt><trkpt lat="38.81218" lon="-120.03544999999997"><ele>2294.725043810114</ele></trkpt><trkpt lat="38.812" lon="-120.03568999999999"><ele>2297.9801229257137</ele></trkpt><trkpt lat="38.81193" lon="-120.03568999999999"><ele>2301.0179882169646</ele></trkpt><trkpt lat="38.81189" lon="-120.03571999999997"><ele>2302.7821800860943</ele></trkpt><trkpt lat="38.81171" lon="-120.03602999999998"><ele>2306.371589827817</ele></trkpt><trkpt lat="38.81156" lon="-120.03604000000001"><ele>2309.7049300118124</ele></trkpt><trkpt lat="38.81139" lon="-120.03611000000001"><ele>2310.318695110269</ele></trkpt><trkpt lat="38.81135" lon="-120.03610000000003"><ele>2311.0</ele></trkpt><trkpt lat="38.81133" lon="-120.03595999999999"><ele>2310.0</ele></trkpt><trkpt lat="38.81131" lon="-120.03593000000001"><ele>2310.531920890753</ele></trkpt><trkpt lat="38.81127" lon="-120.03595000000001"><ele>2310.0</ele></trkpt><trkpt lat="38.81121" lon="-120.03604999999999"><ele>2311.0</ele></trkpt><trkpt lat="38.81114" lon="-120.03622000000001"><ele>2312.4153355825692</ele></trkpt><trkpt lat="38.81109" lon="-120.03622999999999"><ele>2313.2737102219835</ele></trkpt><trkpt lat="38.81081" lon="-120.03616999999997"><ele>2314.034401759171</ele></trkpt><trkpt lat="38.80994" lon="-120.03582"><ele>2315.166325333528</ele></trkpt><trkpt lat="38.80984" lon="-120.03575000000001"><ele>2314.9040888892487</ele></trkpt><trkpt lat="38.80955" lon="-120.03548999999998"><ele>2314.4007180032877</ele></trkpt><trkpt lat="38.80937" lon="-120.03528"><ele>2314.0001374786343</ele></trkpt><trkpt lat="38.8092" lon="-120.03514999999999"><ele>2313.41575623085</ele></trkpt><trkpt lat="38.80914027493638" lon="-120.03509027493635"><ele>2313.171937545296</ele></trkpt><trkpt lat="38.809142844505125" lon="-120.03509284446784"><ele>2313.2393278052587</ele></trkpt><trkpt lat="38.80905" lon="-120.03499999999997"><ele>2313.392303292591</ele></trkpt><trkpt lat="38.80893" lon="-120.03480000000002"><ele>2310.6308800005354</ele></trkpt><trkpt lat="38.80856" lon="-120.03476"><ele>2309.766744889319</ele></trkpt><trkpt lat="38.80819" lon="-120.03460999999999"><ele>2307.776238221675</ele></trkpt><trkpt lat="38.80808" lon="-120.03451000000001"><ele>2306.115900445264</ele></trkpt><trkpt lat="38.80796" lon="-120.03435000000002"><ele>2305.0</ele></trkpt><trkpt lat="38.80786" lon="-120.03427999999997"><ele>2304.397123554256</ele></trkpt><trkpt lat="38.80765" lon="-120.03397000000001"><ele>2302.950076445006</ele></trkpt><trkpt lat="38.8074" lon="-120.03337999999997"><ele>2301.0415396929425</ele></trkpt><trkpt lat="38.80728" lon="-120.03325000000001"><ele>2300.0</ele></trkpt><trkpt lat="38.80728" lon="-120.03325000000001"><ele>2300.0</ele></trkpt><trkpt lat="38.80728" lon="-120.03325000000001"><ele>2300.0</ele></trkpt><trkpt lat="38.80697" lon="-120.03300999999999"><ele>2300.0</ele></trkpt><trkpt lat="38.80687" lon="-120.03296"><ele>2300.9746952197966</ele></trkpt><trkpt lat="38.80679" lon="-120.03296"><ele>2302.0</ele></trkpt><trkpt lat="38.80622" lon="-120.03310999999997"><ele>2302.0</ele></trkpt><trkpt lat="38.80609" lon="-120.03309999999999"><ele>2302.0</ele></trkpt><trkpt lat="38.80598" lon="-120.03307999999998"><ele>2302.4802217065353</ele></trkpt><trkpt lat="38.80568" lon="-120.03285"><ele>2303.0</ele></trkpt><trkpt lat="38.80555" lon="-120.03280999999998"><ele>2301.0</ele></trkpt><trkpt lat="38.80547" lon="-120.03282999999999"><ele>2301.8222257774323</ele></trkpt><trkpt lat="38.80547" lon="-120.03282999999999"><ele>2301.8222257774323</ele></trkpt><trkpt lat="38.80532" lon="-120.03292999999996"><ele>2302.4825635538436</ele></trkpt><trkpt lat="38.80521" lon="-120.03292999999996"><ele>2302.4825635538436</ele></trkpt><trkpt lat="38.80492" lon="-120.03282999999999"><ele>2300.0</ele></trkpt><trkpt lat="38.80467" lon="-120.03255000000001"><ele>2297.853922227768</ele></trkpt><trkpt lat="38.80455" lon="-120.03248000000002"><ele>2297.7711664864846</ele></trkpt><trkpt lat="38.80441" lon="-120.03244999999998"><ele>2298.1129422215745</ele></trkpt><trkpt lat="38.80428" lon="-120.03239000000002"><ele>2298.0</ele></trkpt><trkpt lat="38.80417" lon="-120.03226000000001"><ele>2296.2583004450426</ele></trkpt><trkpt lat="38.80406" lon="-120.03199999999998"><ele>2294.0</ele></trkpt><trkpt lat="38.80406" lon="-120.03199999999998"><ele>2294.0</ele></trkpt><trkpt lat="38.80406" lon="-120.03199999999998"><ele>2294.0</ele></trkpt><trkpt lat="38.80377" lon="-120.03196000000003"><ele>2295.0</ele></trkpt><trkpt lat="38.80365" lon="-120.03185000000002"><ele>2292.0</ele></trkpt><trkpt lat="38.80349" lon="-120.03181000000001"><ele>2290.286780445371</ele></trkpt><trkpt lat="38.80339" lon="-120.03170999999998"><ele>2289.0</ele></trkpt><trkpt lat="38.80308" lon="-120.03179"><ele>2288.0</ele></trkpt><trkpt lat="38.80296" lon="-120.03172999999998"><ele>2287.0</ele></trkpt><trkpt lat="38.80284" lon="-120.03176000000002"><ele>2286.1979868671283</ele></trkpt><trkpt lat="38.80269" lon="-120.03183999999999"><ele>2285.0</ele></trkpt><trkpt lat="38.80255" lon="-120.03178000000003"><ele>2284.0</ele></trkpt><trkpt lat="38.80234" lon="-120.03185000000002"><ele>2284.0</ele></trkpt><trkpt lat="38.80217" lon="-120.03186"><ele>2281.1404460351914</ele></trkpt><trkpt lat="38.80217" lon="-120.03186"><ele>2281.1404460351914</ele></trkpt><trkpt lat="38.80217" lon="-120.03186"><ele>2281.1404460351914</ele></trkpt><trkpt lat="38.80205" lon="-120.03201000000001"><ele>2280.0</ele></trkpt><trkpt lat="38.80197" lon="-120.03224"><ele>2280.0</ele></trkpt><trkpt lat="38.80195" lon="-120.03266000000002"><ele>2281.0</ele></trkpt><trkpt lat="38.80203" lon="-120.03318999999999"><ele>2284.0</ele></trkpt><trkpt lat="38.80203" lon="-120.03349062784844"><ele>2288.0</ele></trkpt><trkpt lat="38.80202999999997" lon="-120.03349599226641"><ele>2288.0</ele></trkpt><trkpt lat="38.80203" lon="-120.03354999999999"><ele>2288.7683847974986</ele></trkpt><trkpt lat="38.80196" lon="-120.03393"><ele>2290.582360347733</ele></trkpt><trkpt lat="38.80194" lon="-120.03458999999998"><ele>2295.0</ele></trkpt><trkpt lat="38.80189" lon="-120.03507000000002"><ele>2297.396340008825</ele></trkpt><trkpt lat="38.80173" lon="-120.03553"><ele>2295.8283089622855</ele></trkpt><trkpt lat="38.80173" lon="-120.03573"><ele>2296.8283089622855</ele></trkpt><trkpt lat="38.80158" lon="-120.03604999999999"><ele>2296.85829936713</ele></trkpt><trkpt lat="38.80152" lon="-120.03625999999997"><ele>2296.2703008167446</ele></trkpt><trkpt lat="38.80139" lon="-120.03640000000001"><ele>2293.097418780988</ele></trkpt><trkpt lat="38.80126" lon="-120.03658999999999"><ele>2291.03678614916</ele></trkpt><trkpt lat="38.8012" lon="-120.03661999999997"><ele>2291.0</ele></trkpt><trkpt lat="38.8012" lon="-120.03661999999997"><ele>2291.0</ele></trkpt><trkpt lat="38.80099" lon="-120.03670999999997"><ele>2289.3708451467764</ele></trkpt><trkpt lat="38.80075" lon="-120.03687000000002"><ele>2289.0</ele></trkpt><trkpt lat="38.80061" lon="-120.03701999999998"><ele>2290.0</ele></trkpt><trkpt lat="38.80052" lon="-120.03709000000003"><ele>2290.0</ele></trkpt><trkpt lat="38.80047" lon="-120.03721999999999"><ele>2291.0</ele></trkpt><trkpt lat="38.80046" lon="-120.03732000000002"><ele>2292.0</ele></trkpt><trkpt lat="38.80043" lon="-120.03737000000001"><ele>2292.401560889557</ele></trkpt><trkpt lat="38.80034" lon="-120.03739000000002"><ele>2293.0</ele></trkpt><trkpt lat="38.80014" lon="-120.03728000000001"><ele>2293.2528320364654</ele></trkpt><trkpt lat="38.79987" lon="-120.03730000000002"><ele>2299.055517371482</ele></trkpt><trkpt lat="38.79971" lon="-120.03723000000002"><ele>2301.0</ele></trkpt><trkpt lat="38.79946" lon="-120.03709000000003"><ele>2306.9455011980313</ele></trkpt><trkpt lat="38.79925" lon="-120.03691000000003"><ele>2310.4563851779385</ele></trkpt><trkpt lat="38.799" lon="-120.03685999999999"><ele>2313.268056737026</ele></trkpt><trkpt lat="38.79871" lon="-120.03661999999997"><ele>2315.870106866186</ele></trkpt><trkpt lat="38.79871" lon="-120.03661999999997"><ele>2315.870106866186</ele></trkpt><trkpt lat="38.79866" lon="-120.03658000000001"><ele>2316.0</ele></trkpt><trkpt lat="38.7986" lon="-120.03642000000002"><ele>2315.1283520008437</ele></trkpt><trkpt lat="38.79851" lon="-120.03636"><ele>2316.2403928300364</ele></trkpt><trkpt lat="38.7983" lon="-120.03634"><ele>2319.5125807570294</ele></trkpt><trkpt lat="38.7982" lon="-120.03628000000003"><ele>2319.7072312634327</ele></trkpt><trkpt lat="38.79812" lon="-120.03616999999997"><ele>2319.4775075544603</ele></trkpt><trkpt lat="38.79806" lon="-120.03602999999998"><ele>2316.602799640127</ele></trkpt><trkpt lat="38.79773" lon="-120.03573"><ele>2328.0102257934586</ele></trkpt><trkpt lat="38.79772" lon="-120.03543000000002"><ele>2333.963453045115</ele></trkpt><trkpt lat="38.79762" lon="-120.03517999999997"><ele>2337.9431250467896</ele></trkpt><trkpt lat="38.79762" lon="-120.03493000000003"><ele>2339.0</ele></trkpt><trkpt lat="38.7974" lon="-120.03435000000002"><ele>2347.0</ele></trkpt><trkpt lat="38.79739" lon="-120.03426999999999"><ele>2347.0</ele></trkpt><trkpt lat="38.79729" lon="-120.03413999999998"><ele>2348.0</ele></trkpt><trkpt lat="38.79724" lon="-120.03413"><ele>2349.801692635104</ele></trkpt><trkpt lat="38.79718" lon="-120.03422999999998"><ele>2352.303558340489</ele></trkpt><trkpt lat="38.79719" lon="-120.03435999999999"><ele>2355.08221054999</ele></trkpt><trkpt lat="38.79725" lon="-120.03451999999999"><ele>2356.0678385049105</ele></trkpt><trkpt lat="38.79724" lon="-120.03484000000003"><ele>2358.0</ele></trkpt><trkpt lat="38.79714" lon="-120.03489000000002"><ele>2359.7074177015347</ele></trkpt><trkpt lat="38.79709" lon="-120.03485"><ele>2361.0</ele></trkpt><trkpt lat="38.79708" lon="-120.03480000000002"><ele>2361.3691199994646</ele></trkpt><trkpt lat="38.797" lon="-120.03476"><ele>2363.0039429900553</ele></trkpt><trkpt lat="38.79697" lon="-120.03478000000001"><ele>2363.8107885569334</ele></trkpt><trkpt lat="38.79694" lon="-120.03484000000003"><ele>2365.0</ele></trkpt><trkpt lat="38.79681" lon="-120.03494999999998"><ele>2366.3781590498984</ele></trkpt><trkpt lat="38.79661" lon="-120.03557"><ele>2369.6584124463125</ele></trkpt><trkpt lat="38.79641" lon="-120.03577000000001"><ele>2373.4603348704986</ele></trkpt><trkpt lat="38.79621" lon="-120.03577999999999"><ele>2379.6978097786196</ele></trkpt><trkpt lat="38.79614" lon="-120.03580999999997"><ele>2381.1322582535468</ele></trkpt><trkpt lat="38.79606" lon="-120.03591"><ele>2384.224921932444</ele></trkpt><trkpt lat="38.79601" lon="-120.03607999999997"><ele>2387.2146893460304</ele></trkpt><trkpt lat="38.79598" lon="-120.03609"><ele>2389.0085487887263</ele></trkpt><trkpt lat="38.79582" lon="-120.03584000000001"><ele>2394.0566532863304</ele></trkpt><trkpt lat="38.7955" lon="-120.03550000000001"><ele>2400.783588111101</ele></trkpt><trkpt lat="38.79532" lon="-120.03548999999998"><ele>2403.787210666109</ele></trkpt><trkpt lat="38.79517" lon="-120.03557999999998"><ele>2407.0</ele></trkpt><trkpt lat="38.79512" lon="-120.03566000000001"><ele>2408.8352153812784</ele></trkpt><trkpt lat="38.79508" lon="-120.03584000000001"><ele>2410.017319027513</ele></trkpt><trkpt lat="38.79502" lon="-120.03591"><ele>2410.2121754697214</ele></trkpt><trkpt lat="38.79495" lon="-120.03595999999999"><ele>2410.3092017779127</ele></trkpt><trkpt lat="38.79485" lon="-120.03598999999997"><ele>2410.9111004453152</ele></trkpt><trkpt lat="38.79451" lon="-120.03597000000002"><ele>2414.843167998828</ele></trkpt><trkpt lat="38.79417" lon="-120.03584999999998"><ele>2419.0</ele></trkpt><trkpt lat="38.79405" lon="-120.03584999999998"><ele>2420.43557333434</ele></trkpt><trkpt lat="38.79402" lon="-120.03588000000002"><ele>2419.2432014648803</ele></trkpt><trkpt lat="38.794" lon="-120.03593999999998"><ele>2418.642871788703</ele></trkpt><trkpt lat="38.79393" lon="-120.03598"><ele>2419.341423713602</ele></trkpt><trkpt lat="38.79381" lon="-120.03597000000002"><ele>2421.8059014382306</ele></trkpt><trkpt lat="38.79372" lon="-120.03602999999998"><ele>2420.2309666202486</ele></trkpt><trkpt lat="38.79361" lon="-120.03611999999998"><ele>2423.9589011539883</ele></trkpt><trkpt lat="38.79347" lon="-120.03634"><ele>2426.636771503528</ele></trkpt><trkpt lat="38.79327" lon="-120.03643"><ele>2431.020579597833</ele></trkpt><trkpt lat="38.79305" lon="-120.03647999999998"><ele>2437.0754453339614</ele></trkpt><trkpt lat="38.79279" lon="-120.03643999999997"><ele>2441.939580446109</ele></trkpt><trkpt lat="38.79261" lon="-120.03649000000001"><ele>2444.6094115548767</ele></trkpt><trkpt lat="38.79246" lon="-120.03649000000001"><ele>2450.0922264405526</ele></trkpt><trkpt lat="38.79226" lon="-120.03658000000001"><ele>2453.673201840951</ele></trkpt><trkpt lat="38.79197" lon="-120.03661999999997"><ele>2453.5509724454023</ele></trkpt><trkpt lat="38.79197" lon="-120.03661999999997"><ele>2453.5509724454023</ele></trkpt><trkpt lat="38.79151" lon="-120.03669000000002"><ele>2459.780301789593</ele></trkpt><trkpt lat="38.79094" lon="-120.03687000000002"><ele>2465.900127999019</ele></trkpt><trkpt lat="38.79071" lon="-120.03685999999999"><ele>2473.0432589085754</ele></trkpt><trkpt lat="38.79057" lon="-120.03674000000001"><ele>2477.4686019342307</ele></trkpt><trkpt lat="38.7904" lon="-120.03683999999998"><ele>2480.0</ele></trkpt><trkpt lat="38.79031" lon="-120.03681"><ele>2482.696330666542</ele></trkpt><trkpt lat="38.78993" lon="-120.03700000000003"><ele>2489.6352846985255</ele></trkpt><trkpt lat="38.78963" lon="-120.0369"><ele>2490.0</ele></trkpt><trkpt lat="38.78943" lon="-120.03692000000001"><ele>2486.7205669685864</ele></trkpt><trkpt lat="38.78926" lon="-120.03710000000001"><ele>2487.0</ele></trkpt><trkpt lat="38.78918" lon="-120.03728999999998"><ele>2488.131595843676</ele></trkpt><trkpt lat="38.78924" lon="-120.03745000000004"><ele>2485.0</ele></trkpt><trkpt lat="38.78933" lon="-120.03754000000004"><ele>2482.675864887424</ele></trkpt><trkpt lat="38.78935" lon="-120.03764000000001"><ele>2480.0</ele></trkpt><trkpt lat="38.78924" lon="-120.03802999999999"><ele>2480.009830797091</ele></trkpt><trkpt lat="38.78918" lon="-120.03847999999999"><ele>2484.728518412914</ele></trkpt><trkpt lat="38.78896" lon="-120.03888"><ele>2487.7508994620293</ele></trkpt><trkpt lat="38.78885" lon="-120.0392"><ele>2486.3277298770845</ele></trkpt><trkpt lat="38.78858" lon="-120.03937000000002"><ele>2495.4708160515875</ele></trkpt><trkpt lat="38.78855" lon="-120.03960999999998"><ele>2493.5836925405556</ele></trkpt><trkpt lat="38.78843" lon="-120.03976999999998"><ele>2504.439170839265</ele></trkpt><trkpt lat="38.78837" lon="-120.0403"><ele>2504.0265074726194</ele></trkpt><trkpt lat="38.7884" lon="-120.04084"><ele>2509.232839534059</ele></trkpt><trkpt lat="38.78835" lon="-120.04113999999998"><ele>2516.5194614436705</ele></trkpt><trkpt lat="38.78837" lon="-120.04140000000001"><ele>2517.0265074726194</ele></trkpt><trkpt lat="38.78835" lon="-120.04145"><ele>2518.22228567861</ele></trkpt><trkpt lat="38.78835" lon="-120.04145"><ele>2518.22228567861</ele></trkpt><trkpt lat="38.78828" lon="-120.04163"><ele>2525.40750676021</ele></trkpt><trkpt lat="38.78829" lon="-120.04185000000001"><ele>2525.809618284926</ele></trkpt><trkpt lat="38.7882" lon="-120.04203000000001"><ele>2535.763912867289</ele></trkpt><trkpt lat="38.78821" lon="-120.04228999999998"><ele>2540.8163620689106</ele></trkpt><trkpt lat="38.78819" lon="-120.04237999999998"><ele>2542.884483555332</ele></trkpt><trkpt lat="38.78822" lon="-120.04250000000002"><ele>2544.4768888899125</ele></trkpt><trkpt lat="38.78827" lon="-120.0426"><ele>2546.000740358423</ele></trkpt><trkpt lat="38.78828" lon="-120.04269"><ele>2546.40750676021</ele></trkpt><trkpt lat="38.78828" lon="-120.04284000000001"><ele>2548.3220373336226</ele></trkpt><trkpt lat="38.78818" lon="-120.04304000000002"><ele>2553.6427128901705</ele></trkpt><trkpt lat="38.7882" lon="-120.04311000000001"><ele>2555.7324555537807</ele></trkpt><trkpt lat="38.78818" lon="-120.04318999999998"><ele>2556.774938710456</ele></trkpt><trkpt lat="38.78812" lon="-120.04323999999997"><ele>2558.0</ele></trkpt><trkpt lat="38.78793" lon="-120.04326000000003"><ele>2561.895456002094</ele></trkpt><trkpt lat="38.78791" lon="-120.04335000000003"><ele>2565.089760001749</ele></trkpt><trkpt lat="38.78801" lon="-120.04344000000003"><ele>2564.834527866449</ele></trkpt><trkpt lat="38.78796" lon="-120.0435"><ele>2567.6201603249647</ele></trkpt><trkpt lat="38.78772" lon="-120.04353000000003"><ele>2571.536202660636</ele></trkpt><trkpt lat="38.78759" lon="-120.04365999999999"><ele>2576.536807110533</ele></trkpt><trkpt lat="38.78765" lon="-120.04372999999998"><ele>2579.7990435548127</ele></trkpt><trkpt lat="38.78781" lon="-120.04376000000002"><ele>2582.197144890204</ele></trkpt><trkpt lat="38.78782" lon="-120.04381000000001"><ele>2584.0970341667985</ele></trkpt><trkpt lat="38.78777" lon="-120.04389000000003"><ele>2587.255584001541</ele></trkpt><trkpt lat="38.78758" lon="-120.04403000000002"><ele>2591.7229835100047</ele></trkpt><trkpt lat="38.78747" lon="-120.04407000000003"><ele>2591.6441920017824</ele></trkpt><trkpt lat="38.78739" lon="-120.04417000000001"><ele>2593.5693334778875</ele></trkpt><trkpt lat="38.78725" lon="-120.04424"><ele>2595.566766222939</ele></trkpt><trkpt lat="38.78724" lon="-120.04426999999998"><ele>2596.9648675550707</ele></trkpt><trkpt lat="38.78728" lon="-120.04435999999998"><ele>2599.1591715551913</ele></trkpt><trkpt lat="38.78735" lon="-120.04437999999999"><ele>2600.0912391105667</ele></trkpt><trkpt lat="38.78735" lon="-120.04443000000003"><ele>2602.416870155616</ele></trkpt><trkpt lat="38.7872" lon="-120.04461000000003"><ele>2604.8100160015747</ele></trkpt><trkpt lat="38.78716" lon="-120.04476999999997"><ele>2607.266556443181</ele></trkpt><trkpt lat="38.78712" lon="-120.04482999999999"><ele>2608.0</ele></trkpt><trkpt lat="38.78701" lon="-120.04489999999998"><ele>2607.2149321230067</ele></trkpt><trkpt lat="38.78669" lon="-120.04491000000002"><ele>2608.0983640450168</ele></trkpt><trkpt lat="38.78661" lon="-120.04478"><ele>2612.1995664374854</ele></trkpt><trkpt lat="38.78658" lon="-120.04452000000003"><ele>2617.0</ele></trkpt><trkpt lat="38.78643" lon="-120.04422999999997"><ele>2620.0138771721317</ele></trkpt><trkpt lat="38.7864" lon="-120.04410999999999"><ele>2621.0</ele></trkpt><trkpt lat="38.78624" lon="-120.04397"><ele>2622.0161457778886</ele></trkpt><trkpt lat="38.78615" lon="-120.04383999999999"><ele>2625.0</ele></trkpt><trkpt lat="38.78618" lon="-120.04365999999999"><ele>2626.4456973445886</ele></trkpt><trkpt lat="38.78616" lon="-120.04361"><ele>2628.125327249197</ele></trkpt><trkpt lat="38.78605" lon="-120.04358000000002"><ele>2630.7853673969084</ele></trkpt><trkpt lat="38.786" lon="-120.04350999999997"><ele>2633.3284283852217</ele></trkpt><trkpt lat="38.78598" lon="-120.04341999999997"><ele>2636.5959222430174</ele></trkpt><trkpt lat="38.78604" lon="-120.04334"><ele>2638.0</ele></trkpt><trkpt lat="38.78602" lon="-120.04327"><ele>2638.8294313347906</ele></trkpt><trkpt lat="38.78595" lon="-120.04325"><ele>2640.4069560978487</ele></trkpt><trkpt lat="38.78595" lon="-120.04309999999998"><ele>2641.8741344244277</ele></trkpt><trkpt lat="38.78592" lon="-120.04282999999998"><ele>2642.506841400638</ele></trkpt><trkpt lat="38.78594" lon="-120.04251999999997"><ele>2644.311103951186</ele></trkpt><trkpt lat="38.78593" lon="-120.04217"><ele>2646.9910998780774</ele></trkpt><trkpt lat="38.78585" lon="-120.04199"><ele>2649.6919198334217</ele></trkpt><trkpt lat="38.78573" lon="-120.04188999999997"><ele>2651.0</ele></trkpt><trkpt lat="38.78549" lon="-120.04196000000002"><ele>2653.0</ele></trkpt><trkpt lat="38.78526" lon="-120.04218000000003"><ele>2656.0</ele></trkpt><trkpt lat="38.78501" lon="-120.04250000000002"><ele>2660.0</ele></trkpt><trkpt lat="38.78468" lon="-120.04273"><ele>2663.0</ele></trkpt><trkpt lat="38.78449" lon="-120.04296"><ele>2665.0</ele></trkpt><trkpt lat="38.78429" lon="-120.04311999999999"><ele>2666.3972030647</ele></trkpt><trkpt lat="38.78406" lon="-120.04326000000003"><ele>2666.260615139019</ele></trkpt><trkpt lat="38.78393" lon="-120.04329000000001"><ele>2665.2935573342256</ele></trkpt><trkpt lat="38.78368" lon="-120.04345"><ele>2664.893213443447</ele></trkpt><trkpt lat="38.7836" lon="-120.04345"><ele>2663.0</ele></trkpt><trkpt lat="38.78352" lon="-120.04349000000002"><ele>2662.6142328893766</ele></trkpt><trkpt lat="38.78346" lon="-120.04356999999999"><ele>2663.1438547475136</ele></trkpt><trkpt lat="38.78342" lon="-120.04368"><ele>2664.484074763063</ele></trkpt><trkpt lat="38.78334" lon="-120.04377"><ele>2664.1630357866557</ele></trkpt><trkpt lat="38.78289" lon="-120.04390000000001"><ele>2657.247377393443</ele></trkpt><trkpt lat="38.78215" lon="-120.04444999999998"><ele>2647.0</ele></trkpt><trkpt lat="38.782" lon="-120.04453999999998"><ele>2645.0</ele></trkpt><trkpt lat="38.78183" lon="-120.04458"><ele>2642.0</ele></trkpt><trkpt lat="38.78172" lon="-120.04464000000002"><ele>2640.0</ele></trkpt><trkpt lat="38.78155" lon="-120.04482999999999"><ele>2636.014595804305</ele></trkpt><trkpt lat="38.781458558964864" lon="-120.04499687988914"><ele>2633.0</ele></trkpt><trkpt lat="38.78145527581244" lon="-120.04500287201233"><ele>2633.0</ele></trkpt><trkpt lat="38.78115" lon="-120.04556000000002"><ele>2625.0</ele></trkpt><trkpt lat="38.78099" lon="-120.04572999999999"><ele>2621.755534079614</ele></trkpt><trkpt lat="38.7807" lon="-120.04597000000001"><ele>2616.0</ele></trkpt><trkpt lat="38.7806" lon="-120.04617999999999"><ele>2613.4389069639146</ele></trkpt><trkpt lat="38.78053" lon="-120.04651000000001"><ele>2611.7341505747427</ele></trkpt><trkpt lat="38.7804" lon="-120.04669000000001"><ele>2607.0</ele></trkpt><trkpt lat="38.78017" lon="-120.04694999999998"><ele>2598.732550919056</ele></trkpt><trkpt lat="38.78003" lon="-120.04701"><ele>2597.0</ele></trkpt><trkpt lat="38.77996" lon="-120.0471"><ele>2596.0</ele></trkpt><trkpt lat="38.77987" lon="-120.04735"><ele>2597.6036224143704</ele></trkpt><trkpt lat="38.77965" lon="-120.04859999999996"><ele>2607.0</ele></trkpt><trkpt lat="38.77962" lon="-120.04908999999998"><ele>2608.0</ele></trkpt><trkpt lat="38.77953" lon="-120.04942"><ele>2608.0</ele></trkpt><trkpt lat="38.77952" lon="-120.0496"><ele>2607.0</ele></trkpt><trkpt lat="38.77984" lon="-120.05084"><ele>2604.0</ele></trkpt><trkpt lat="38.77985" lon="-120.05099000000001"><ele>2602.5182737161995</ele></trkpt><trkpt lat="38.77975" lon="-120.05142999999998"><ele>2598.0</ele></trkpt><trkpt lat="38.77961" lon="-120.05180999999999"><ele>2596.0</ele></trkpt><trkpt lat="38.77961" lon="-120.05180999999999"><ele>2596.0</ele></trkpt><trkpt lat="38.77961" lon="-120.05180999999999"><ele>2596.0</ele></trkpt><trkpt lat="38.77929" lon="-120.05187000000001"><ele>2593.8682301263716</ele></trkpt><trkpt lat="38.77916" lon="-120.05192999999997"><ele>2593.0</ele></trkpt><trkpt lat="38.77907" lon="-120.05192999999997"><ele>2593.0</ele></trkpt><trkpt lat="38.77889" lon="-120.05187999999998"><ele>2594.0</ele></trkpt><trkpt lat="38.77874" lon="-120.05189000000001"><ele>2597.9797543406758</ele></trkpt><trkpt lat="38.77842" lon="-120.05178999999998"><ele>2605.9513297248805</ele></trkpt><trkpt lat="38.77829" lon="-120.05180999999999"><ele>2608.0</ele></trkpt><trkpt lat="38.77806" lon="-120.05194"><ele>2610.7546852758733</ele></trkpt><trkpt lat="38.77765" lon="-120.05196999999998"><ele>2616.189123556018</ele></trkpt><trkpt lat="38.77756" lon="-120.05189999999999"><ele>2619.0</ele></trkpt><trkpt lat="38.77738" lon="-120.05169000000001"><ele>2624.0</ele></trkpt><trkpt lat="38.77722" lon="-120.05162999999999"><ele>2624.0</ele></trkpt><trkpt lat="38.77691" lon="-120.05169000000001"><ele>2625.15245526284</ele></trkpt><trkpt lat="38.77633" lon="-120.05153999999999"><ele>2626.0</ele></trkpt><trkpt lat="38.77607" lon="-120.05153999999999"><ele>2627.855261178398</ele></trkpt><trkpt lat="38.77579" lon="-120.05160000000001"><ele>2628.0</ele></trkpt><trkpt lat="38.77545" lon="-120.05156"><ele>2629.0</ele></trkpt><trkpt lat="38.77531" lon="-120.05150000000003"><ele>2630.0</ele></trkpt><trkpt lat="38.77511" lon="-120.05133000000001"><ele>2631.0</ele></trkpt><trkpt lat="38.77482" lon="-120.05114000000003"><ele>2632.08938350901</ele></trkpt><trkpt lat="38.77462" lon="-120.05111999999997"><ele>2634.0</ele></trkpt><trkpt lat="38.77405" lon="-120.05081999999999"><ele>2635.3092736306025</ele></trkpt><trkpt lat="38.77363" lon="-120.0507"><ele>2633.708711164153</ele></trkpt><trkpt lat="38.77312" lon="-120.05068"><ele>2634.0</ele></trkpt><trkpt lat="38.77265" lon="-120.05047000000002"><ele>2638.0</ele></trkpt><trkpt lat="38.77245" lon="-120.05032"><ele>2641.0</ele></trkpt><trkpt lat="38.77224" lon="-120.05007999999998"><ele>2644.0</ele></trkpt><trkpt lat="38.77203" lon="-120.04993999999999"><ele>2646.0</ele></trkpt><trkpt lat="38.77169" lon="-120.04996"><ele>2647.0</ele></trkpt><trkpt lat="38.77156" lon="-120.04982000000001"><ele>2647.0</ele></trkpt><trkpt lat="38.77148" lon="-120.04976999999997"><ele>2647.0731982765133</ele></trkpt><trkpt lat="38.77122" lon="-120.04989"><ele>2647.0</ele></trkpt><trkpt lat="38.77122" lon="-120.04989"><ele>2647.0</ele></trkpt><trkpt lat="38.77094" lon="-120.05007"><ele>2647.0</ele></trkpt><trkpt lat="38.77082" lon="-120.05018999999999"><ele>2646.6915628153865</ele></trkpt><trkpt lat="38.77076" lon="-120.05020999999999"><ele>2646.0</ele></trkpt><trkpt lat="38.77072" lon="-120.05018999999999"><ele>2645.0</ele></trkpt><trkpt lat="38.77059" lon="-120.04994999999997"><ele>2644.0590404774994</ele></trkpt><trkpt lat="38.77052" lon="-120.04989999999998"><ele>2643.0</ele></trkpt><trkpt lat="38.77037" lon="-120.04985999999997"><ele>2641.0</ele></trkpt><trkpt lat="38.77027" lon="-120.04979000000003"><ele>2640.0</ele></trkpt><trkpt lat="38.77012" lon="-120.04962999999998"><ele>2638.0</ele></trkpt><trkpt lat="38.77003" lon="-120.04946999999999"><ele>2637.0</ele></trkpt><trkpt lat="38.76981" lon="-120.04933"><ele>2635.0</ele></trkpt><trkpt lat="38.76964" lon="-120.04917"><ele>2632.5074214124925</ele></trkpt><trkpt lat="38.76944" lon="-120.04892999999998"><ele>2630.0</ele></trkpt><trkpt lat="38.76944" lon="-120.04892999999998"><ele>2630.0</ele></trkpt><trkpt lat="38.76944" lon="-120.04892999999998"><ele>2630.0</ele></trkpt><trkpt lat="38.76934" lon="-120.04872"><ele>2631.0</ele></trkpt><trkpt lat="38.76916" lon="-120.04854"><ele>2632.0</ele></trkpt><trkpt lat="38.76908" lon="-120.04852"><ele>2632.192956837538</ele></trkpt><trkpt lat="38.76897" lon="-120.04856000000001"><ele>2633.0</ele></trkpt><trkpt lat="38.76851" lon="-120.04883000000001"><ele>2640.0</ele></trkpt><trkpt lat="38.76845" lon="-120.04883999999998"><ele>2641.0</ele></trkpt><trkpt lat="38.76829" lon="-120.04858999999999"><ele>2645.708540444728</ele></trkpt><trkpt lat="38.76811" lon="-120.04854"><ele>2648.0</ele></trkpt><trkpt lat="38.76785" lon="-120.04834"><ele>2649.0</ele></trkpt><trkpt lat="38.76762" lon="-120.04825"><ele>2648.0</ele></trkpt><trkpt lat="38.76735" lon="-120.04827999999998"><ele>2647.0</ele></trkpt><trkpt lat="38.76717" lon="-120.04825"><ele>2645.0</ele></trkpt><trkpt lat="38.76698" lon="-120.04833000000002"><ele>2643.4059541141287</ele></trkpt><trkpt lat="38.76687" lon="-120.04833000000002"><ele>2642.0</ele></trkpt><trkpt lat="38.7665" lon="-120.04820999999998"><ele>2642.0</ele></trkpt><trkpt lat="38.76615" lon="-120.04816"><ele>2644.0</ele></trkpt><trkpt lat="38.76598" lon="-120.04809"><ele>2643.5147541541373</ele></trkpt><trkpt lat="38.7658" lon="-120.04790000000003"><ele>2643.0</ele></trkpt><trkpt lat="38.76554" lon="-120.04786000000001"><ele>2642.0</ele></trkpt><trkpt lat="38.76528" lon="-120.04771"><ele>2643.0</ele></trkpt><trkpt lat="38.76514" lon="-120.04768999999999"><ele>2642.5459183388502</ele></trkpt><trkpt lat="38.765" lon="-120.04761000000002"><ele>2642.0</ele></trkpt><trkpt lat="38.76471" lon="-120.04737999999998"><ele>2642.0</ele></trkpt><trkpt lat="38.76452" lon="-120.0473"><ele>2642.0</ele></trkpt><trkpt lat="38.76442" lon="-120.04719999999998"><ele>2642.4872355563566</ele></trkpt><trkpt lat="38.76423" lon="-120.04714999999999"><ele>2642.833243423459</ele></trkpt><trkpt lat="38.76397" lon="-120.04716000000002"><ele>2641.0</ele></trkpt><trkpt lat="38.76384" lon="-120.04723000000001"><ele>2640.0</ele></trkpt><trkpt lat="38.76376" lon="-120.04721999999998"><ele>2638.36568159424</ele></trkpt><trkpt lat="38.76371" lon="-120.04723999999999"><ele>2637.83365319483</ele></trkpt><trkpt lat="38.76318" lon="-120.04763000000003"><ele>2633.0</ele></trkpt><trkpt lat="38.76301" lon="-120.04789"><ele>2633.669095110614</ele></trkpt><trkpt lat="38.76294" lon="-120.04806000000002"><ele>2637.0</ele></trkpt><trkpt lat="38.76291" lon="-120.04825"><ele>2637.0</ele></trkpt><trkpt lat="38.76279" lon="-120.04847999999998"><ele>2639.0</ele></trkpt><trkpt lat="38.76277" lon="-120.04867999999999"><ele>2639.0</ele></trkpt><trkpt lat="38.76272" lon="-120.04874000000001"><ele>2640.0</ele></trkpt><trkpt lat="38.76259" lon="-120.04874999999998"><ele>2641.0</ele></trkpt><trkpt lat="38.76253" lon="-120.04881"><ele>2642.0</ele></trkpt><trkpt lat="38.76253" lon="-120.0489"><ele>2642.0</ele></trkpt><trkpt lat="38.76248" lon="-120.04903000000002"><ele>2641.0</ele></trkpt><trkpt lat="38.76233" lon="-120.04916000000003"><ele>2642.0</ele></trkpt><trkpt lat="38.76227" lon="-120.04948000000002"><ele>2642.409632708484</ele></trkpt><trkpt lat="38.76215" lon="-120.04962"><ele>2643.5784484500846</ele></trkpt><trkpt lat="38.762" lon="-120.04970000000003"><ele>2645.0</ele></trkpt><trkpt lat="38.76183" lon="-120.04971"><ele>2646.0</ele></trkpt><trkpt lat="38.76165" lon="-120.04993000000002"><ele>2650.8146527082636</ele></trkpt><trkpt lat="38.76157" lon="-120.04997000000003"><ele>2652.0</ele></trkpt><trkpt lat="38.76142" lon="-120.04998"><ele>2653.0334433112293</ele></trkpt><trkpt lat="38.76121" lon="-120.04971"><ele>2659.584354571998</ele></trkpt><trkpt lat="38.76106" lon="-120.04958999999997"><ele>2663.0</ele></trkpt><trkpt lat="38.76094" lon="-120.0496"><ele>2666.082057319116</ele></trkpt><trkpt lat="38.76083" lon="-120.04970000000003"><ele>2669.021208890248</ele></trkpt><trkpt lat="38.76072" lon="-120.04967999999997"><ele>2671.0775235905066</ele></trkpt><trkpt lat="38.76067" lon="-120.04964999999999"><ele>2672.8579567875713</ele></trkpt><trkpt lat="38.76061" lon="-120.04955000000001"><ele>2674.4438975155354</ele></trkpt><trkpt lat="38.76058" lon="-120.04942"><ele>2676.0</ele></trkpt><trkpt lat="38.7605" lon="-120.04926999999998"><ele>2678.0</ele></trkpt><trkpt lat="38.76036" lon="-120.04912000000002"><ele>2680.0</ele></trkpt><trkpt lat="38.76029" lon="-120.04892000000001"><ele>2682.0</ele></trkpt><trkpt lat="38.76015" lon="-120.04888"><ele>2684.9360095839947</ele></trkpt><trkpt lat="38.76001" lon="-120.04889000000003"><ele>2688.0</ele></trkpt><trkpt lat="38.75993" lon="-120.04881999999998"><ele>2688.0937213859856</ele></trkpt><trkpt lat="38.75985" lon="-120.04881"><ele>2689.5442026671953</ele></trkpt><trkpt lat="38.7598" lon="-120.04895999999997"><ele>2692.456536021808</ele></trkpt><trkpt lat="38.75958" lon="-120.04926"><ele>2700.515722666867</ele></trkpt><trkpt lat="38.75955" lon="-120.04928999999998"><ele>2701.0</ele></trkpt><trkpt lat="38.75941" lon="-120.04928999999998"><ele>2702.1481115923466</ele></trkpt><trkpt lat="38.75938" lon="-120.04933"><ele>2703.7779591111466</ele></trkpt><trkpt lat="38.75937" lon="-120.04948999999999"><ele>2707.0</ele></trkpt><trkpt lat="38.7593" lon="-120.04958999999997"><ele>2708.0</ele></trkpt><trkpt lat="38.75918" lon="-120.04966000000002"><ele>2708.9223883692475</ele></trkpt><trkpt lat="38.75887" lon="-120.04973999999999"><ele>2713.0</ele></trkpt><trkpt lat="38.75873" lon="-120.04998"><ele>2718.0</ele></trkpt><trkpt lat="38.75842" lon="-120.0503"><ele>2723.0</ele></trkpt><trkpt lat="38.75827" lon="-120.05051000000003"><ele>2725.0</ele></trkpt><trkpt lat="38.75804" lon="-120.05068"><ele>2726.6656066342757</ele></trkpt><trkpt lat="38.75799" lon="-120.05084"><ele>2727.0</ele></trkpt><trkpt lat="38.75792" lon="-120.05088999999998"><ele>2727.0</ele></trkpt><trkpt lat="38.75781" lon="-120.05124"><ele>2729.0</ele></trkpt><trkpt lat="38.75774" lon="-120.05133000000001"><ele>2729.999508950318</ele></trkpt><trkpt lat="38.75766" lon="-120.05135000000001"><ele>2730.7489317897707</ele></trkpt><trkpt lat="38.75743" lon="-120.05122"><ele>2733.0</ele></trkpt><trkpt lat="38.75733" lon="-120.05106999999998"><ele>2731.4593140214274</ele></trkpt><trkpt lat="38.75724" lon="-120.05111"><ele>2731.0</ele></trkpt><trkpt lat="38.75714" lon="-120.05135999999999"><ele>2729.1743261571974</ele></trkpt><trkpt lat="38.75705" lon="-120.05147999999997"><ele>2728.795682247728</ele></trkpt><trkpt lat="38.75685" lon="-120.05159000000003"><ele>2727.0</ele></trkpt><trkpt lat="38.75674" lon="-120.05159000000003"><ele>2726.0</ele></trkpt><trkpt lat="38.75646" lon="-120.05186000000003"><ele>2724.0</ele></trkpt><trkpt lat="38.75609" lon="-120.05212"><ele>2722.0</ele></trkpt><trkpt lat="38.75593" lon="-120.05219"><ele>2722.0</ele></trkpt><trkpt lat="38.75584" lon="-120.05236000000002"><ele>2721.0</ele></trkpt><trkpt lat="38.75553" lon="-120.05237"><ele>2719.0</ele></trkpt><trkpt lat="38.75535" lon="-120.05228999999997"><ele>2717.0</ele></trkpt><trkpt lat="38.75506" lon="-120.05205999999998"><ele>2711.0</ele></trkpt><trkpt lat="38.75452" lon="-120.05171999999999"><ele>2713.064204705457</ele></trkpt><trkpt lat="38.75441" lon="-120.05178000000001"><ele>2716.0</ele></trkpt><trkpt lat="38.75408" lon="-120.05218000000002"><ele>2717.6957619097084</ele></trkpt><trkpt lat="38.75408" lon="-120.05218000000002"><ele>2717.6957619097084</ele></trkpt><trkpt lat="38.75398" lon="-120.05222000000003"><ele>2718.0</ele></trkpt><trkpt lat="38.75385" lon="-120.05219"><ele>2719.0</ele></trkpt><trkpt lat="38.75368" lon="-120.05207000000001"><ele>2720.0</ele></trkpt><trkpt lat="38.75354" lon="-120.05201999999997"><ele>2721.0</ele></trkpt><trkpt lat="38.75338" lon="-120.05205000000001"><ele>2723.745353887606</ele></trkpt><trkpt lat="38.75273085119656" lon="-120.05171731123824"><ele>2730.0</ele></trkpt><trkpt lat="38.75273085119656" lon="-120.05171731123824"><ele>2730.0</ele></trkpt><trkpt lat="38.75258" lon="-120.05164000000002"><ele>2731.0</ele></trkpt><trkpt lat="38.75248" lon="-120.05165"><ele>2731.0</ele></trkpt><trkpt lat="38.75242" lon="-120.05171000000001"><ele>2731.0</ele></trkpt><trkpt lat="38.75208" lon="-120.05187999999998"><ele>2734.5156569645424</ele></trkpt><trkpt lat="38.75199" lon="-120.05186000000003"><ele>2736.0</ele></trkpt><trkpt lat="38.75164" lon="-120.05164000000002"><ele>2737.0</ele></trkpt><trkpt lat="38.75149" lon="-120.05151000000001"><ele>2738.0</ele></trkpt><trkpt lat="38.75129" lon="-120.05129"><ele>2738.0</ele></trkpt><trkpt lat="38.75127" lon="-120.05123000000003"><ele>2737.123724365091</ele></trkpt><trkpt lat="38.75126" lon="-120.05117000000001"><ele>2737.0</ele></trkpt><trkpt lat="38.7513" lon="-120.05104"><ele>2736.0</ele></trkpt><trkpt lat="38.7513" lon="-120.05038000000002"><ele>2736.0</ele></trkpt><trkpt lat="38.75126" lon="-120.05027000000001"><ele>2736.0</ele></trkpt><trkpt lat="38.75117" lon="-120.05016"><ele>2736.0</ele></trkpt><trkpt lat="38.75033" lon="-120.0496"><ele>2739.0</ele></trkpt><trkpt lat="38.75027" lon="-120.04953"><ele>2739.0370859475925</ele></trkpt><trkpt lat="38.75001" lon="-120.04939000000002"><ele>2740.0</ele></trkpt><trkpt lat="38.74978" lon="-120.04903000000002"><ele>2738.5234504411137</ele></trkpt><trkpt lat="38.74971" lon="-120.04898000000003"><ele>2738.0</ele></trkpt><trkpt lat="38.74944" lon="-120.0489"><ele>2737.7385066668503</ele></trkpt><trkpt lat="38.74921" lon="-120.04872999999998"><ele>2737.0</ele></trkpt><trkpt lat="38.749" lon="-120.04871000000003"><ele>2736.0</ele></trkpt><trkpt lat="38.74879" lon="-120.04858000000002"><ele>2736.0</ele></trkpt><trkpt lat="38.74847" lon="-120.04829000000001"><ele>2735.0</ele></trkpt><trkpt lat="38.74802" lon="-120.04797000000002"><ele>2726.3973653349094</ele></trkpt><trkpt lat="38.74785" lon="-120.04789"><ele>2726.0</ele></trkpt><trkpt lat="38.74781" lon="-120.0478"><ele>2724.474791110959</ele></trkpt><trkpt lat="38.74776" lon="-120.04775999999998"><ele>2722.8585059215716</ele></trkpt><trkpt lat="38.74759" lon="-120.04784999999998"><ele>2721.2832232899964</ele></trkpt><trkpt lat="38.74713" lon="-120.04822000000001"><ele>2715.0482097789645</ele></trkpt><trkpt lat="38.74701" lon="-120.04822999999999"><ele>2713.334890920203</ele></trkpt><trkpt lat="38.74668" lon="-120.04816"><ele>2710.0</ele></trkpt><trkpt lat="38.74655" lon="-120.04820000000001"><ele>2710.411149959601</ele></trkpt><trkpt lat="38.74634" lon="-120.04802999999998"><ele>2706.0</ele></trkpt><trkpt lat="38.74615" lon="-120.04797000000002"><ele>2703.0</ele></trkpt><trkpt lat="38.74605" lon="-120.04790000000003"><ele>2701.0</ele></trkpt><trkpt lat="38.74593" lon="-120.04788000000002"><ele>2700.203061334789</ele></trkpt><trkpt lat="38.74586" lon="-120.04781000000003"><ele>2698.9408248905092</ele></trkpt><trkpt lat="38.74568" lon="-120.04768999999999"><ele>2696.0</ele></trkpt><trkpt lat="38.74552" lon="-120.04746999999998"><ele>2693.212282203138</ele></trkpt><trkpt lat="38.74539" lon="-120.04739999999998"><ele>2693.9966967488467</ele></trkpt><trkpt lat="38.74515" lon="-120.04744"><ele>2695.0</ele></trkpt><trkpt lat="38.7451" lon="-120.04746999999998"><ele>2695.0</ele></trkpt><trkpt lat="38.74484" lon="-120.04746"><ele>2694.0</ele></trkpt><trkpt lat="38.74453" lon="-120.04748999999998"><ele>2694.0</ele></trkpt><trkpt lat="38.74447" lon="-120.04745000000003"><ele>2693.0</ele></trkpt><trkpt lat="38.74429" lon="-120.04716000000002"><ele>2689.897352121195</ele></trkpt><trkpt lat="38.74393" lon="-120.04691000000003"><ele>2690.0</ele></trkpt><trkpt lat="38.74391" lon="-120.04685999999998"><ele>2690.194923059286</ele></trkpt><trkpt lat="38.74373" lon="-120.04672"><ele>2691.024169466185</ele></trkpt><trkpt lat="38.74326" lon="-120.04655000000002"><ele>2692.4169632856037</ele></trkpt><trkpt lat="38.74307" lon="-120.04638999999997"><ele>2694.0</ele></trkpt><trkpt lat="38.74304" lon="-120.04633000000001"><ele>2693.0</ele></trkpt><trkpt lat="38.74294" lon="-120.04626999999999"><ele>2693.0</ele></trkpt><trkpt lat="38.74292" lon="-120.04613"><ele>2690.5673070549965</ele></trkpt><trkpt lat="38.74266" lon="-120.04574000000002"><ele>2691.0</ele></trkpt><trkpt lat="38.7426" lon="-120.04570000000001"><ele>2691.0</ele></trkpt><trkpt lat="38.74245" lon="-120.04568999999998"><ele>2691.141663998831</ele></trkpt><trkpt lat="38.74232" lon="-120.04557999999997"><ele>2691.4265686697318</ele></trkpt><trkpt lat="38.74218" lon="-120.04552000000001"><ele>2692.0</ele></trkpt><trkpt lat="38.74207" lon="-120.04552000000001"><ele>2692.0</ele></trkpt><trkpt lat="38.74183" lon="-120.04543999999999"><ele>2689.0</ele></trkpt><trkpt lat="38.74176" lon="-120.04538000000002"><ele>2688.6946168905124</ele></trkpt><trkpt lat="38.74171" lon="-120.04525000000001"><ele>2685.636177778244</ele></trkpt><trkpt lat="38.7417" lon="-120.04506000000003"><ele>2685.361628430965</ele></trkpt><trkpt lat="38.74165" lon="-120.04498999999998"><ele>2686.0</ele></trkpt><trkpt lat="38.74163" lon="-120.04491000000002"><ele>2686.134828005057</ele></trkpt><trkpt lat="38.74168" lon="-120.04476999999997"><ele>2686.0</ele></trkpt><trkpt lat="38.74175" lon="-120.04471000000001"><ele>2684.475222757086</ele></trkpt><trkpt lat="38.74181" lon="-120.04448000000002"><ele>2682.89022930339</ele></trkpt><trkpt lat="38.74175" lon="-120.04437999999999"><ele>2682.5231029659753</ele></trkpt><trkpt lat="38.74159" lon="-120.04428000000001"><ele>2680.4309013341554</ele></trkpt><trkpt lat="38.74157" lon="-120.04422999999997"><ele>2679.307730387627</ele></trkpt><trkpt lat="38.74157" lon="-120.04388"><ele>2675.0197352692485</ele></trkpt><trkpt lat="38.74131" lon="-120.04353000000003"><ele>2672.4783680015244</ele></trkpt><trkpt lat="38.74126" lon="-120.04293999999999"><ele>2664.9956388366236</ele></trkpt><trkpt lat="38.74115" lon="-120.04269"><ele>2663.107744694131</ele></trkpt><trkpt lat="38.74115" lon="-120.04264"><ele>2662.0004425666157</ele></trkpt><trkpt lat="38.74129" lon="-120.04251"><ele>2658.0</ele></trkpt><trkpt lat="38.74148" lon="-120.04223000000002"><ele>2655.6076560281217</ele></trkpt><trkpt lat="38.74163" lon="-120.04160999999999"><ele>2657.6452006287873</ele></trkpt><trkpt lat="38.74159" lon="-120.04137000000003"><ele>2659.0</ele></trkpt><trkpt lat="38.74164" lon="-120.0412"><ele>2659.0</ele></trkpt><trkpt lat="38.74167" lon="-120.04093999999998"><ele>2658.255209343508</ele></trkpt><trkpt lat="38.74164" lon="-120.04082"><ele>2659.0</ele></trkpt><trkpt lat="38.74166" lon="-120.04050000000001"><ele>2659.0</ele></trkpt><trkpt lat="38.74169" lon="-120.04036000000002"><ele>2659.0</ele></trkpt><trkpt lat="38.74181" lon="-120.04014000000001"><ele>2657.89022930339</ele></trkpt><trkpt lat="38.7419" lon="-120.03985999999998"><ele>2657.2850943957874</ele></trkpt><trkpt lat="38.74201" lon="-120.03962999999999"><ele>2657.0</ele></trkpt><trkpt lat="38.74204" lon="-120.03944999999999"><ele>2657.4345903869166</ele></trkpt><trkpt lat="38.74203" lon="-120.03930000000003"><ele>2657.0</ele></trkpt><trkpt lat="38.74209" lon="-120.03893"><ele>2655.0</ele></trkpt><trkpt lat="38.74234" lon="-120.03861999999998"><ele>2652.0</ele></trkpt><trkpt lat="38.74246" lon="-120.03820999999999"><ele>2648.5195485631098</ele></trkpt><trkpt lat="38.74251" lon="-120.03787999999997"><ele>2646.223349149342</ele></trkpt><trkpt lat="38.74271" lon="-120.03755000000001"><ele>2644.0</ele></trkpt><trkpt lat="38.74269" lon="-120.03717"><ele>2643.0</ele></trkpt><trkpt lat="38.7427" lon="-120.03696000000002"><ele>2641.5817033406347</ele></trkpt><trkpt lat="38.74277" lon="-120.03674000000001"><ele>2641.0194765917777</ele></trkpt><trkpt lat="38.74286" lon="-120.03661999999997"><ele>2641.0</ele></trkpt><trkpt lat="38.74286" lon="-120.03661999999997"><ele>2641.0</ele></trkpt><trkpt lat="38.742915793183364" lon="-120.03655025852078"><ele>2641.036055903828</ele></trkpt><trkpt lat="38.74294230753334" lon="-120.0365171156393"><ele>2641.0</ele></trkpt><trkpt lat="38.74302" lon="-120.03642000000002"><ele>2641.4077816084027</ele></trkpt><trkpt lat="38.743" lon="-120.03619000000003"><ele>2638.4095751130953</ele></trkpt><trkpt lat="38.74349" lon="-120.03557"><ele>2633.7532879141754</ele></trkpt><trkpt lat="38.74367" lon="-120.0353"><ele>2629.229469656068</ele></trkpt><trkpt lat="38.74395" lon="-120.03498000000002"><ele>2623.0194880012423</ele></trkpt><trkpt lat="38.74423" lon="-120.03481"><ele>2619.096913777292</ele></trkpt><trkpt lat="38.74448" lon="-120.03449999999998"><ele>2612.649866666179</ele></trkpt><trkpt lat="38.74443" lon="-120.03444999999999"><ele>2610.3196977777407</ele></trkpt><trkpt lat="38.74447" lon="-120.03438"><ele>2609.0</ele></trkpt><trkpt lat="38.7443" lon="-120.03436999999997"><ele>2606.0</ele></trkpt><trkpt lat="38.74426" lon="-120.03430000000003"><ele>2606.335688708988</ele></trkpt><trkpt lat="38.74412" lon="-120.03427999999997"><ele>2610.521904603503</ele></trkpt><trkpt lat="38.74408" lon="-120.03415000000001"><ele>2612.0</ele></trkpt><trkpt lat="38.74394" lon="-120.03422999999998"><ele>2618.621010068804</ele></trkpt><trkpt lat="38.7438" lon="-120.03418999999997"><ele>2622.0</ele></trkpt><trkpt lat="38.74356" lon="-120.03427999999997"><ele>2629.0</ele></trkpt><trkpt lat="38.74348" lon="-120.03418999999997"><ele>2632.0</ele></trkpt><trkpt lat="38.74334" lon="-120.0342"><ele>2636.0</ele></trkpt><trkpt lat="38.74315" lon="-120.03426999999999"><ele>2637.0</ele></trkpt><trkpt lat="38.74301" lon="-120.03440999999998"><ele>2638.0</ele></trkpt><trkpt lat="38.74287" lon="-120.03448000000003"><ele>2638.0</ele></trkpt><trkpt lat="38.74212" lon="-120.03415000000001"><ele>2640.0</ele></trkpt><trkpt lat="38.74196" lon="-120.03409999999997"><ele>2640.0</ele></trkpt><trkpt lat="38.74153209842117" lon="-120.03408498590954"><ele>2640.691191773396</ele></trkpt><trkpt lat="38.74153673413899" lon="-120.03408514855101"><ele>2640.6836121319793</ele></trkpt><trkpt lat="38.74196" lon="-120.03409999999997"><ele>2640.0</ele></trkpt><trkpt lat="38.74212" lon="-120.03415000000001"><ele>2640.0</ele></trkpt><trkpt lat="38.74287" lon="-120.03448000000003"><ele>2638.0</ele></trkpt><trkpt lat="38.74301" lon="-120.03440999999998"><ele>2638.0</ele></trkpt><trkpt lat="38.74315" lon="-120.03426999999999"><ele>2637.0</ele></trkpt><trkpt lat="38.74334" lon="-120.0342"><ele>2636.0</ele></trkpt><trkpt lat="38.74348" lon="-120.03418999999997"><ele>2632.0</ele></trkpt><trkpt lat="38.74356" lon="-120.03427999999997"><ele>2629.0</ele></trkpt><trkpt lat="38.7438" lon="-120.03418999999997"><ele>2622.0</ele></trkpt><trkpt lat="38.74394" lon="-120.03422999999998"><ele>2618.621010068804</ele></trkpt><trkpt lat="38.74408" lon="-120.03415000000001"><ele>2612.0</ele></trkpt><trkpt lat="38.74412" lon="-120.03427999999997"><ele>2610.521904603503</ele></trkpt><trkpt lat="38.74426" lon="-120.03430000000003"><ele>2606.335688708988</ele></trkpt><trkpt lat="38.7443" lon="-120.03436999999997"><ele>2606.0</ele></trkpt><trkpt lat="38.74447" lon="-120.03438"><ele>2609.0</ele></trkpt><trkpt lat="38.74443" lon="-120.03444999999999"><ele>2610.3196977777407</ele></trkpt><trkpt lat="38.74448" lon="-120.03449999999998"><ele>2612.649866666179</ele></trkpt><trkpt lat="38.74423" lon="-120.03481"><ele>2619.096913777292</ele></trkpt><trkpt lat="38.74395" lon="-120.03498000000002"><ele>2623.0194880012423</ele></trkpt><trkpt lat="38.74367" lon="-120.0353"><ele>2629.229469656068</ele></trkpt><trkpt lat="38.74349" lon="-120.03557"><ele>2633.7532879141754</ele></trkpt><trkpt lat="38.743" lon="-120.03619000000003"><ele>2638.4095751130953</ele></trkpt><trkpt lat="38.74302" lon="-120.03642000000002"><ele>2641.4077816084027</ele></trkpt><trkpt lat="38.74286" lon="-120.03661999999997"><ele>2641.0</ele></trkpt><trkpt lat="38.74286" lon="-120.03661999999997"><ele>2641.0</ele></trkpt><trkpt lat="38.74277" lon="-120.03674000000001"><ele>2641.0194765917777</ele></trkpt><trkpt lat="38.7427" lon="-120.03696000000002"><ele>2641.5817033406347</ele></trkpt><trkpt lat="38.74269" lon="-120.03717"><ele>2643.0</ele></trkpt><trkpt lat="38.74271" lon="-120.03755000000001"><ele>2644.0</ele></trkpt><trkpt lat="38.74251" lon="-120.03787999999997"><ele>2646.223349149342</ele></trkpt><trkpt lat="38.74246" lon="-120.03820999999999"><ele>2648.5195485631098</ele></trkpt><trkpt lat="38.74234" lon="-120.03861999999998"><ele>2652.0</ele></trkpt><trkpt lat="38.74209" lon="-120.03893"><ele>2655.0</ele></trkpt><trkpt lat="38.74203" lon="-120.03930000000003"><ele>2657.0</ele></trkpt><trkpt lat="38.74204" lon="-120.03944999999999"><ele>2657.4345903869166</ele></trkpt><trkpt lat="38.74201" lon="-120.03962999999999"><ele>2657.0</ele></trkpt><trkpt lat="38.7419" lon="-120.03985999999998"><ele>2657.2850943957874</ele></trkpt><trkpt lat="38.74181" lon="-120.04014000000001"><ele>2657.89022930339</ele></trkpt><trkpt lat="38.74169" lon="-120.04036000000002"><ele>2659.0</ele></trkpt><trkpt lat="38.74166" lon="-120.04050000000001"><ele>2659.0</ele></trkpt><trkpt lat="38.74164" lon="-120.04082"><ele>2659.0</ele></trkpt><trkpt lat="38.74167" lon="-120.04093999999998"><ele>2658.255209343508</ele></trkpt><trkpt lat="38.74164" lon="-120.0412"><ele>2659.0</ele></trkpt><trkpt lat="38.74159" lon="-120.04137000000003"><ele>2659.0</ele></trkpt><trkpt lat="38.74163" lon="-120.04160999999999"><ele>2657.6452006287873</ele></trkpt><trkpt lat="38.74148" lon="-120.04223000000002"><ele>2655.6076560281217</ele></trkpt><trkpt lat="38.74129" lon="-120.04251"><ele>2658.0</ele></trkpt><trkpt lat="38.74115" lon="-120.04264"><ele>2662.0004425666157</ele></trkpt><trkpt lat="38.74115" lon="-120.04269"><ele>2663.107744694131</ele></trkpt><trkpt lat="38.74126" lon="-120.04293999999999"><ele>2664.9956388366236</ele></trkpt><trkpt lat="38.74131" lon="-120.04353000000003"><ele>2672.4783680015244</ele></trkpt><trkpt lat="38.74157" lon="-120.04388"><ele>2675.0197352692485</ele></trkpt><trkpt lat="38.74157" lon="-120.04422999999997"><ele>2679.307730387627</ele></trkpt><trkpt lat="38.74159" lon="-120.04428000000001"><ele>2680.4309013341554</ele></trkpt><trkpt lat="38.74175" lon="-120.04437999999999"><ele>2682.5231029659753</ele></trkpt><trkpt lat="38.74181" lon="-120.04448000000002"><ele>2682.89022930339</ele></trkpt><trkpt lat="38.74175" lon="-120.04471000000001"><ele>2684.475222757086</ele></trkpt><trkpt lat="38.74168" lon="-120.04476999999997"><ele>2686.0</ele></trkpt><trkpt lat="38.74163" lon="-120.04491000000002"><ele>2686.134828005057</ele></trkpt><trkpt lat="38.74165" lon="-120.04498999999998"><ele>2686.0</ele></trkpt><trkpt lat="38.7417" lon="-120.04506000000003"><ele>2685.361628430965</ele></trkpt><trkpt lat="38.74171" lon="-120.04525000000001"><ele>2685.636177778244</ele></trkpt><trkpt lat="38.74176" lon="-120.04538000000002"><ele>2688.6946168905124</ele></trkpt><trkpt lat="38.74183" lon="-120.04543999999999"><ele>2689.0</ele></trkpt><trkpt lat="38.74207" lon="-120.04552000000001"><ele>2692.0</ele></trkpt><trkpt lat="38.74218" lon="-120.04552000000001"><ele>2692.0</ele></trkpt><trkpt lat="38.74232" lon="-120.04557999999997"><ele>2691.4265686697318</ele></trkpt><trkpt lat="38.74245" lon="-120.04568999999998"><ele>2691.141663998831</ele></trkpt><trkpt lat="38.7426" lon="-120.04570000000001"><ele>2691.0</ele></trkpt><trkpt lat="38.74266" lon="-120.04574000000002"><ele>2691.0</ele></trkpt><trkpt lat="38.74292" lon="-120.04613"><ele>2690.5673070549965</ele></trkpt><trkpt lat="38.74294" lon="-120.04626999999999"><ele>2693.0</ele></trkpt><trkpt lat="38.74304" lon="-120.04633000000001"><ele>2693.0</ele></trkpt><trkpt lat="38.74307" lon="-120.04638999999997"><ele>2694.0</ele></trkpt><trkpt lat="38.74326" lon="-120.04655000000002"><ele>2692.4169632856037</ele></trkpt><trkpt lat="38.74373" lon="-120.04672"><ele>2691.024169466185</ele></trkpt><trkpt lat="38.74391" lon="-120.04685999999998"><ele>2690.194923059286</ele></trkpt><trkpt lat="38.74393" lon="-120.04691000000003"><ele>2690.0</ele></trkpt><trkpt lat="38.74429" lon="-120.04716000000002"><ele>2689.897352121195</ele></trkpt><trkpt lat="38.74447" lon="-120.04745000000003"><ele>2693.0</ele></trkpt><trkpt lat="38.74453" lon="-120.04748999999998"><ele>2694.0</ele></trkpt><trkpt lat="38.74484" lon="-120.04746"><ele>2694.0</ele></trkpt><trkpt lat="38.7451" lon="-120.04746999999998"><ele>2695.0</ele></trkpt><trkpt lat="38.74515" lon="-120.04744"><ele>2695.0</ele></trkpt><trkpt lat="38.74539" lon="-120.04739999999998"><ele>2693.9966967488467</ele></trkpt><trkpt lat="38.74552" lon="-120.04746999999998"><ele>2693.212282203138</ele></trkpt><trkpt lat="38.74568" lon="-120.04768999999999"><ele>2696.0</ele></trkpt><trkpt lat="38.74586" lon="-120.04781000000003"><ele>2698.9408248905092</ele></trkpt><trkpt lat="38.74593" lon="-120.04788000000002"><ele>2700.203061334789</ele></trkpt><trkpt lat="38.74605" lon="-120.04790000000003"><ele>2701.0</ele></trkpt><trkpt lat="38.74615" lon="-120.04797000000002"><ele>2703.0</ele></trkpt><trkpt lat="38.74634" lon="-120.04802999999998"><ele>2706.0</ele></trkpt><trkpt lat="38.74655" lon="-120.04820000000001"><ele>2710.411149959601</ele></trkpt><trkpt lat="38.74668" lon="-120.04816"><ele>2710.0</ele></trkpt><trkpt lat="38.74701" lon="-120.04822999999999"><ele>2713.334890920203</ele></trkpt><trkpt lat="38.74713" lon="-120.04822000000001"><ele>2715.0482097789645</ele></trkpt><trkpt lat="38.74759" lon="-120.04784999999998"><ele>2721.2832232899964</ele></trkpt><trkpt lat="38.74776" lon="-120.04775999999998"><ele>2722.8585059215716</ele></trkpt><trkpt lat="38.74781" lon="-120.0478"><ele>2724.474791110959</ele></trkpt><trkpt lat="38.74785" lon="-120.04789"><ele>2726.0</ele></trkpt><trkpt lat="38.74802" lon="-120.04797000000002"><ele>2726.3973653349094</ele></trkpt><trkpt lat="38.74847" lon="-120.04829000000001"><ele>2735.0</ele></trkpt><trkpt lat="38.74879" lon="-120.04858000000002"><ele>2736.0</ele></trkpt><trkpt lat="38.749" lon="-120.04871000000003"><ele>2736.0</ele></trkpt><trkpt lat="38.74921" lon="-120.04872999999998"><ele>2737.0</ele></trkpt><trkpt lat="38.74944" lon="-120.0489"><ele>2737.7385066668503</ele></trkpt><trkpt lat="38.74971" lon="-120.04898000000003"><ele>2738.0</ele></trkpt><trkpt lat="38.74978" lon="-120.04903000000002"><ele>2738.5234504411137</ele></trkpt><trkpt lat="38.75001" lon="-120.04939000000002"><ele>2740.0</ele></trkpt><trkpt lat="38.75027" lon="-120.04953"><ele>2739.0370859475925</ele></trkpt><trkpt lat="38.75033" lon="-120.0496"><ele>2739.0</ele></trkpt><trkpt lat="38.75117" lon="-120.05016"><ele>2736.0</ele></trkpt><trkpt lat="38.75126" lon="-120.05027000000001"><ele>2736.0</ele></trkpt><trkpt lat="38.7513" lon="-120.05038000000002"><ele>2736.0</ele></trkpt><trkpt lat="38.7513" lon="-120.05104"><ele>2736.0</ele></trkpt><trkpt lat="38.75126" lon="-120.05117000000001"><ele>2737.0</ele></trkpt><trkpt lat="38.75127" lon="-120.05123000000003"><ele>2737.123724365091</ele></trkpt><trkpt lat="38.75129" lon="-120.05129"><ele>2738.0</ele></trkpt><trkpt lat="38.75149" lon="-120.05151000000001"><ele>2738.0</ele></trkpt><trkpt lat="38.75164" lon="-120.05164000000002"><ele>2737.0</ele></trkpt><trkpt lat="38.75199" lon="-120.05186000000003"><ele>2736.0</ele></trkpt><trkpt lat="38.75208" lon="-120.05187999999998"><ele>2734.5156569645424</ele></trkpt><trkpt lat="38.75242" lon="-120.05171000000001"><ele>2731.0</ele></trkpt><trkpt lat="38.75248" lon="-120.05165"><ele>2731.0</ele></trkpt><trkpt lat="38.75258" lon="-120.05164000000002"><ele>2731.0</ele></trkpt><trkpt lat="38.75273085119656" lon="-120.05171731123824"><ele>2730.0</ele></trkpt><trkpt lat="38.75273085119656" lon="-120.05171731123824"><ele>2730.0</ele></trkpt><trkpt lat="38.75338" lon="-120.05205000000001"><ele>2723.745353887606</ele></trkpt><trkpt lat="38.75354" lon="-120.05201999999997"><ele>2721.0</ele></trkpt><trkpt lat="38.75368" lon="-120.05207000000001"><ele>2720.0</ele></trkpt><trkpt lat="38.75385" lon="-120.05219"><ele>2719.0</ele></trkpt><trkpt lat="38.75398" lon="-120.05222000000003"><ele>2718.0</ele></trkpt><trkpt lat="38.75408" lon="-120.05218000000002"><ele>2717.6957619097084</ele></trkpt><trkpt lat="38.75408" lon="-120.05218000000002"><ele>2717.6957619097084</ele></trkpt><trkpt lat="38.75441" lon="-120.05178000000001"><ele>2716.0</ele></trkpt><trkpt lat="38.75452" lon="-120.05171999999999"><ele>2713.064204705457</ele></trkpt><trkpt lat="38.75506" lon="-120.05205999999998"><ele>2711.0</ele></trkpt><trkpt lat="38.75535" lon="-120.05228999999997"><ele>2717.0</ele></trkpt><trkpt lat="38.75553" lon="-120.05237"><ele>2719.0</ele></trkpt><trkpt lat="38.75584" lon="-120.05236000000002"><ele>2721.0</ele></trkpt><trkpt lat="38.75593" lon="-120.05219"><ele>2722.0</ele></trkpt><trkpt lat="38.75609" lon="-120.05212"><ele>2722.0</ele></trkpt><trkpt lat="38.75646" lon="-120.05186000000003"><ele>2724.0</ele></trkpt><trkpt lat="38.75674" lon="-120.05159000000003"><ele>2726.0</ele></trkpt><trkpt lat="38.75685" lon="-120.05159000000003"><ele>2727.0</ele></trkpt><trkpt lat="38.75705" lon="-120.05147999999997"><ele>2728.795682247728</ele></trkpt><trkpt lat="38.75714" lon="-120.05135999999999"><ele>2729.1743261571974</ele></trkpt><trkpt lat="38.75724" lon="-120.05111"><ele>2731.0</ele></trkpt><trkpt lat="38.75733" lon="-120.05106999999998"><ele>2731.4593140214274</ele></trkpt><trkpt lat="38.75743" lon="-120.05122"><ele>2733.0</ele></trkpt><trkpt lat="38.75766" lon="-120.05135000000001"><ele>2730.7489317897707</ele></trkpt><trkpt lat="38.75774" lon="-120.05133000000001"><ele>2729.999508950318</ele></trkpt><trkpt lat="38.75781" lon="-120.05124"><ele>2729.0</ele></trkpt><trkpt lat="38.75792" lon="-120.05088999999998"><ele>2727.0</ele></trkpt><trkpt lat="38.75799" lon="-120.05084"><ele>2727.0</ele></trkpt><trkpt lat="38.75804" lon="-120.05068"><ele>2726.6656066342757</ele></trkpt><trkpt lat="38.75827" lon="-120.05051000000003"><ele>2725.0</ele></trkpt><trkpt lat="38.75842" lon="-120.0503"><ele>2723.0</ele></trkpt><trkpt lat="38.75873" lon="-120.04998"><ele>2718.0</ele></trkpt><trkpt lat="38.75887" lon="-120.04973999999999"><ele>2713.0</ele></trkpt><trkpt lat="38.75918" lon="-120.04966000000002"><ele>2708.9223883692475</ele></trkpt><trkpt lat="38.7593" lon="-120.04958999999997"><ele>2708.0</ele></trkpt><trkpt lat="38.75937" lon="-120.04948999999999"><ele>2707.0</ele></trkpt><trkpt lat="38.75938" lon="-120.04933"><ele>2703.7779591111466</ele></trkpt><trkpt lat="38.75941" lon="-120.04928999999998"><ele>2702.1481115923466</ele></trkpt><trkpt lat="38.75955" lon="-120.04928999999998"><ele>2701.0</ele></trkpt><trkpt lat="38.75958" lon="-120.04926"><ele>2700.515722666867</ele></trkpt><trkpt lat="38.7598" lon="-120.04895999999997"><ele>2692.456536021808</ele></trkpt><trkpt lat="38.75985" lon="-120.04881"><ele>2689.5442026671953</ele></trkpt><trkpt lat="38.75993" lon="-120.04881999999998"><ele>2688.0937213859856</ele></trkpt><trkpt lat="38.76001" lon="-120.04889000000003"><ele>2688.0</ele></trkpt><trkpt lat="38.76015" lon="-120.04888"><ele>2684.9360095839947</ele></trkpt><trkpt lat="38.76029" lon="-120.04892000000001"><ele>2682.0</ele></trkpt><trkpt lat="38.76036" lon="-120.04912000000002"><ele>2680.0</ele></trkpt><trkpt lat="38.7605" lon="-120.04926999999998"><ele>2678.0</ele></trkpt><trkpt lat="38.76058" lon="-120.04942"><ele>2676.0</ele></trkpt><trkpt lat="38.76061" lon="-120.04955000000001"><ele>2674.4438975155354</ele></trkpt><trkpt lat="38.76067" lon="-120.04964999999999"><ele>2672.8579567875713</ele></trkpt><trkpt lat="38.76072" lon="-120.04967999999997"><ele>2671.0775235905066</ele></trkpt><trkpt lat="38.76083" lon="-120.04970000000003"><ele>2669.021208890248</ele></trkpt><trkpt lat="38.76094" lon="-120.0496"><ele>2666.082057319116</ele></trkpt><trkpt lat="38.76106" lon="-120.04958999999997"><ele>2663.0</ele></trkpt><trkpt lat="38.76121" lon="-120.04971"><ele>2659.584354571998</ele></trkpt><trkpt lat="38.76142" lon="-120.04998"><ele>2653.0334433112293</ele></trkpt><trkpt lat="38.76157" lon="-120.04997000000003"><ele>2652.0</ele></trkpt><trkpt lat="38.76165" lon="-120.04993000000002"><ele>2650.8146527082636</ele></trkpt><trkpt lat="38.76183" lon="-120.04971"><ele>2646.0</ele></trkpt><trkpt lat="38.762" lon="-120.04970000000003"><ele>2645.0</ele></trkpt><trkpt lat="38.76215" lon="-120.04962"><ele>2643.5784484500846</ele></trkpt><trkpt lat="38.76227" lon="-120.04948000000002"><ele>2642.409632708484</ele></trkpt><trkpt lat="38.76233" lon="-120.04916000000003"><ele>2642.0</ele></trkpt><trkpt lat="38.76248" lon="-120.04903000000002"><ele>2641.0</ele></trkpt><trkpt lat="38.76253" lon="-120.0489"><ele>2642.0</ele></trkpt><trkpt lat="38.76253" lon="-120.04881"><ele>2642.0</ele></trkpt><trkpt lat="38.76259" lon="-120.04874999999998"><ele>2641.0</ele></trkpt><trkpt lat="38.76272" lon="-120.04874000000001"><ele>2640.0</ele></trkpt><trkpt lat="38.76277" lon="-120.04867999999999"><ele>2639.0</ele></trkpt><trkpt lat="38.76279" lon="-120.04847999999998"><ele>2639.0</ele></trkpt><trkpt lat="38.76291" lon="-120.04825"><ele>2637.0</ele></trkpt><trkpt lat="38.76294" lon="-120.04806000000002"><ele>2637.0</ele></trkpt><trkpt lat="38.76301" lon="-120.04789"><ele>2633.669095110614</ele></trkpt><trkpt lat="38.76318" lon="-120.04763000000003"><ele>2633.0</ele></trkpt><trkpt lat="38.76371" lon="-120.04723999999999"><ele>2637.83365319483</ele></trkpt><trkpt lat="38.76376" lon="-120.04721999999998"><ele>2638.36568159424</ele></trkpt><trkpt lat="38.76384" lon="-120.04723000000001"><ele>2640.0</ele></trkpt><trkpt lat="38.76397" lon="-120.04716000000002"><ele>2641.0</ele></trkpt><trkpt lat="38.76423" lon="-120.04714999999999"><ele>2642.833243423459</ele></trkpt><trkpt lat="38.76442" lon="-120.04719999999998"><ele>2642.4872355563566</ele></trkpt><trkpt lat="38.76452" lon="-120.0473"><ele>2642.0</ele></trkpt><trkpt lat="38.76471" lon="-120.04737999999998"><ele>2642.0</ele></trkpt><trkpt lat="38.765" lon="-120.04761000000002"><ele>2642.0</ele></trkpt><trkpt lat="38.76514" lon="-120.04768999999999"><ele>2642.5459183388502</ele></trkpt><trkpt lat="38.76528" lon="-120.04771"><ele>2643.0</ele></trkpt><trkpt lat="38.76554" lon="-120.04786000000001"><ele>2642.0</ele></trkpt><trkpt lat="38.7658" lon="-120.04790000000003"><ele>2643.0</ele></trkpt><trkpt lat="38.76598" lon="-120.04809"><ele>2643.5147541541373</ele></trkpt><trkpt lat="38.76615" lon="-120.04816"><ele>2644.0</ele></trkpt><trkpt lat="38.7665" lon="-120.04820999999998"><ele>2642.0</ele></trkpt><trkpt lat="38.76659260296673" lon="-120.04824003339462"><ele>2641.0</ele></trkpt><trkpt lat="38.76670722793385" lon="-120.048277208983"><ele>2641.0</ele></trkpt><trkpt lat="38.76687" lon="-120.04833000000002"><ele>2642.0</ele></trkpt><trkpt lat="38.76698" lon="-120.04833000000002"><ele>2643.4059541141287</ele></trkpt><trkpt lat="38.76717" lon="-120.04825"><ele>2645.0</ele></trkpt><trkpt lat="38.76735" lon="-120.04827999999998"><ele>2647.0</ele></trkpt><trkpt lat="38.76762" lon="-120.04825"><ele>2648.0</ele></trkpt><trkpt lat="38.76785" lon="-120.04834"><ele>2649.0</ele></trkpt><trkpt lat="38.76811" lon="-120.04854"><ele>2648.0</ele></trkpt><trkpt lat="38.76829" lon="-120.04858999999999"><ele>2645.708540444728</ele></trkpt><trkpt lat="38.76845" lon="-120.04883999999998"><ele>2641.0</ele></trkpt><trkpt lat="38.76851" lon="-120.04883000000001"><ele>2640.0</ele></trkpt><trkpt lat="38.76897" lon="-120.04856000000001"><ele>2633.0</ele></trkpt><trkpt lat="38.76908" lon="-120.04852"><ele>2632.192956837538</ele></trkpt><trkpt lat="38.76916" lon="-120.04854"><ele>2632.0</ele></trkpt><trkpt lat="38.76934" lon="-120.04872"><ele>2631.0</ele></trkpt><trkpt lat="38.76944" lon="-120.04892999999998"><ele>2630.0</ele></trkpt><trkpt lat="38.76944" lon="-120.04892999999998"><ele>2630.0</ele></trkpt><trkpt lat="38.76944" lon="-120.04892999999998"><ele>2630.0</ele></trkpt><trkpt lat="38.76964" lon="-120.04917"><ele>2632.5074214124925</ele></trkpt><trkpt lat="38.76981" lon="-120.04933"><ele>2635.0</ele></trkpt><trkpt lat="38.77003" lon="-120.04946999999999"><ele>2637.0</ele></trkpt><trkpt lat="38.77012" lon="-120.04962999999998"><ele>2638.0</ele></trkpt><trkpt lat="38.77027" lon="-120.04979000000003"><ele>2640.0</ele></trkpt><trkpt lat="38.77037" lon="-120.04985999999997"><ele>2641.0</ele></trkpt><trkpt lat="38.77052" lon="-120.04989999999998"><ele>2643.0</ele></trkpt><trkpt lat="38.77059" lon="-120.04994999999997"><ele>2644.0590404774994</ele></trkpt><trkpt lat="38.77072" lon="-120.05018999999999"><ele>2645.0</ele></trkpt><trkpt lat="38.77076" lon="-120.05020999999999"><ele>2646.0</ele></trkpt><trkpt lat="38.77082" lon="-120.05018999999999"><ele>2646.6915628153865</ele></trkpt><trkpt lat="38.77094" lon="-120.05007"><ele>2647.0</ele></trkpt><trkpt lat="38.77122" lon="-120.04989"><ele>2647.0</ele></trkpt><trkpt lat="38.77122" lon="-120.04989"><ele>2647.0</ele></trkpt><trkpt lat="38.77148" lon="-120.04976999999997"><ele>2647.0731982765133</ele></trkpt><trkpt lat="38.77156" lon="-120.04982000000001"><ele>2647.0</ele></trkpt><trkpt lat="38.77169" lon="-120.04996"><ele>2647.0</ele></trkpt><trkpt lat="38.77203" lon="-120.04993999999999"><ele>2646.0</ele></trkpt><trkpt lat="38.77224" lon="-120.05007999999998"><ele>2644.0</ele></trkpt><trkpt lat="38.77245" lon="-120.05032"><ele>2641.0</ele></trkpt><trkpt lat="38.77265" lon="-120.05047000000002"><ele>2638.0</ele></trkpt><trkpt lat="38.77312" lon="-120.05068"><ele>2634.0</ele></trkpt><trkpt lat="38.77363" lon="-120.0507"><ele>2633.708711164153</ele></trkpt><trkpt lat="38.77405" lon="-120.05081999999999"><ele>2635.3092736306025</ele></trkpt><trkpt lat="38.77462" lon="-120.05111999999997"><ele>2634.0</ele></trkpt><trkpt lat="38.77482" lon="-120.05114000000003"><ele>2632.08938350901</ele></trkpt><trkpt lat="38.77511" lon="-120.05133000000001"><ele>2631.0</ele></trkpt><trkpt lat="38.77531" lon="-120.05150000000003"><ele>2630.0</ele></trkpt><trkpt lat="38.77545" lon="-120.05156"><ele>2629.0</ele></trkpt><trkpt lat="38.77579" lon="-120.05160000000001"><ele>2628.0</ele></trkpt><trkpt lat="38.77607" lon="-120.05153999999999"><ele>2627.855261178398</ele></trkpt><trkpt lat="38.77633" lon="-120.05153999999999"><ele>2626.0</ele></trkpt><trkpt lat="38.77691" lon="-120.05169000000001"><ele>2625.15245526284</ele></trkpt><trkpt lat="38.77722" lon="-120.05162999999999"><ele>2624.0</ele></trkpt><trkpt lat="38.77738" lon="-120.05169000000001"><ele>2624.0</ele></trkpt><trkpt lat="38.77756" lon="-120.05189999999999"><ele>2619.0</ele></trkpt><trkpt lat="38.77765" lon="-120.05196999999998"><ele>2616.189123556018</ele></trkpt><trkpt lat="38.77806" lon="-120.05194"><ele>2610.7546852758733</ele></trkpt><trkpt lat="38.77829" lon="-120.05180999999999"><ele>2608.0</ele></trkpt><trkpt lat="38.77842" lon="-120.05178999999998"><ele>2605.9513297248805</ele></trkpt><trkpt lat="38.77874" lon="-120.05189000000001"><ele>2597.9797543406758</ele></trkpt><trkpt lat="38.77889" lon="-120.05187999999998"><ele>2594.0</ele></trkpt><trkpt lat="38.77907" lon="-120.05192999999997"><ele>2593.0</ele></trkpt><trkpt lat="38.77916" lon="-120.05192999999997"><ele>2593.0</ele></trkpt><trkpt lat="38.77929" lon="-120.05187000000001"><ele>2593.8682301263716</ele></trkpt><trkpt lat="38.77961" lon="-120.05180999999999"><ele>2596.0</ele></trkpt><trkpt lat="38.77961" lon="-120.05180999999999"><ele>2596.0</ele></trkpt><trkpt lat="38.77961" lon="-120.05180999999999"><ele>2596.0</ele></trkpt><trkpt lat="38.77975" lon="-120.05142999999998"><ele>2598.0</ele></trkpt><trkpt lat="38.77985" lon="-120.05099000000001"><ele>2602.5182737161995</ele></trkpt><trkpt lat="38.77984" lon="-120.05084"><ele>2604.0</ele></trkpt><trkpt lat="38.77952" lon="-120.0496"><ele>2607.0</ele></trkpt><trkpt lat="38.77953" lon="-120.04942"><ele>2608.0</ele></trkpt><trkpt lat="38.77962" lon="-120.04908999999998"><ele>2608.0</ele></trkpt><trkpt lat="38.77965" lon="-120.04859999999996"><ele>2607.0</ele></trkpt><trkpt lat="38.77987" lon="-120.04735"><ele>2597.6036224143704</ele></trkpt><trkpt lat="38.77996" lon="-120.0471"><ele>2596.0</ele></trkpt><trkpt lat="38.78003" lon="-120.04701"><ele>2597.0</ele></trkpt><trkpt lat="38.78017" lon="-120.04694999999998"><ele>2598.732550919056</ele></trkpt><trkpt lat="38.7804" lon="-120.04669000000001"><ele>2607.0</ele></trkpt><trkpt lat="38.78053" lon="-120.04651000000001"><ele>2611.7341505747427</ele></trkpt><trkpt lat="38.7806" lon="-120.04617999999999"><ele>2613.4389069639146</ele></trkpt><trkpt lat="38.7807" lon="-120.04597000000001"><ele>2616.0</ele></trkpt><trkpt lat="38.78099" lon="-120.04572999999999"><ele>2621.755534079614</ele></trkpt><trkpt lat="38.78115" lon="-120.04556000000002"><ele>2625.0</ele></trkpt><trkpt lat="38.78155" lon="-120.04482999999999"><ele>2636.014595804305</ele></trkpt><trkpt lat="38.78172" lon="-120.04464000000002"><ele>2640.0</ele></trkpt><trkpt lat="38.78183" lon="-120.04458"><ele>2642.0</ele></trkpt><trkpt lat="38.782" lon="-120.04453999999998"><ele>2645.0</ele></trkpt><trkpt lat="38.78215" lon="-120.04444999999998"><ele>2647.0</ele></trkpt><trkpt lat="38.78289" lon="-120.04390000000001"><ele>2657.247377393443</ele></trkpt><trkpt lat="38.78334" lon="-120.04377"><ele>2664.1630357866557</ele></trkpt><trkpt lat="38.78342" lon="-120.04368"><ele>2664.484074763063</ele></trkpt><trkpt lat="38.78346" lon="-120.04356999999999"><ele>2663.1438547475136</ele></trkpt><trkpt lat="38.78352" lon="-120.04349000000002"><ele>2662.6142328893766</ele></trkpt><trkpt lat="38.7836" lon="-120.04345"><ele>2663.0</ele></trkpt><trkpt lat="38.78368" lon="-120.04345"><ele>2664.893213443447</ele></trkpt><trkpt lat="38.78393" lon="-120.04329000000001"><ele>2665.2935573342256</ele></trkpt><trkpt lat="38.78406" lon="-120.04326000000003"><ele>2666.260615139019</ele></trkpt><trkpt lat="38.78429" lon="-120.04311999999999"><ele>2666.3972030647</ele></trkpt><trkpt lat="38.78449" lon="-120.04296"><ele>2665.0</ele></trkpt><trkpt lat="38.78468" lon="-120.04273"><ele>2663.0</ele></trkpt><trkpt lat="38.78501" lon="-120.04250000000002"><ele>2660.0</ele></trkpt><trkpt lat="38.78526" lon="-120.04218000000003"><ele>2656.0</ele></trkpt><trkpt lat="38.78549" lon="-120.04196000000002"><ele>2653.0</ele></trkpt><trkpt lat="38.78573" lon="-120.04188999999997"><ele>2651.0</ele></trkpt><trkpt lat="38.78585" lon="-120.04199"><ele>2649.6919198334217</ele></trkpt><trkpt lat="38.78593" lon="-120.04217"><ele>2646.9910998780774</ele></trkpt><trkpt lat="38.78594" lon="-120.04251999999997"><ele>2644.311103951186</ele></trkpt><trkpt lat="38.78592" lon="-120.04282999999998"><ele>2642.506841400638</ele></trkpt><trkpt lat="38.78595" lon="-120.04309999999998"><ele>2641.8741344244277</ele></trkpt><trkpt lat="38.78595" lon="-120.04325"><ele>2640.4069560978487</ele></trkpt><trkpt lat="38.78602" lon="-120.04327"><ele>2638.8294313347906</ele></trkpt><trkpt lat="38.78604" lon="-120.04334"><ele>2638.0</ele></trkpt><trkpt lat="38.78598" lon="-120.04341999999997"><ele>2636.5959222430174</ele></trkpt><trkpt lat="38.786" lon="-120.04350999999997"><ele>2633.3284283852217</ele></trkpt><trkpt lat="38.78605" lon="-120.04358000000002"><ele>2630.7853673969084</ele></trkpt><trkpt lat="38.78616" lon="-120.04361"><ele>2628.125327249197</ele></trkpt><trkpt lat="38.78618" lon="-120.04365999999999"><ele>2626.4456973445886</ele></trkpt><trkpt lat="38.78615" lon="-120.04383999999999"><ele>2625.0</ele></trkpt><trkpt lat="38.78624" lon="-120.04397"><ele>2622.0161457778886</ele></trkpt><trkpt lat="38.7864" lon="-120.04410999999999"><ele>2621.0</ele></trkpt><trkpt lat="38.78643" lon="-120.04422999999997"><ele>2620.0138771721317</ele></trkpt><trkpt lat="38.78658" lon="-120.04452000000003"><ele>2617.0</ele></trkpt><trkpt lat="38.78661" lon="-120.04478"><ele>2612.1995664374854</ele></trkpt><trkpt lat="38.78669" lon="-120.04491000000002"><ele>2608.0983640450168</ele></trkpt><trkpt lat="38.78701" lon="-120.04489999999998"><ele>2607.2149321230067</ele></trkpt><trkpt lat="38.78712" lon="-120.04482999999999"><ele>2608.0</ele></trkpt><trkpt lat="38.78716" lon="-120.04476999999997"><ele>2607.266556443181</ele></trkpt><trkpt lat="38.7872" lon="-120.04461000000003"><ele>2604.8100160015747</ele></trkpt><trkpt lat="38.78735" lon="-120.04443000000003"><ele>2602.416870155616</ele></trkpt><trkpt lat="38.78735" lon="-120.04437999999999"><ele>2600.0912391105667</ele></trkpt><trkpt lat="38.78728" lon="-120.04435999999998"><ele>2599.1591715551913</ele></trkpt><trkpt lat="38.78724" lon="-120.04426999999998"><ele>2596.9648675550707</ele></trkpt><trkpt lat="38.78725" lon="-120.04424"><ele>2595.566766222939</ele></trkpt><trkpt lat="38.78739" lon="-120.04417000000001"><ele>2593.5693334778875</ele></trkpt><trkpt lat="38.78747" lon="-120.04407000000003"><ele>2591.6441920017824</ele></trkpt><trkpt lat="38.78758" lon="-120.04403000000002"><ele>2591.7229835100047</ele></trkpt><trkpt lat="38.78777" lon="-120.04389000000003"><ele>2587.255584001541</ele></trkpt><trkpt lat="38.78782" lon="-120.04381000000001"><ele>2584.0970341667985</ele></trkpt><trkpt lat="38.78781" lon="-120.04376000000002"><ele>2582.197144890204</ele></trkpt><trkpt lat="38.78765" lon="-120.04372999999998"><ele>2579.7990435548127</ele></trkpt><trkpt lat="38.78759" lon="-120.04365999999999"><ele>2576.536807110533</ele></trkpt><trkpt lat="38.78772" lon="-120.04353000000003"><ele>2571.536202660636</ele></trkpt><trkpt lat="38.78796" lon="-120.0435"><ele>2567.6201603249647</ele></trkpt><trkpt lat="38.78801" lon="-120.04344000000003"><ele>2564.834527866449</ele></trkpt><trkpt lat="38.78791" lon="-120.04335000000003"><ele>2565.089760001749</ele></trkpt><trkpt lat="38.78793" lon="-120.04326000000003"><ele>2561.895456002094</ele></trkpt><trkpt lat="38.78812" lon="-120.04323999999997"><ele>2558.0</ele></trkpt><trkpt lat="38.78818" lon="-120.04318999999998"><ele>2556.774938710456</ele></trkpt><trkpt lat="38.7882" lon="-120.04311000000001"><ele>2555.7324555537807</ele></trkpt><trkpt lat="38.78818" lon="-120.04304000000002"><ele>2553.6427128901705</ele></trkpt><trkpt lat="38.78828" lon="-120.04284000000001"><ele>2548.3220373336226</ele></trkpt><trkpt lat="38.78828" lon="-120.04269"><ele>2546.40750676021</ele></trkpt><trkpt lat="38.78827" lon="-120.0426"><ele>2546.000740358423</ele></trkpt><trkpt lat="38.78822" lon="-120.04250000000002"><ele>2544.4768888899125</ele></trkpt><trkpt lat="38.78819" lon="-120.04237999999998"><ele>2542.884483555332</ele></trkpt><trkpt lat="38.78821" lon="-120.04228999999998"><ele>2540.8163620689106</ele></trkpt><trkpt lat="38.7882" lon="-120.04203000000001"><ele>2535.763912867289</ele></trkpt><trkpt lat="38.78829" lon="-120.04185000000001"><ele>2525.809618284926</ele></trkpt><trkpt lat="38.78828" lon="-120.04163"><ele>2525.40750676021</ele></trkpt><trkpt lat="38.78835" lon="-120.04145"><ele>2518.22228567861</ele></trkpt><trkpt lat="38.78835" lon="-120.04145"><ele>2518.22228567861</ele></trkpt><trkpt lat="38.78837" lon="-120.04140000000001"><ele>2517.0265074726194</ele></trkpt><trkpt lat="38.78835" lon="-120.04113999999998"><ele>2516.5194614436705</ele></trkpt><trkpt lat="38.7884" lon="-120.04084"><ele>2509.232839534059</ele></trkpt><trkpt lat="38.78837" lon="-120.0403"><ele>2504.0265074726194</ele></trkpt><trkpt lat="38.78843" lon="-120.03976999999998"><ele>2504.439170839265</ele></trkpt><trkpt lat="38.78855" lon="-120.03960999999998"><ele>2493.5836925405556</ele></trkpt><trkpt lat="38.78858" lon="-120.03937000000002"><ele>2495.4708160515875</ele></trkpt><trkpt lat="38.78885" lon="-120.0392"><ele>2486.3277298770845</ele></trkpt><trkpt lat="38.78896" lon="-120.03888"><ele>2487.7508994620293</ele></trkpt><trkpt lat="38.78918" lon="-120.03847999999999"><ele>2484.728518412914</ele></trkpt><trkpt lat="38.78924" lon="-120.03802999999999"><ele>2480.009830797091</ele></trkpt><trkpt lat="38.78935" lon="-120.03764000000001"><ele>2480.0</ele></trkpt><trkpt lat="38.78933" lon="-120.03754000000004"><ele>2482.675864887424</ele></trkpt><trkpt lat="38.78924" lon="-120.03745000000004"><ele>2485.0</ele></trkpt><trkpt lat="38.78918" lon="-120.03728999999998"><ele>2488.131595843676</ele></trkpt><trkpt lat="38.78926" lon="-120.03710000000001"><ele>2487.0</ele></trkpt><trkpt lat="38.78943" lon="-120.03692000000001"><ele>2486.7205669685864</ele></trkpt><trkpt lat="38.78963" lon="-120.0369"><ele>2490.0</ele></trkpt><trkpt lat="38.78993" lon="-120.03700000000003"><ele>2489.6352846985255</ele></trkpt><trkpt lat="38.79031" lon="-120.03681"><ele>2482.696330666542</ele></trkpt><trkpt lat="38.7904" lon="-120.03683999999998"><ele>2480.0</ele></trkpt><trkpt lat="38.79057" lon="-120.03674000000001"><ele>2477.4686019342307</ele></trkpt><trkpt lat="38.79071" lon="-120.03685999999999"><ele>2473.0432589085754</ele></trkpt><trkpt lat="38.79094" lon="-120.03687000000002"><ele>2465.900127999019</ele></trkpt><trkpt lat="38.79151" lon="-120.03669000000002"><ele>2459.780301789593</ele></trkpt><trkpt lat="38.79197" lon="-120.03661999999997"><ele>2453.5509724454023</ele></trkpt><trkpt lat="38.79197" lon="-120.03661999999997"><ele>2453.5509724454023</ele></trkpt><trkpt lat="38.79226" lon="-120.03658000000001"><ele>2453.673201840951</ele></trkpt><trkpt lat="38.79246" lon="-120.03649000000001"><ele>2450.0922264405526</ele></trkpt><trkpt lat="38.79261" lon="-120.03649000000001"><ele>2444.6094115548767</ele></trkpt><trkpt lat="38.79279" lon="-120.03643999999997"><ele>2441.939580446109</ele></trkpt><trkpt lat="38.79305" lon="-120.03647999999998"><ele>2437.0754453339614</ele></trkpt><trkpt lat="38.79327" lon="-120.03643"><ele>2431.020579597833</ele></trkpt><trkpt lat="38.79347" lon="-120.03634"><ele>2426.636771503528</ele></trkpt><trkpt lat="38.79361" lon="-120.03611999999998"><ele>2423.9589011539883</ele></trkpt><trkpt lat="38.79372" lon="-120.03602999999998"><ele>2420.2309666202486</ele></trkpt><trkpt lat="38.79381" lon="-120.03597000000002"><ele>2421.8059014382306</ele></trkpt><trkpt lat="38.79393" lon="-120.03598"><ele>2419.341423713602</ele></trkpt><trkpt lat="38.794" lon="-120.03593999999998"><ele>2418.642871788703</ele></trkpt><trkpt lat="38.79402" lon="-120.03588000000002"><ele>2419.2432014648803</ele></trkpt><trkpt lat="38.79405" lon="-120.03584999999998"><ele>2420.43557333434</ele></trkpt><trkpt lat="38.79417" lon="-120.03584999999998"><ele>2419.0</ele></trkpt><trkpt lat="38.79451" lon="-120.03597000000002"><ele>2414.843167998828</ele></trkpt><trkpt lat="38.79485" lon="-120.03598999999997"><ele>2410.9111004453152</ele></trkpt><trkpt lat="38.79495" lon="-120.03595999999999"><ele>2410.3092017779127</ele></trkpt><trkpt lat="38.79502" lon="-120.03591"><ele>2410.2121754697214</ele></trkpt><trkpt lat="38.79508" lon="-120.03584000000001"><ele>2410.017319027513</ele></trkpt><trkpt lat="38.79512" lon="-120.03566000000001"><ele>2408.8352153812784</ele></trkpt><trkpt lat="38.79517" lon="-120.03557999999998"><ele>2407.0</ele></trkpt><trkpt lat="38.79532" lon="-120.03548999999998"><ele>2403.787210666109</ele></trkpt><trkpt lat="38.7955" lon="-120.03550000000001"><ele>2400.783588111101</ele></trkpt><trkpt lat="38.79582" lon="-120.03584000000001"><ele>2394.0566532863304</ele></trkpt><trkpt lat="38.79598" lon="-120.03609"><ele>2389.0085487887263</ele></trkpt><trkpt lat="38.79601" lon="-120.03607999999997"><ele>2387.2146893460304</ele></trkpt><trkpt lat="38.79606" lon="-120.03591"><ele>2384.224921932444</ele></trkpt><trkpt lat="38.79614" lon="-120.03580999999997"><ele>2381.1322582535468</ele></trkpt><trkpt lat="38.79621" lon="-120.03577999999999"><ele>2379.6978097786196</ele></trkpt><trkpt lat="38.79641" lon="-120.03577000000001"><ele>2373.4603348704986</ele></trkpt><trkpt lat="38.79661" lon="-120.03557"><ele>2369.6584124463125</ele></trkpt><trkpt lat="38.79681" lon="-120.03494999999998"><ele>2366.3781590498984</ele></trkpt><trkpt lat="38.79694" lon="-120.03484000000003"><ele>2365.0</ele></trkpt><trkpt lat="38.79697" lon="-120.03478000000001"><ele>2363.8107885569334</ele></trkpt><trkpt lat="38.797" lon="-120.03476"><ele>2363.0039429900553</ele></trkpt><trkpt lat="38.79708" lon="-120.03480000000002"><ele>2361.3691199994646</ele></trkpt><trkpt lat="38.79709" lon="-120.03485"><ele>2361.0</ele></trkpt><trkpt lat="38.79714" lon="-120.03489000000002"><ele>2359.7074177015347</ele></trkpt><trkpt lat="38.79724" lon="-120.03484000000003"><ele>2358.0</ele></trkpt><trkpt lat="38.79725" lon="-120.03451999999999"><ele>2356.0678385049105</ele></trkpt><trkpt lat="38.79719" lon="-120.03435999999999"><ele>2355.08221054999</ele></trkpt><trkpt lat="38.79718" lon="-120.03422999999998"><ele>2352.303558340489</ele></trkpt><trkpt lat="38.79724" lon="-120.03413"><ele>2349.801692635104</ele></trkpt><trkpt lat="38.79729" lon="-120.03413999999998"><ele>2348.0</ele></trkpt><trkpt lat="38.79739" lon="-120.03426999999999"><ele>2347.0</ele></trkpt><trkpt lat="38.7974" lon="-120.03435000000002"><ele>2347.0</ele></trkpt><trkpt lat="38.79762" lon="-120.03493000000003"><ele>2339.0</ele></trkpt><trkpt lat="38.79762" lon="-120.03517999999997"><ele>2337.9431250467896</ele></trkpt><trkpt lat="38.79772" lon="-120.03543000000002"><ele>2333.963453045115</ele></trkpt><trkpt lat="38.79773" lon="-120.03573"><ele>2328.0102257934586</ele></trkpt><trkpt lat="38.79806" lon="-120.03602999999998"><ele>2316.602799640127</ele></trkpt><trkpt lat="38.79812" lon="-120.03616999999997"><ele>2319.4775075544603</ele></trkpt><trkpt lat="38.7982" lon="-120.03628000000003"><ele>2319.7072312634327</ele></trkpt><trkpt lat="38.7983" lon="-120.03634"><ele>2319.5125807570294</ele></trkpt><trkpt lat="38.79851" lon="-120.03636"><ele>2316.2403928300364</ele></trkpt><trkpt lat="38.7986" lon="-120.03642000000002"><ele>2315.1283520008437</ele></trkpt><trkpt lat="38.79866" lon="-120.03658000000001"><ele>2316.0</ele></trkpt><trkpt lat="38.79871" lon="-120.03661999999997"><ele>2315.870106866186</ele></trkpt><trkpt lat="38.79871" lon="-120.03661999999997"><ele>2315.870106866186</ele></trkpt><trkpt lat="38.799" lon="-120.03685999999999"><ele>2313.268056737026</ele></trkpt><trkpt lat="38.79925" lon="-120.03691000000003"><ele>2310.4563851779385</ele></trkpt><trkpt lat="38.79946" lon="-120.03709000000003"><ele>2306.9455011980313</ele></trkpt><trkpt lat="38.79971" lon="-120.03723000000002"><ele>2301.0</ele></trkpt><trkpt lat="38.79987" lon="-120.03730000000002"><ele>2299.055517371482</ele></trkpt><trkpt lat="38.80014" lon="-120.03728000000001"><ele>2293.2528320364654</ele></trkpt><trkpt lat="38.80034" lon="-120.03739000000002"><ele>2293.0</ele></trkpt><trkpt lat="38.80043" lon="-120.03737000000001"><ele>2292.401560889557</ele></trkpt><trkpt lat="38.80046" lon="-120.03732000000002"><ele>2292.0</ele></trkpt><trkpt lat="38.80047" lon="-120.03721999999999"><ele>2291.0</ele></trkpt><trkpt lat="38.80052" lon="-120.03709000000003"><ele>2290.0</ele></trkpt><trkpt lat="38.80061" lon="-120.03701999999998"><ele>2290.0</ele></trkpt><trkpt lat="38.80075" lon="-120.03687000000002"><ele>2289.0</ele></trkpt><trkpt lat="38.80099" lon="-120.03670999999997"><ele>2289.3708451467764</ele></trkpt><trkpt lat="38.8012" lon="-120.03661999999997"><ele>2291.0</ele></trkpt><trkpt lat="38.8012" lon="-120.03661999999997"><ele>2291.0</ele></trkpt><trkpt lat="38.80126" lon="-120.03658999999999"><ele>2291.03678614916</ele></trkpt><trkpt lat="38.80139" lon="-120.03640000000001"><ele>2293.097418780988</ele></trkpt><trkpt lat="38.80152" lon="-120.03625999999997"><ele>2296.2703008167446</ele></trkpt><trkpt lat="38.80158" lon="-120.03604999999999"><ele>2296.85829936713</ele></trkpt><trkpt lat="38.80173" lon="-120.03573"><ele>2296.8283089622855</ele></trkpt><trkpt lat="38.80173" lon="-120.03553"><ele>2295.8283089622855</ele></trkpt><trkpt lat="38.80189" lon="-120.03507000000002"><ele>2297.396340008825</ele></trkpt><trkpt lat="38.80194" lon="-120.03458999999998"><ele>2295.0</ele></trkpt><trkpt lat="38.80196" lon="-120.03393"><ele>2290.582360347733</ele></trkpt><trkpt lat="38.80203" lon="-120.03354999999999"><ele>2288.7683847974986</ele></trkpt><trkpt lat="38.80203" lon="-120.03318999999999"><ele>2284.0</ele></trkpt><trkpt lat="38.80195" lon="-120.03266000000002"><ele>2281.0</ele></trkpt><trkpt lat="38.80197" lon="-120.03224"><ele>2280.0</ele></trkpt><trkpt lat="38.80205" lon="-120.03201000000001"><ele>2280.0</ele></trkpt><trkpt lat="38.80217" lon="-120.03186"><ele>2281.1404460351914</ele></trkpt><trkpt lat="38.80217" lon="-120.03186"><ele>2281.1404460351914</ele></trkpt><trkpt lat="38.80217" lon="-120.03186"><ele>2281.1404460351914</ele></trkpt><trkpt lat="38.80234" lon="-120.03185000000002"><ele>2284.0</ele></trkpt><trkpt lat="38.80255" lon="-120.03178000000003"><ele>2284.0</ele></trkpt><trkpt lat="38.80269" lon="-120.03183999999999"><ele>2285.0</ele></trkpt><trkpt lat="38.80284" lon="-120.03176000000002"><ele>2286.1979868671283</ele></trkpt><trkpt lat="38.80296" lon="-120.03172999999998"><ele>2287.0</ele></trkpt><trkpt lat="38.80308" lon="-120.03179"><ele>2288.0</ele></trkpt><trkpt lat="38.80339" lon="-120.03170999999998"><ele>2289.0</ele></trkpt><trkpt lat="38.80349" lon="-120.03181000000001"><ele>2290.286780445371</ele></trkpt><trkpt lat="38.80365" lon="-120.03185000000002"><ele>2292.0</ele></trkpt><trkpt lat="38.80377" lon="-120.03196000000003"><ele>2295.0</ele></trkpt><trkpt lat="38.80406" lon="-120.03199999999998"><ele>2294.0</ele></trkpt><trkpt lat="38.80406" lon="-120.03199999999998"><ele>2294.0</ele></trkpt><trkpt lat="38.80406" lon="-120.03199999999998"><ele>2294.0</ele></trkpt><trkpt lat="38.80417" lon="-120.03226000000001"><ele>2296.2583004450426</ele></trkpt><trkpt lat="38.80428" lon="-120.03239000000002"><ele>2298.0</ele></trkpt><trkpt lat="38.80441" lon="-120.03244999999998"><ele>2298.1129422215745</ele></trkpt><trkpt lat="38.80455" lon="-120.03248000000002"><ele>2297.7711664864846</ele></trkpt><trkpt lat="38.80467" lon="-120.03255000000001"><ele>2297.853922227768</ele></trkpt><trkpt lat="38.80492" lon="-120.03282999999999"><ele>2300.0</ele></trkpt><trkpt lat="38.80521" lon="-120.03292999999996"><ele>2302.4825635538436</ele></trkpt><trkpt lat="38.80532" lon="-120.03292999999996"><ele>2302.4825635538436</ele></trkpt><trkpt lat="38.80547" lon="-120.03282999999999"><ele>2301.8222257774323</ele></trkpt><trkpt lat="38.80547" lon="-120.03282999999999"><ele>2301.8222257774323</ele></trkpt><trkpt lat="38.80555" lon="-120.03280999999998"><ele>2301.0</ele></trkpt><trkpt lat="38.80568" lon="-120.03285"><ele>2303.0</ele></trkpt><trkpt lat="38.80598" lon="-120.03307999999998"><ele>2302.4802217065353</ele></trkpt><trkpt lat="38.80609" lon="-120.03309999999999"><ele>2302.0</ele></trkpt><trkpt lat="38.80622" lon="-120.03310999999997"><ele>2302.0</ele></trkpt><trkpt lat="38.80679" lon="-120.03296"><ele>2302.0</ele></trkpt><trkpt lat="38.80687" lon="-120.03296"><ele>2300.9746952197966</ele></trkpt><trkpt lat="38.80697" lon="-120.03300999999999"><ele>2300.0</ele></trkpt><trkpt lat="38.80728" lon="-120.03325000000001"><ele>2300.0</ele></trkpt><trkpt lat="38.80728" lon="-120.03325000000001"><ele>2300.0</ele></trkpt><trkpt lat="38.80728" lon="-120.03325000000001"><ele>2300.0</ele></trkpt><trkpt lat="38.8074" lon="-120.03337999999997"><ele>2301.0415396929425</ele></trkpt><trkpt lat="38.80765" lon="-120.03397000000001"><ele>2302.950076445006</ele></trkpt><trkpt lat="38.80786" lon="-120.03427999999997"><ele>2304.397123554256</ele></trkpt><trkpt lat="38.80796" lon="-120.03435000000002"><ele>2305.0</ele></trkpt><trkpt lat="38.80808" lon="-120.03451000000001"><ele>2306.115900445264</ele></trkpt><trkpt lat="38.8081424914032" lon="-120.03456681036653"><ele>2307.5242153760155</ele></trkpt><trkpt lat="38.808278890438054" lon="-120.03464603659296"><ele>2308.0</ele></trkpt><trkpt lat="38.80856" lon="-120.03476"><ele>2309.766744889319</ele></trkpt><trkpt lat="38.80893" lon="-120.03480000000002"><ele>2310.6308800005354</ele></trkpt><trkpt lat="38.80905" lon="-120.03499999999997"><ele>2313.392303292591</ele></trkpt><trkpt lat="38.8092" lon="-120.03514999999999"><ele>2313.41575623085</ele></trkpt><trkpt lat="38.80937" lon="-120.03528"><ele>2314.0001374786343</ele></trkpt><trkpt lat="38.80955" lon="-120.03548999999998"><ele>2314.4007180032877</ele></trkpt><trkpt lat="38.80984" lon="-120.03575000000001"><ele>2314.9040888892487</ele></trkpt><trkpt lat="38.80994" lon="-120.03582"><ele>2315.166325333528</ele></trkpt><trkpt lat="38.81081" lon="-120.03616999999997"><ele>2314.034401759171</ele></trkpt><trkpt lat="38.81109" lon="-120.03622999999999"><ele>2313.2737102219835</ele></trkpt><trkpt lat="38.81114" lon="-120.03622000000001"><ele>2312.4153355825692</ele></trkpt><trkpt lat="38.81121" lon="-120.03604999999999"><ele>2311.0</ele></trkpt><trkpt lat="38.81127" lon="-120.03595000000001"><ele>2310.0</ele></trkpt><trkpt lat="38.81131" lon="-120.03593000000001"><ele>2310.531920890753</ele></trkpt><trkpt lat="38.81133" lon="-120.03595999999999"><ele>2310.0</ele></trkpt><trkpt lat="38.81135" lon="-120.03610000000003"><ele>2311.0</ele></trkpt><trkpt lat="38.81139" lon="-120.03611000000001"><ele>2310.318695110269</ele></trkpt><trkpt lat="38.81156" lon="-120.03604000000001"><ele>2309.7049300118124</ele></trkpt><trkpt lat="38.81171" lon="-120.03602999999998"><ele>2306.371589827817</ele></trkpt><trkpt lat="38.81189" lon="-120.03571999999997"><ele>2302.7821800860943</ele></trkpt><trkpt lat="38.81193" lon="-120.03568999999999"><ele>2301.0179882169646</ele></trkpt><trkpt lat="38.812" lon="-120.03568999999999"><ele>2297.9801229257137</ele></trkpt><trkpt lat="38.81218" lon="-120.03544999999997"><ele>2294.725043810114</ele></trkpt><trkpt lat="38.81225" lon="-120.03541999999999"><ele>2294.0</ele></trkpt><trkpt lat="38.81237" lon="-120.03544"><ele>2291.5429582223296</ele></trkpt><trkpt lat="38.81264" lon="-120.03539"><ele>2291.0</ele></trkpt><trkpt lat="38.8128" lon="-120.03532999999999"><ele>2290.419594666866</ele></trkpt><trkpt lat="38.81298" lon="-120.03541999999999"><ele>2286.4750257781707</ele></trkpt><trkpt lat="38.81308" lon="-120.03541000000001"><ele>2284.941059554927</ele></trkpt><trkpt lat="38.81313" lon="-120.03535999999997"><ele>2285.6669302154332</ele></trkpt><trkpt lat="38.81355" lon="-120.03517999999997"><ele>2283.753570249121</ele></trkpt><trkpt lat="38.81368" lon="-120.03521"><ele>2280.6310459147844</ele></trkpt><trkpt lat="38.81377" lon="-120.03517999999997"><ele>2280.077414602115</ele></trkpt><trkpt lat="38.81397" lon="-120.03520000000003"><ele>2275.7277688877657</ele></trkpt><trkpt lat="38.81423" lon="-120.03514999999999"><ele>2274.057937778067</ele></trkpt><trkpt lat="38.81465" lon="-120.03517999999997"><ele>2268.979192524499</ele></trkpt><trkpt lat="38.81508" lon="-120.03508999999997"><ele>2266.65358547864</ele></trkpt><trkpt lat="38.81528" lon="-120.03508999999997"><ele>2264.85414044559</ele></trkpt><trkpt lat="38.81543" lon="-120.03512"><ele>2263.45603911113</ele></trkpt><trkpt lat="38.81583" lon="-120.03529000000003"><ele>2260.5771046158757</ele></trkpt><trkpt lat="38.81596" lon="-120.03539"><ele>2258.8731271103024</ele></trkpt><trkpt lat="38.81628" lon="-120.03553"><ele>2258.354522134852</ele></trkpt><trkpt lat="38.81662" lon="-120.0358"><ele>2257.264375332785</ele></trkpt><trkpt lat="38.81679" lon="-120.03647000000001"><ele>2251.776889467549</ele></trkpt><trkpt lat="38.81686" lon="-120.03661999999997"><ele>2251.251280919183</ele></trkpt><trkpt lat="38.81686" lon="-120.03661999999997"><ele>2251.251280919183</ele></trkpt><trkpt lat="38.81712" lon="-120.03721999999999"><ele>2246.692396783009</ele></trkpt><trkpt lat="38.81726" lon="-120.03745000000004"><ele>2244.495676157996</ele></trkpt><trkpt lat="38.81736" lon="-120.03759000000002"><ele>2243.3456959985197</ele></trkpt><trkpt lat="38.81775" lon="-120.03796"><ele>2244.9408143408173</ele></trkpt><trkpt lat="38.81807" lon="-120.03840000000002"><ele>2243.0444415298684</ele></trkpt><trkpt lat="38.81865" lon="-120.03888"><ele>2244.174281899206</ele></trkpt><trkpt lat="38.81883" lon="-120.03908999999999"><ele>2240.17952147248</ele></trkpt><trkpt lat="38.81891" lon="-120.03913"><ele>2239.711326923537</ele></trkpt><trkpt lat="38.81919" lon="-120.0394"><ele>2234.0600621248595</ele></trkpt><trkpt lat="38.81939" lon="-120.03949999999998"><ele>2233.00981534785</ele></trkpt><trkpt lat="38.81949" lon="-120.03960000000001"><ele>2231.0</ele></trkpt><trkpt lat="38.81975" lon="-120.03967999999998"><ele>2230.9758001338664</ele></trkpt><trkpt lat="38.81989" lon="-120.03978000000001"><ele>2229.954936492015</ele></trkpt><trkpt lat="38.82003" lon="-120.03976999999998"><ele>2228.7503324458376</ele></trkpt><trkpt lat="38.82031" lon="-120.03992"><ele>2226.7598257781938</ele></trkpt><trkpt lat="38.82034" lon="-120.03998000000001"><ele>2225.9636231106706</ele></trkpt><trkpt lat="38.82046" lon="-120.04003999999998"><ele>2225.16742044501</ele></trkpt><trkpt lat="38.82071" lon="-120.03996000000001"><ele>2225.0</ele></trkpt><trkpt lat="38.82081" lon="-120.03980999999999"><ele>2225.0</ele></trkpt><trkpt lat="38.8208273666874" lon="-120.03976561774311"><ele>2225.0</ele></trkpt><trkpt lat="38.8208273666874" lon="-120.03976561774311"><ele>2225.0</ele></trkpt><trkpt lat="38.8209" lon="-120.03958"><ele>2224.0</ele></trkpt><trkpt lat="38.82101" lon="-120.03949"><ele>2222.2560465830143</ele></trkpt><trkpt lat="38.82108" lon="-120.03949"><ele>2222.0</ele></trkpt><trkpt lat="38.82116" lon="-120.03962999999999"><ele>2220.0</ele></trkpt><trkpt lat="38.82124" lon="-120.03967999999998"><ele>2219.0172426384843</ele></trkpt><trkpt lat="38.82142" lon="-120.0394"><ele>2216.5444588065147</ele></trkpt><trkpt lat="38.82157" lon="-120.03935000000001"><ele>2217.0</ele></trkpt><trkpt lat="38.82166" lon="-120.03939000000003"><ele>2216.0</ele></trkpt><trkpt lat="38.82171" lon="-120.03944999999999"><ele>2216.0</ele></trkpt><trkpt lat="38.8218" lon="-120.03946000000002"><ele>2214.0</ele></trkpt><trkpt lat="38.8219" lon="-120.03949999999998"><ele>2213.0</ele></trkpt><trkpt lat="38.82203" lon="-120.03962000000001"><ele>2212.300751914808</ele></trkpt><trkpt lat="38.82209" lon="-120.03962000000001"><ele>2212.0</ele></trkpt><trkpt lat="38.82215" lon="-120.03955000000002"><ele>2210.0</ele></trkpt><trkpt lat="38.82223" lon="-120.03953000000001"><ele>2209.0060115403467</ele></trkpt><trkpt lat="38.82227" lon="-120.03956"><ele>2208.0</ele></trkpt><trkpt lat="38.82235" lon="-120.03983"><ele>2205.0</ele></trkpt><trkpt lat="38.82244" lon="-120.03998000000001"><ele>2203.0</ele></trkpt><trkpt lat="38.82259" lon="-120.04011000000003"><ele>2201.0</ele></trkpt><trkpt lat="38.82259" lon="-120.04011000000003"><ele>2201.0</ele></trkpt><trkpt lat="38.82263" lon="-120.04014000000001"><ele>2201.0</ele></trkpt><trkpt lat="38.82263" lon="-120.04014000000001"><ele>2201.0</ele></trkpt><trkpt lat="38.82273" lon="-120.03994999999998"><ele>2202.0</ele></trkpt><trkpt lat="38.82291546669865" lon="-120.03980869203912"><ele>2205.0</ele></trkpt></trkseg></trk></gpx>