<?xml version="1.0"?>
<gpx xmlns="http://www.topografix.com/GPX/1/1" xmlns:gpxx="http://www.garmin.com/xmlschemas/GpxExtensions/v3" creator="CALTOPO" version="1.1"><metadata><name><![CDATA[Echo Summit Connector]]></name></metadata><wpt lat="38.8231239838172" lon="-120.04015120397266"><name>Hwy 50 Trailhead</name></wpt><trk><name>Echo Summit Connector</name><trkseg><trkpt lat="38.82313027655199" lon="-120.04021062420168"><ele>2203.0</ele></trkpt><trkpt lat="38.823154714633624" lon="-120.04019225894893"><ele>2203.0</ele></trkpt><trkpt lat="38.82314" lon="-120.04016000000001"><ele>2203.0</ele></trkpt><trkpt lat="38.82314" lon="-120.04016000000001"><ele>2203.0</ele></trkpt><trkpt lat="38.82322" lon="-120.0401"><ele>2204.0</ele></trkpt><trkpt lat="38.82327" lon="-120.03996000000001"><ele>2205.907978117816</ele></trkpt><trkpt lat="38.82323969554333" lon="-120.03984111328538"><ele>2206.0</ele></trkpt><trkpt lat="38.82323819569801" lon="-120.03983522919077"><ele>2206.0</ele></trkpt><trkpt lat="38.82314" lon="-120.03944999999999"><ele>2209.0</ele></trkpt><trkpt lat="38.82318" lon="-120.03924"><ele>2212.0</ele></trkpt><trkpt lat="38.82322" lon="-120.03917000000001"><ele>2213.0</ele></trkpt><trkpt lat="38.82329" lon="-120.03908000000001"><ele>2214.0</ele></trkpt><trkpt lat="38.82345" lon="-120.03895"><ele>2216.9651022222824</ele></trkpt><trkpt lat="38.82367" lon="-120.03892000000002"><ele>2217.36320355488</ele></trkpt><trkpt lat="38.82377" lon="-120.03870999999998"><ele>2218.9770392616933</ele></trkpt><trkpt lat="38.82377" lon="-120.03870999999998"><ele>2218.9770392616933</ele></trkpt><trkpt lat="38.82377" lon="-120.03870999999998"><ele>2218.9770392616933</ele></trkpt><trkpt lat="38.82384" lon="-120.03863999999999"><ele>2219.0</ele></trkpt><trkpt lat="38.82395" lon="-120.03858000000002"><ele>2219.0</ele></trkpt><trkpt lat="38.82415" lon="-120.03836000000001"><ele>2219.4610951105133</ele></trkpt><trkpt lat="38.8243" lon="-120.03841"><ele>2220.0</ele></trkpt><trkpt lat="38.82451" lon="-120.03840000000002"><ele>2221.1749263473243</ele></trkpt><trkpt lat="38.82467" lon="-120.03845000000001"><ele>2222.0</ele></trkpt><trkpt lat="38.82481" lon="-120.03856999999999"><ele>2223.0</ele></trkpt><trkpt lat="38.82499" lon="-120.03863999999999"><ele>2224.0</ele></trkpt><trkpt lat="38.82514467940575" lon="-120.03881401705405"><ele>2224.0</ele></trkpt><trkpt lat="38.82514467940575" lon="-120.03881401705405"><ele>2224.0</ele></trkpt><trkpt lat="38.82515" lon="-120.03881999999999"><ele>2224.0</ele></trkpt><trkpt lat="38.82522" lon="-120.03881999999999"><ele>2225.0</ele></trkpt><trkpt lat="38.82527" lon="-120.03872000000001"><ele>2227.0</ele></trkpt><trkpt lat="38.82539" lon="-120.03870999999998"><ele>2229.0</ele></trkpt><trkpt lat="38.82546" lon="-120.03854999999999"><ele>2231.0</ele></trkpt><trkpt lat="38.82553" lon="-120.03856000000002"><ele>2232.0</ele></trkpt><trkpt lat="38.82562" lon="-120.03865000000002"><ele>2233.0</ele></trkpt><trkpt lat="38.82568" lon="-120.03861999999998"><ele>2234.0</ele></trkpt><trkpt lat="38.82573" lon="-120.03852999999998"><ele>2235.0</ele></trkpt><trkpt lat="38.8258" lon="-120.0385"><ele>2236.0</ele></trkpt><trkpt lat="38.82588" lon="-120.03854999999999"><ele>2237.0</ele></trkpt><trkpt lat="38.82597" lon="-120.03868999999997"><ele>2236.4216141957268</ele></trkpt><trkpt lat="38.82597" lon="-120.03868999999997"><ele>2236.4216141957268</ele></trkpt><trkpt lat="38.82605" lon="-120.03877999999997"><ele>2239.0466903973283</ele></trkpt><trkpt lat="38.82605" lon="-120.03877999999997"><ele>2239.0466903973283</ele></trkpt><trkpt lat="38.82612" lon="-120.03881999999999"><ele>2240.6124613212633</ele></trkpt><trkpt lat="38.82629" lon="-120.03877999999997"><ele>2243.0</ele></trkpt><trkpt lat="38.82634" lon="-120.03879999999998"><ele>2244.0</ele></trkpt><trkpt lat="38.82645" lon="-120.03888"><ele>2246.0</ele></trkpt><trkpt lat="38.82662" lon="-120.03892000000002"><ele>2249.3270122489357</ele></trkpt><trkpt lat="38.82674" lon="-120.03906999999998"><ele>2252.0</ele></trkpt><trkpt lat="38.82679" lon="-120.03915999999998"><ele>2253.5612513316883</ele></trkpt><trkpt lat="38.82682" lon="-120.03974"><ele>2258.0</ele></trkpt><trkpt lat="38.82688" lon="-120.03993000000003"><ele>2259.0</ele></trkpt><trkpt lat="38.82691" lon="-120.04020000000003"><ele>2259.0</ele></trkpt><trkpt lat="38.82691" lon="-120.04028"><ele>2259.0</ele></trkpt><trkpt lat="38.82682" lon="-120.04061000000002"><ele>2256.477749515325</ele></trkpt><trkpt lat="38.82681" lon="-120.04071999999996"><ele>2256.0</ele></trkpt><trkpt lat="38.82684" lon="-120.04084"><ele>2256.0</ele></trkpt><trkpt lat="38.82694" lon="-120.04111"><ele>2256.0</ele></trkpt><trkpt lat="38.82699" lon="-120.04133999999999"><ele>2255.3774327693363</ele></trkpt><trkpt lat="38.82718" lon="-120.04178999999999"><ele>2257.0134345181286</ele></trkpt><trkpt lat="38.82725" lon="-120.04206999999997"><ele>2257.650462678448</ele></trkpt><trkpt lat="38.82747" lon="-120.04237999999998"><ele>2261.0</ele></trkpt><trkpt lat="38.82757" lon="-120.04271"><ele>2261.3438828270882</ele></trkpt><trkpt lat="38.82772" lon="-120.04304000000002"><ele>2264.317166209221</ele></trkpt><trkpt lat="38.82777" lon="-120.04307"><ele>2266.0</ele></trkpt><trkpt lat="38.82783" lon="-120.04305"><ele>2267.8975860364735</ele></trkpt><trkpt lat="38.82792" lon="-120.04281000000003"><ele>2269.021417603204</ele></trkpt><trkpt lat="38.82793" lon="-120.04248999999999"><ele>2271.0</ele></trkpt><trkpt lat="38.82798" lon="-120.04218000000003"><ele>2273.8709021918476</ele></trkpt><trkpt lat="38.82794" lon="-120.04203000000001"><ele>2273.0</ele></trkpt><trkpt lat="38.8279" lon="-120.04160000000002"><ele>2276.0</ele></trkpt><trkpt lat="38.82796" lon="-120.04133000000002"><ele>2278.0</ele></trkpt><trkpt lat="38.82806" lon="-120.04111"><ele>2279.656678536907</ele></trkpt><trkpt lat="38.82815" lon="-120.04101000000003"><ele>2281.0</ele></trkpt><trkpt lat="38.82822" lon="-120.04102999999998"><ele>2282.0</ele></trkpt><trkpt lat="38.82826" lon="-120.04110000000003"><ele>2283.0</ele></trkpt><trkpt lat="38.82828" lon="-120.04128000000003"><ele>2284.0</ele></trkpt><trkpt lat="38.82834" lon="-120.04131999999998"><ele>2285.0</ele></trkpt><trkpt lat="38.82859" lon="-120.0412"><ele>2289.3625826667994</ele></trkpt><trkpt lat="38.82873" lon="-120.04106999999999"><ele>2291.0</ele></trkpt><trkpt lat="38.82892" lon="-120.04073"><ele>2291.0</ele></trkpt><trkpt lat="38.829" lon="-120.04052999999999"><ele>2290.889953456819</ele></trkpt><trkpt lat="38.82909" lon="-120.04041999999998"><ele>2290.6674060720934</ele></trkpt><trkpt lat="38.82928" lon="-120.04041000000001"><ele>2293.0485636981894</ele></trkpt><trkpt lat="38.82963" lon="-120.0403"><ele>2295.9494577781297</ele></trkpt><trkpt lat="38.82978" lon="-120.04030999999998"><ele>2298.4154915544204</ele></trkpt><trkpt lat="38.83008" lon="-120.04023999999998"><ele>2300.153255110141</ele></trkpt><trkpt lat="38.83011296168536" lon="-120.0402373977617"><ele>2300.488123545865</ele></trkpt><trkpt lat="38.830150302462314" lon="-120.04023444981766"><ele>2300.894597867038</ele></trkpt><trkpt lat="38.83046" lon="-120.04021"><ele>2303.755153778009</ele></trkpt><trkpt lat="38.83085" lon="-120.04023999999998"><ele>2308.0</ele></trkpt><trkpt lat="38.8312" lon="-120.04021999999998"><ele>2310.0</ele></trkpt><trkpt lat="38.83148" lon="-120.04034999999999"><ele>2314.279626666568</ele></trkpt><trkpt lat="38.83173" lon="-120.04038000000003"><ele>2313.9323386138244</ele></trkpt><trkpt lat="38.8318" lon="-120.04045000000002"><ele>2315.9399644457735</ele></trkpt><trkpt lat="38.83207" lon="-120.04059999999998"><ele>2317.9304711106233</ele></trkpt><trkpt lat="38.83221" lon="-120.04074000000003"><ele>2320.4549440015107</ele></trkpt><trkpt lat="38.83251" lon="-120.04109"><ele>2323.0</ele></trkpt><trkpt lat="38.8326" lon="-120.04131999999998"><ele>2324.359652852996</ele></trkpt><trkpt lat="38.83262" lon="-120.04156"><ele>2326.8497789587445</ele></trkpt><trkpt lat="38.83276" lon="-120.04206999999997"><ele>2327.1695211417973</ele></trkpt><trkpt lat="38.83279" lon="-120.04236000000003"><ele>2323.3747351281345</ele></trkpt><trkpt lat="38.8327" lon="-120.04299000000003"><ele>2317.759090902284</ele></trkpt><trkpt lat="38.83272" lon="-120.04320000000001"><ele>2315.5625679846853</ele></trkpt><trkpt lat="38.83278" lon="-120.04347000000001"><ele>2314.0</ele></trkpt><trkpt lat="38.8328" lon="-120.04347000000001"><ele>2313.7764729540795</ele></trkpt><trkpt lat="38.83282" lon="-120.04344000000003"><ele>2312.5799483545125</ele></trkpt><trkpt lat="38.8329" lon="-120.04296999999997"><ele>2306.7938466016203</ele></trkpt><trkpt lat="38.83296" lon="-120.04282999999998"><ele>2305.3188495105505</ele></trkpt><trkpt lat="38.83311" lon="-120.04257999999999"><ele>2302.2303038984537</ele></trkpt><trkpt lat="38.83347" lon="-120.04215999999997"><ele>2297.8058761993652</ele></trkpt><trkpt lat="38.8336" lon="-120.04203999999999"><ele>2295.9966654361156</ele></trkpt><trkpt lat="38.8337" lon="-120.04201"><ele>2294.358766221907</ele></trkpt><trkpt lat="38.83388" lon="-120.04205999999999"><ele>2292.0</ele></trkpt><trkpt lat="38.833938927742366" lon="-120.04213857032312"><ele>2291.0</ele></trkpt><trkpt lat="38.83395190685935" lon="-120.04215587580029"><ele>2291.0</ele></trkpt><trkpt lat="38.83397" lon="-120.04218000000003"><ele>2291.0</ele></trkpt><trkpt lat="38.83397" lon="-120.04218000000003"><ele>2291.0</ele></trkpt><trkpt lat="38.83404" lon="-120.04192"><ele>2293.0</ele></trkpt><trkpt lat="38.83405" lon="-120.04176999999999"><ele>2294.0</ele></trkpt><trkpt lat="38.83403191416432" lon="-120.04165947943244"><ele>2294.0</ele></trkpt><trkpt lat="38.83403191416432" lon="-120.04165947943244"><ele>2294.0</ele></trkpt><trkpt lat="38.834010567496726" lon="-120.04152903227697"><ele>2293.0797729628466</ele></trkpt><trkpt lat="38.834010567496726" lon="-120.04152903227697"><ele>2293.0797729628466</ele></trkpt><trkpt lat="38.83396" lon="-120.04122000000001"><ele>2292.0</ele></trkpt><trkpt lat="38.83396" lon="-120.04122000000001"><ele>2292.0</ele></trkpt><trkpt lat="38.83396" lon="-120.04122000000001"><ele>2292.0</ele></trkpt><trkpt lat="38.83389" lon="-120.04101000000003"><ele>2292.0</ele></trkpt><trkpt lat="38.83379" lon="-120.04088000000002"><ele>2292.0</ele></trkpt><trkpt lat="38.83372716351499" lon="-120.0408630171662"><ele>2292.0</ele></trkpt><trkpt lat="38.83372716351499" lon="-120.0408630171662"><ele>2292.0</ele></trkpt><trkpt lat="38.83363903966364" lon="-120.0408391999091"><ele>2291.0452061463675</ele></trkpt><trkpt lat="38.83363903966364" lon="-120.0408391999091"><ele>2291.0452061463675</ele></trkpt><trkpt lat="38.83360810687397" lon="-120.04083083969567"><ele>2291.0</ele></trkpt><trkpt lat="38.83360810687397" lon="-120.04083083969567"><ele>2291.0</ele></trkpt><trkpt lat="38.83349017165037" lon="-120.0407989653109"><ele>2291.0</ele></trkpt><trkpt lat="38.83349017165037" lon="-120.0407989653109"><ele>2291.0</ele></trkpt><trkpt lat="38.83342" lon="-120.04077999999998"><ele>2290.0</ele></trkpt><trkpt lat="38.8333" lon="-120.04066"><ele>2289.0</ele></trkpt><trkpt lat="38.8333" lon="-120.04066"><ele>2289.0</ele></trkpt><trkpt lat="38.8333" lon="-120.04066"><ele>2289.0</ele></trkpt><trkpt lat="38.833090431867305" lon="-120.04019750481064"><ele>2288.0</ele></trkpt><trkpt lat="38.833090431867305" lon="-120.04019750481064"><ele>2288.0</ele></trkpt><trkpt lat="38.83301" lon="-120.04002000000003"><ele>2287.0</ele></trkpt><trkpt lat="38.8327" lon="-120.03960999999998"><ele>2285.0</ele></trkpt><trkpt lat="38.83244" lon="-120.03940999999998"><ele>2284.0</ele></trkpt><trkpt lat="38.83215" lon="-120.03928000000002"><ele>2282.0</ele></trkpt><trkpt lat="38.831761465573585" lon="-120.03918110032782"><ele>2280.0</ele></trkpt><trkpt lat="38.831761465573585" lon="-120.03918110032782"><ele>2280.0</ele></trkpt><trkpt lat="38.8316" lon="-120.03913999999997"><ele>2280.0</ele></trkpt><trkpt lat="38.83114" lon="-120.03911"><ele>2278.0</ele></trkpt><trkpt lat="38.83103147457249" lon="-120.03905964420164"><ele>2277.0</ele></trkpt><trkpt lat="38.83103647291337" lon="-120.03906196304496"><ele>2277.0</ele></trkpt><trkpt lat="38.83000587210615" lon="-120.03858376465723"><ele>2272.0</ele></trkpt><trkpt lat="38.82990949641555" lon="-120.03853904625862"><ele>2272.0</ele></trkpt><trkpt lat="38.82989" lon="-120.03852999999998"><ele>2272.0</ele></trkpt><trkpt lat="38.829819766869456" lon="-120.0385233111304"><ele>2271.1497551943175</ele></trkpt><trkpt lat="38.829819766869456" lon="-120.0385233111304"><ele>2271.1497551943175</ele></trkpt><trkpt lat="38.82926" lon="-120.03847000000002"><ele>2270.0</ele></trkpt><trkpt lat="38.82866" lon="-120.03823"><ele>2266.5195342218503</ele></trkpt><trkpt lat="38.82866" lon="-120.03823"><ele>2266.5195342218503</ele></trkpt><trkpt lat="38.82866" lon="-120.03823"><ele>2266.5195342218503</ele></trkpt><trkpt lat="38.82812" lon="-120.03825"><ele>2265.0</ele></trkpt><trkpt lat="38.82801118019391" lon="-120.03822907311422"><ele>2265.0</ele></trkpt><trkpt lat="38.82801" lon="-120.03823999999997"><ele>2265.0</ele></trkpt><trkpt lat="38.82795" lon="-120.03831000000002"><ele>2265.0</ele></trkpt><trkpt lat="38.82783" lon="-120.03832999999997"><ele>2264.0</ele></trkpt><trkpt lat="38.82765" lon="-120.03827999999999"><ele>2263.0</ele></trkpt><trkpt lat="38.8274" lon="-120.03814"><ele>2262.0</ele></trkpt><trkpt lat="38.82709" lon="-120.03818000000001"><ele>2257.0</ele></trkpt><trkpt lat="38.82696" lon="-120.03805999999997"><ele>2255.0</ele></trkpt><trkpt lat="38.82678" lon="-120.03778999999997"><ele>2252.0</ele></trkpt><trkpt lat="38.82653" lon="-120.03754000000004"><ele>2247.4117528958172</ele></trkpt><trkpt lat="38.82616" lon="-120.03748999999999"><ele>2242.989933877268</ele></trkpt><trkpt lat="38.82598" lon="-120.03736000000004"><ele>2241.0</ele></trkpt><trkpt lat="38.82508" lon="-120.03709000000003"><ele>2233.0</ele></trkpt><trkpt lat="38.82508522111123" lon="-120.0370899000107"><ele>2233.0</ele></trkpt><trkpt lat="38.82509" lon="-120.03751999999997"><ele>2231.0</ele></trkpt><trkpt lat="38.82513901687951" lon="-120.0386800661484"><ele>2224.0</ele></trkpt><trkpt lat="38.82513901687951" lon="-120.0386800661484"><ele>2224.0</ele></trkpt><trkpt lat="38.82514467940575" lon="-120.03881401705405"><ele>2224.0</ele></trkpt><trkpt lat="38.82514467940575" lon="-120.03881401705405"><ele>2224.0</ele></trkpt><trkpt lat="38.82499" lon="-120.03863999999999"><ele>2224.0</ele></trkpt><trkpt lat="38.82481" lon="-120.03856999999999"><ele>2223.0</ele></trkpt><trkpt lat="38.82467" lon="-120.03845000000001"><ele>2222.0</ele></trkpt><trkpt lat="38.82451" lon="-120.03840000000002"><ele>2221.1749263473243</ele></trkpt><trkpt lat="38.8243" lon="-120.03841"><ele>2220.0</ele></trkpt><trkpt lat="38.82415" lon="-120.03836000000001"><ele>2219.4610951105133</ele></trkpt><trkpt lat="38.82395" lon="-120.03858000000002"><ele>2219.0</ele></trkpt><trkpt lat="38.82384" lon="-120.03863999999999"><ele>2219.0</ele></trkpt><trkpt lat="38.82377" lon="-120.03870999999998"><ele>2218.9770392616933</ele></trkpt><trkpt lat="38.82377" lon="-120.03870999999998"><ele>2218.9770392616933</ele></trkpt><trkpt lat="38.82377" lon="-120.03870999999998"><ele>2218.9770392616933</ele></trkpt><trkpt lat="38.82367" lon="-120.03892000000002"><ele>2217.36320355488</ele></trkpt><trkpt lat="38.82345" lon="-120.03895"><ele>2216.9651022222824</ele></trkpt><trkpt lat="38.82329" lon="-120.03908000000001"><ele>2214.0</ele></trkpt><trkpt lat="38.82322" lon="-120.03917000000001"><ele>2213.0</ele></trkpt><trkpt lat="38.82318" lon="-120.03924"><ele>2212.0</ele></trkpt><trkpt lat="38.82314" lon="-120.03944999999999"><ele>2209.0</ele></trkpt><trkpt lat="38.82327" lon="-120.03996000000001"><ele>2205.907978117816</ele></trkpt><trkpt lat="38.82322" lon="-120.0401"><ele>2204.0</ele></trkpt><trkpt lat="38.82314" lon="-120.04016000000001"><ele>2203.0</ele></trkpt><trkpt lat="38.82314" lon="-120.04016000000001"><ele>2203.0</ele></trkpt><trkpt lat="38.82314122347784" lon="-120.04016268223984"><ele>2203.0</ele></trkpt></trkseg></trk></gpx>