<?xml version="1.0"?>
<gpx xmlns="http://www.topografix.com/GPX/1/1" xmlns:gpxx="http://www.garmin.com/xmlschemas/GpxExtensions/v3" creator="CALTOPO" version="1.1"><metadata><name><![CDATA[Echo-Aloha via Lake of the Woods]]></name></metadata><wpt lat="38.83397760850103" lon="-120.04216068803011"><name>Echo Lake Trailhead</name></wpt><wpt lat="38.85184546454166" lon="-120.11638896184104"><name>Camp</name></wpt><trk><name>Echo-Aloha via Lake of the Woods</name><trkseg><trkpt lat="38.8339603995445" lon="-120.04219076690674"><ele>2290.9344177776948</ele></trkpt><trkpt lat="38.83397" lon="-120.04218000000003"><ele>2291.0</ele></trkpt><trkpt lat="38.83397" lon="-120.04218000000003"><ele>2291.0</ele></trkpt><trkpt lat="38.83397" lon="-120.04218000000003"><ele>2291.0</ele></trkpt><trkpt lat="38.83404476503394" lon="-120.04225943784854"><ele>2290.0</ele></trkpt><trkpt lat="38.83405000609421" lon="-120.04226500642733"><ele>2290.0</ele></trkpt><trkpt lat="38.83413" lon="-120.04235"><ele>2289.0</ele></trkpt><trkpt lat="38.834137942798286" lon="-120.04238772829183"><ele>2289.0</ele></trkpt><trkpt lat="38.8341477915894" lon="-120.04243451004965"><ele>2289.0</ele></trkpt><trkpt lat="38.83417" lon="-120.04254000000003"><ele>2288.9364879260183</ele></trkpt><trkpt lat="38.83417" lon="-120.04254000000003"><ele>2288.9364879260183</ele></trkpt><trkpt lat="38.83423" lon="-120.04260999999997"><ele>2286.2241167966276</ele></trkpt><trkpt lat="38.83437" lon="-120.04282"><ele>2283.5174698913315</ele></trkpt><trkpt lat="38.83444" lon="-120.04287999999997"><ele>2280.4741668859497</ele></trkpt><trkpt lat="38.83447123054233" lon="-120.04299242995239"><ele>2276.4547130500578</ele></trkpt><trkpt lat="38.83447619860319" lon="-120.04301031495879"><ele>2275.8689713795366</ele></trkpt><trkpt lat="38.83449" lon="-120.04305999999997"><ele>2274.809723691449</ele></trkpt><trkpt lat="38.83448" lon="-120.04317000000003"><ele>2273.486220114057</ele></trkpt><trkpt lat="38.83443" lon="-120.04329000000001"><ele>2270.7064426657744</ele></trkpt><trkpt lat="38.83428" lon="-120.04345"><ele>2269.0581633853694</ele></trkpt><trkpt lat="38.83426" lon="-120.04350999999997"><ele>2268.4536995571107</ele></trkpt><trkpt lat="38.83428" lon="-120.04365999999999"><ele>2266.0</ele></trkpt><trkpt lat="38.83439" lon="-120.04377"><ele>2264.2195126196157</ele></trkpt><trkpt lat="38.83439" lon="-120.04377"><ele>2264.2195126196157</ele></trkpt><trkpt lat="38.83447" lon="-120.04380000000003"><ele>2264.0</ele></trkpt><trkpt lat="38.83452" lon="-120.04386999999997"><ele>2264.0</ele></trkpt><trkpt lat="38.83454" lon="-120.04408000000001"><ele>2263.0</ele></trkpt><trkpt lat="38.83454" lon="-120.04408000000001"><ele>2263.0</ele></trkpt><trkpt lat="38.83465" lon="-120.04422999999997"><ele>2262.0</ele></trkpt><trkpt lat="38.83465" lon="-120.04422999999997"><ele>2262.0</ele></trkpt><trkpt lat="38.83483" lon="-120.04422999999997"><ele>2260.3275113981217</ele></trkpt><trkpt lat="38.83483" lon="-120.04422999999997"><ele>2260.3275113981217</ele></trkpt><trkpt lat="38.83483" lon="-120.04422999999997"><ele>2260.3275113981217</ele></trkpt><trkpt lat="38.83485" lon="-120.04434000000003"><ele>2260.328316798635</ele></trkpt><trkpt lat="38.83485" lon="-120.04434000000003"><ele>2260.328316798635</ele></trkpt><trkpt lat="38.83491" lon="-120.04467"><ele>2260.3937813332304</ele></trkpt><trkpt lat="38.83508" lon="-120.04475000000002"><ele>2260.0</ele></trkpt><trkpt lat="38.83520737302406" lon="-120.04475000000002"><ele>2260.665511109866</ele></trkpt><trkpt lat="38.835212950883815" lon="-120.04475000000002"><ele>2260.665511109866</ele></trkpt><trkpt lat="38.83531" lon="-120.04475000000002"><ele>2259.7404567916738</ele></trkpt><trkpt lat="38.83531" lon="-120.04475000000002"><ele>2259.7404567916738</ele></trkpt><trkpt lat="38.83539" lon="-120.04470000000003"><ele>2260.0</ele></trkpt><trkpt lat="38.83539" lon="-120.04470000000003"><ele>2260.0</ele></trkpt><trkpt lat="38.83542" lon="-120.0446"><ele>2261.0</ele></trkpt><trkpt lat="38.83541" lon="-120.04451"><ele>2261.0</ele></trkpt><trkpt lat="38.83537" lon="-120.04443000000003"><ele>2262.0</ele></trkpt><trkpt lat="38.83538" lon="-120.04437999999999"><ele>2262.0</ele></trkpt><trkpt lat="38.83538" lon="-120.04437999999999"><ele>2262.0</ele></trkpt><trkpt lat="38.83537" lon="-120.04433"><ele>2262.0</ele></trkpt><trkpt lat="38.83546" lon="-120.04424"><ele>2264.9310161806643</ele></trkpt><trkpt lat="38.83549" lon="-120.04406"><ele>2266.1591040547937</ele></trkpt><trkpt lat="38.83549343376305" lon="-120.04405828311849"><ele>2266.3645408935845</ele></trkpt><trkpt lat="38.835496798592175" lon="-120.04405660070472"><ele>2266.5658535286784</ele></trkpt><trkpt lat="38.83553" lon="-120.04404"><ele>2267.552244035527</ele></trkpt><trkpt lat="38.83556" lon="-120.04406"><ele>2268.347099898383</ele></trkpt><trkpt lat="38.83559" lon="-120.04398000000003"><ele>2270.5279799886393</ele></trkpt><trkpt lat="38.83563" lon="-120.04395"><ele>2271.0277110383277</ele></trkpt><trkpt lat="38.83563" lon="-120.04395"><ele>2271.0277110383277</ele></trkpt><trkpt lat="38.83579" lon="-120.04395"><ele>2274.0</ele></trkpt><trkpt lat="38.83579" lon="-120.04395"><ele>2274.0</ele></trkpt><trkpt lat="38.8357770476825" lon="-120.04411190396877"><ele>2275.6655319556594</ele></trkpt><trkpt lat="38.83577695440191" lon="-120.04411306998412"><ele>2275.654370240867</ele></trkpt><trkpt lat="38.83577" lon="-120.04419999999999"><ele>2277.613743259106</ele></trkpt><trkpt lat="38.83568" lon="-120.04473999999999"><ele>2277.069262453063</ele></trkpt><trkpt lat="38.83573" lon="-120.04509000000002"><ele>2274.424918411718</ele></trkpt><trkpt lat="38.83581" lon="-120.04532"><ele>2274.6085230857134</ele></trkpt><trkpt lat="38.83596" lon="-120.04561999999999"><ele>2274.432745715418</ele></trkpt><trkpt lat="38.83628" lon="-120.04613"><ele>2274.0</ele></trkpt><trkpt lat="38.83671" lon="-120.04723999999999"><ele>2276.1504784859717</ele></trkpt><trkpt lat="38.83681" lon="-120.04775999999998"><ele>2279.522777515929</ele></trkpt><trkpt lat="38.83698" lon="-120.04804999999999"><ele>2284.5706996492936</ele></trkpt><trkpt lat="38.83714" lon="-120.04859999999996"><ele>2285.2127377013276</ele></trkpt><trkpt lat="38.83732" lon="-120.04910999999998"><ele>2284.0</ele></trkpt><trkpt lat="38.83762" lon="-120.05007"><ele>2281.4381465780416</ele></trkpt><trkpt lat="38.83773" lon="-120.0503"><ele>2280.0029675450596</ele></trkpt><trkpt lat="38.83793" lon="-120.05052"><ele>2281.109334646869</ele></trkpt><trkpt lat="38.83802" lon="-120.05070999999998"><ele>2279.9572140682985</ele></trkpt><trkpt lat="38.83827" lon="-120.05108000000001"><ele>2278.323428855544</ele></trkpt><trkpt lat="38.83872" lon="-120.05160000000001"><ele>2277.432373332791</ele></trkpt><trkpt lat="38.83917" lon="-120.05192999999997"><ele>2278.3868712456897</ele></trkpt><trkpt lat="38.83949" lon="-120.05221"><ele>2279.0043128882535</ele></trkpt><trkpt lat="38.83971" lon="-120.05246"><ele>2281.0</ele></trkpt><trkpt lat="38.83971" lon="-120.05246"><ele>2281.0</ele></trkpt><trkpt lat="38.84016" lon="-120.05291999999997"><ele>2279.9636150389533</ele></trkpt><trkpt lat="38.84034" lon="-120.05297999999999"><ele>2284.0403588044205</ele></trkpt><trkpt lat="38.84076" lon="-120.05333999999999"><ele>2284.649472730798</ele></trkpt><trkpt lat="38.84115" lon="-120.05360999999999"><ele>2285.759584000334</ele></trkpt><trkpt lat="38.84132" lon="-120.05376000000001"><ele>2285.7486546618507</ele></trkpt><trkpt lat="38.8415" lon="-120.0541"><ele>2284.0</ele></trkpt><trkpt lat="38.84183" lon="-120.05457999999999"><ele>2284.270823881733</ele></trkpt><trkpt lat="38.84231" lon="-120.05551000000003"><ele>2280.4220738937147</ele></trkpt><trkpt lat="38.84275" lon="-120.05624999999998"><ele>2280.2627110849135</ele></trkpt><trkpt lat="38.84304" lon="-120.05696999999998"><ele>2280.9073812711736</ele></trkpt><trkpt lat="38.8430451821004" lon="-120.05699396721434"><ele>2281.198180032894</ele></trkpt><trkpt lat="38.8430522594952" lon="-120.05702670013835"><ele>2280.3293630954513</ele></trkpt><trkpt lat="38.84312" lon="-120.05734000000001"><ele>2278.976912920208</ele></trkpt><trkpt lat="38.84322" lon="-120.05750999999998"><ele>2280.3189760165596</ele></trkpt><trkpt lat="38.84345" lon="-120.05827999999997"><ele>2280.542270912323</ele></trkpt><trkpt lat="38.84359125461452" lon="-120.05842125461453"><ele>2283.8724641557783</ele></trkpt><trkpt lat="38.84360425434147" lon="-120.05843425434148"><ele>2283.9765832883677</ele></trkpt><trkpt lat="38.84372" lon="-120.05854999999997"><ele>2286.8863883998865</ele></trkpt><trkpt lat="38.84369" lon="-120.05827999999997"><ele>2289.780927442014</ele></trkpt><trkpt lat="38.84363" lon="-120.05794000000003"><ele>2293.3485708646476</ele></trkpt><trkpt lat="38.84403" lon="-120.05858999999998"><ele>2300.7997669610195</ele></trkpt><trkpt lat="38.84403" lon="-120.05858999999998"><ele>2300.7997669610195</ele></trkpt><trkpt lat="38.84423" lon="-120.05890999999997"><ele>2304.162345563171</ele></trkpt><trkpt lat="38.84488604972576" lon="-120.06014093866071"><ele>2316.743397800252</ele></trkpt><trkpt lat="38.84492867814674" lon="-120.060220919384"><ele>2316.5667572319508</ele></trkpt><trkpt lat="38.8452" lon="-120.06073000000004"><ele>2319.259084328213</ele></trkpt><trkpt lat="38.84526" lon="-120.06103000000002"><ele>2321.7235061116517</ele></trkpt><trkpt lat="38.84527" lon="-120.06121999999999"><ele>2322.321873128414</ele></trkpt><trkpt lat="38.84531" lon="-120.06146999999999"><ele>2322.7153420392424</ele></trkpt><trkpt lat="38.84539" lon="-120.06180999999998"><ele>2320.502283900976</ele></trkpt><trkpt lat="38.84553" lon="-120.06227000000001"><ele>2320.7588902153075</ele></trkpt><trkpt lat="38.84554" lon="-120.06306000000001"><ele>2312.0</ele></trkpt><trkpt lat="38.84561" lon="-120.06330000000003"><ele>2313.6664017718285</ele></trkpt><trkpt lat="38.84556" lon="-120.06342000000001"><ele>2311.349106453359</ele></trkpt><trkpt lat="38.84553" lon="-120.06358"><ele>2308.894382769595</ele></trkpt><trkpt lat="38.8456" lon="-120.06407000000002"><ele>2303.019610359697</ele></trkpt><trkpt lat="38.84557" lon="-120.06453999999997"><ele>2298.2729227673262</ele></trkpt><trkpt lat="38.84557" lon="-120.06453999999997"><ele>2298.2729227673262</ele></trkpt><trkpt lat="38.84557" lon="-120.06453999999997"><ele>2298.2729227673262</ele></trkpt><trkpt lat="38.84561" lon="-120.06479000000002"><ele>2296.489019243757</ele></trkpt><trkpt lat="38.84559" lon="-120.06527"><ele>2292.4696621019393</ele></trkpt><trkpt lat="38.84546" lon="-120.06565999999998"><ele>2291.0</ele></trkpt><trkpt lat="38.84547" lon="-120.06681000000003"><ele>2290.5949973315</ele></trkpt><trkpt lat="38.84556" lon="-120.06722000000002"><ele>2286.8332451228994</ele></trkpt><trkpt lat="38.84569" lon="-120.06754999999998"><ele>2285.512672628879</ele></trkpt><trkpt lat="38.84573" lon="-120.06772999999998"><ele>2286.456483258028</ele></trkpt><trkpt lat="38.84572" lon="-120.06803000000002"><ele>2289.064882929812</ele></trkpt><trkpt lat="38.84576" lon="-120.06835000000001"><ele>2291.1118322892007</ele></trkpt><trkpt lat="38.84562" lon="-120.06898000000001"><ele>2295.657628049794</ele></trkpt><trkpt lat="38.84548" lon="-120.06909000000002"><ele>2298.0</ele></trkpt><trkpt lat="38.84532" lon="-120.06916000000001"><ele>2295.9471147576087</ele></trkpt><trkpt lat="38.8452" lon="-120.06927000000002"><ele>2295.0986240021884</ele></trkpt><trkpt lat="38.84511" lon="-120.0693"><ele>2293.7820833998944</ele></trkpt><trkpt lat="38.84489" lon="-120.06929000000002"><ele>2291.573111507786</ele></trkpt><trkpt lat="38.84479" lon="-120.06932"><ele>2291.379480889067</ele></trkpt><trkpt lat="38.84451" lon="-120.06927999999999"><ele>2290.1052219357907</ele></trkpt><trkpt lat="38.84438" lon="-120.06932"><ele>2290.421389444455</ele></trkpt><trkpt lat="38.8443" lon="-120.06938000000002"><ele>2292.0493080482065</ele></trkpt><trkpt lat="38.84421" lon="-120.06952999999999"><ele>2290.1488129202185</ele></trkpt><trkpt lat="38.84394" lon="-120.06979999999999"><ele>2291.5541843381043</ele></trkpt><trkpt lat="38.8439" lon="-120.06988999999999"><ele>2291.326772512456</ele></trkpt><trkpt lat="38.84388" lon="-120.06999000000002"><ele>2291.0</ele></trkpt><trkpt lat="38.84406" lon="-120.07033000000001"><ele>2289.9200745671988</ele></trkpt><trkpt lat="38.84408" lon="-120.07040999999998"><ele>2289.273260606571</ele></trkpt><trkpt lat="38.84404" lon="-120.07055000000003"><ele>2290.0</ele></trkpt><trkpt lat="38.84404" lon="-120.07065999999998"><ele>2290.723360966891</ele></trkpt><trkpt lat="38.8441" lon="-120.07098000000002"><ele>2290.0</ele></trkpt><trkpt lat="38.84418" lon="-120.07116000000002"><ele>2289.100363222882</ele></trkpt><trkpt lat="38.84432" lon="-120.07137"><ele>2289.0399065860875</ele></trkpt><trkpt lat="38.8445" lon="-120.07157000000001"><ele>2290.0</ele></trkpt><trkpt lat="38.84461" lon="-120.07193999999998"><ele>2288.431237388936</ele></trkpt><trkpt lat="38.84476" lon="-120.07229000000001"><ele>2286.8458627251393</ele></trkpt><trkpt lat="38.8451282593066" lon="-120.07283530705013"><ele>2285.6685483598085</ele></trkpt><trkpt lat="38.84519594422687" lon="-120.07293553241612"><ele>2285.0</ele></trkpt><trkpt lat="38.84528" lon="-120.07306"><ele>2284.0</ele></trkpt><trkpt lat="38.84532" lon="-120.07325000000003"><ele>2283.3137094788253</ele></trkpt><trkpt lat="38.8454" lon="-120.07343000000003"><ele>2283.1006520111114</ele></trkpt><trkpt lat="38.84585" lon="-120.07385999999997"><ele>2285.0411840016022</ele></trkpt><trkpt lat="38.84598" lon="-120.07403"><ele>2285.924756135326</ele></trkpt><trkpt lat="38.84611" lon="-120.07439999999997"><ele>2283.9482747580023</ele></trkpt><trkpt lat="38.84616" lon="-120.07475999999997"><ele>2282.0</ele></trkpt><trkpt lat="38.84633" lon="-120.07559000000003"><ele>2279.0</ele></trkpt><trkpt lat="38.84642" lon="-120.07580000000002"><ele>2278.1346411444247</ele></trkpt><trkpt lat="38.84674" lon="-120.07607999999999"><ele>2281.2827396318316</ele></trkpt><trkpt lat="38.84695" lon="-120.07636000000002"><ele>2281.0</ele></trkpt><trkpt lat="38.8471" lon="-120.07688999999999"><ele>2277.0</ele></trkpt><trkpt lat="38.84732" lon="-120.07713000000001"><ele>2277.0</ele></trkpt><trkpt lat="38.84745" lon="-120.07731999999999"><ele>2276.0</ele></trkpt><trkpt lat="38.84748" lon="-120.07742999999999"><ele>2276.0</ele></trkpt><trkpt lat="38.84749" lon="-120.07753000000002"><ele>2276.0</ele></trkpt><trkpt lat="38.8474" lon="-120.07789000000002"><ele>2275.36825377765</ele></trkpt><trkpt lat="38.84741" lon="-120.07826"><ele>2275.382907572142</ele></trkpt><trkpt lat="38.84738" lon="-120.07835"><ele>2276.2079822225496</ele></trkpt><trkpt lat="38.84728" lon="-120.07848000000001"><ele>2277.595351131633</ele></trkpt><trkpt lat="38.84726" lon="-120.07859000000002"><ele>2277.0</ele></trkpt><trkpt lat="38.84726" lon="-120.07859000000002"><ele>2277.0</ele></trkpt><trkpt lat="38.84734" lon="-120.07884000000001"><ele>2277.0</ele></trkpt><trkpt lat="38.8476" lon="-120.07915000000003"><ele>2279.37876834697</ele></trkpt><trkpt lat="38.84766" lon="-120.07927999999998"><ele>2280.1834086659546</ele></trkpt><trkpt lat="38.84768" lon="-120.07943"><ele>2281.2864233307046</ele></trkpt><trkpt lat="38.84758" lon="-120.07969000000003"><ele>2281.5469079446048</ele></trkpt><trkpt lat="38.84735" lon="-120.07990000000001"><ele>2283.0</ele></trkpt><trkpt lat="38.84732" lon="-120.08008000000001"><ele>2284.9888876657933</ele></trkpt><trkpt lat="38.84735" lon="-120.08015"><ele>2285.7102923158236</ele></trkpt><trkpt lat="38.84743" lon="-120.08023000000003"><ele>2286.8223324459977</ele></trkpt><trkpt lat="38.84758" lon="-120.08032000000003"><ele>2287.9924621584337</ele></trkpt><trkpt lat="38.84779" lon="-120.08056999999997"><ele>2290.44556186907</ele></trkpt><trkpt lat="38.84779" lon="-120.08056999999997"><ele>2290.44556186907</ele></trkpt><trkpt lat="38.84797" lon="-120.08078"><ele>2292.0</ele></trkpt><trkpt lat="38.84806" lon="-120.08116999999999"><ele>2295.6400487530045</ele></trkpt><trkpt lat="38.84805" lon="-120.08134000000001"><ele>2297.8527091797496</ele></trkpt><trkpt lat="38.84797" lon="-120.08179999999999"><ele>2298.998798190549</ele></trkpt><trkpt lat="38.84793" lon="-120.08242000000001"><ele>2304.923944160908</ele></trkpt><trkpt lat="38.84784" lon="-120.08267000000001"><ele>2305.534574222751</ele></trkpt><trkpt lat="38.84758" lon="-120.08303000000001"><ele>2313.029250876996</ele></trkpt><trkpt lat="38.8474" lon="-120.08356000000003"><ele>2315.7875452167355</ele></trkpt><trkpt lat="38.84738" lon="-120.08389"><ele>2318.969890100416</ele></trkpt><trkpt lat="38.84726" lon="-120.08406000000002"><ele>2320.711852703709</ele></trkpt><trkpt lat="38.84719" lon="-120.08434"><ele>2325.7059842756908</ele></trkpt><trkpt lat="38.84703" lon="-120.08460000000002"><ele>2329.0818310383193</ele></trkpt><trkpt lat="38.84691" lon="-120.08514000000002"><ele>2331.293567650996</ele></trkpt><trkpt lat="38.84696" lon="-120.08559000000002"><ele>2334.7879310030667</ele></trkpt><trkpt lat="38.84691" lon="-120.08627999999999"><ele>2341.4552019853145</ele></trkpt><trkpt lat="38.84696" lon="-120.08649000000003"><ele>2343.447107302025</ele></trkpt><trkpt lat="38.84706" lon="-120.08667000000003"><ele>2345.0223712880406</ele></trkpt><trkpt lat="38.84721" lon="-120.08686999999998"><ele>2346.406665433198</ele></trkpt><trkpt lat="38.84721" lon="-120.08708000000001"><ele>2348.406665433198</ele></trkpt><trkpt lat="38.84714" lon="-120.08735000000001"><ele>2348.8563660811633</ele></trkpt><trkpt lat="38.84715" lon="-120.08744999999999"><ele>2348.701280000154</ele></trkpt><trkpt lat="38.84722" lon="-120.08749999999998"><ele>2348.3742862793606</ele></trkpt><trkpt lat="38.84722" lon="-120.08749999999998"><ele>2348.3742862793606</ele></trkpt><trkpt lat="38.84733" lon="-120.08757000000003"><ele>2348.06393904377</ele></trkpt><trkpt lat="38.84736" lon="-120.08763999999996"><ele>2348.382425546646</ele></trkpt><trkpt lat="38.84735" lon="-120.08776"><ele>2349.199328995906</ele></trkpt><trkpt lat="38.84738" lon="-120.08789999999999"><ele>2350.4226733354926</ele></trkpt><trkpt lat="38.84751" lon="-120.08817999999997"><ele>2351.0</ele></trkpt><trkpt lat="38.84783" lon="-120.08861999999999"><ele>2353.0</ele></trkpt><trkpt lat="38.84798" lon="-120.08924000000002"><ele>2356.482434788719</ele></trkpt><trkpt lat="38.84801" lon="-120.08952999999997"><ele>2358.277604725212</ele></trkpt><trkpt lat="38.84807" lon="-120.0897"><ele>2359.8679468743503</ele></trkpt><trkpt lat="38.8484" lon="-120.09023000000002"><ele>2366.0</ele></trkpt><trkpt lat="38.84852" lon="-120.09048999999999"><ele>2369.027011556085</ele></trkpt><trkpt lat="38.84871" lon="-120.09075999999999"><ele>2371.1651182118803</ele></trkpt><trkpt lat="38.84892" lon="-120.09114999999997"><ele>2374.0</ele></trkpt><trkpt lat="38.84912" lon="-120.09162000000003"><ele>2376.0</ele></trkpt><trkpt lat="38.84921" lon="-120.09195999999997"><ele>2378.5608533596937</ele></trkpt><trkpt lat="38.84936" lon="-120.09231999999997"><ele>2380.0</ele></trkpt><trkpt lat="38.84939" lon="-120.09248000000002"><ele>2382.85624027811</ele></trkpt><trkpt lat="38.84946" lon="-120.09305999999998"><ele>2384.04505433701</ele></trkpt><trkpt lat="38.84945" lon="-120.09321999999997"><ele>2385.089424112122</ele></trkpt><trkpt lat="38.84938" lon="-120.09334999999999"><ele>2384.066689668995</ele></trkpt><trkpt lat="38.84925" lon="-120.09352000000001"><ele>2385.6598476362415</ele></trkpt><trkpt lat="38.849" lon="-120.09444000000002"><ele>2389.545752882103</ele></trkpt><trkpt lat="38.84896" lon="-120.09453000000002"><ele>2391.2192942193624</ele></trkpt><trkpt lat="38.84884" lon="-120.09469000000001"><ele>2392.0</ele></trkpt><trkpt lat="38.84869" lon="-120.09478000000001"><ele>2395.9014791119844</ele></trkpt><trkpt lat="38.84864" lon="-120.09487000000001"><ele>2396.9786137464844</ele></trkpt><trkpt lat="38.84878" lon="-120.09539000000001"><ele>2401.3538922294974</ele></trkpt><trkpt lat="38.84878" lon="-120.09539000000001"><ele>2401.3538922294974</ele></trkpt><trkpt lat="38.84884" lon="-120.09573999999998"><ele>2405.0</ele></trkpt><trkpt lat="38.84894" lon="-120.09599000000003"><ele>2408.928248319775</ele></trkpt><trkpt lat="38.84901" lon="-120.09611999999998"><ele>2410.117035880685</ele></trkpt><trkpt lat="38.84943" lon="-120.09662000000003"><ele>2416.738717658458</ele></trkpt><trkpt lat="38.84952" lon="-120.09685000000002"><ele>2419.0</ele></trkpt><trkpt lat="38.84959" lon="-120.09712999999999"><ele>2421.824291381985</ele></trkpt><trkpt lat="38.84965" lon="-120.09724"><ele>2422.7341560061286</ele></trkpt><trkpt lat="38.84979" lon="-120.09740999999997"><ele>2425.0</ele></trkpt><trkpt lat="38.84992" lon="-120.09766000000002"><ele>2426.571649271995</ele></trkpt><trkpt lat="38.85017" lon="-120.09797000000003"><ele>2430.0</ele></trkpt><trkpt lat="38.85033" lon="-120.09838000000002"><ele>2434.034716001603</ele></trkpt><trkpt lat="38.85051" lon="-120.09866"><ele>2437.8777598608285</ele></trkpt><trkpt lat="38.85063289525143" lon="-120.09879518477658"><ele>2440.0</ele></trkpt><trkpt lat="38.850649835365125" lon="-120.09881381883662"><ele>2440.0267629631526</ele></trkpt><trkpt lat="38.85071" lon="-120.09888000000001"><ele>2441.0</ele></trkpt><trkpt lat="38.85091" lon="-120.09919000000002"><ele>2444.0</ele></trkpt><trkpt lat="38.85109" lon="-120.09937000000002"><ele>2447.110716120512</ele></trkpt><trkpt lat="38.85151" lon="-120.10016000000002"><ele>2455.719294078648</ele></trkpt><trkpt lat="38.85161" lon="-120.10052999999999"><ele>2460.0908201075313</ele></trkpt><trkpt lat="38.85174" lon="-120.10088999999999"><ele>2464.1699473464396</ele></trkpt><trkpt lat="38.85201" lon="-120.10144000000003"><ele>2472.640376670286</ele></trkpt><trkpt lat="38.85209" lon="-120.10167000000001"><ele>2476.0</ele></trkpt><trkpt lat="38.85214" lon="-120.10187000000002"><ele>2478.419892596081</ele></trkpt><trkpt lat="38.85215" lon="-120.10203000000001"><ele>2480.7759680007584</ele></trkpt><trkpt lat="38.8521" lon="-120.10228999999998"><ele>2481.0261938758194</ele></trkpt><trkpt lat="38.85212" lon="-120.10239999999999"><ele>2483.004286392085</ele></trkpt><trkpt lat="38.85219" lon="-120.10237999999998"><ele>2484.4632606637433</ele></trkpt><trkpt lat="38.85239" lon="-120.10199999999998"><ele>2487.6146133533575</ele></trkpt><trkpt lat="38.85246" lon="-120.10156999999998"><ele>2493.569530835375</ele></trkpt><trkpt lat="38.85251" lon="-120.10153000000003"><ele>2494.8569510311245</ele></trkpt><trkpt lat="38.85257" lon="-120.10176000000001"><ele>2496.15223887749</ele></trkpt><trkpt lat="38.8527" lon="-120.10253999999998"><ele>2502.931816054508</ele></trkpt><trkpt lat="38.8527" lon="-120.10253999999998"><ele>2502.931816054508</ele></trkpt><trkpt lat="38.85278" lon="-120.10282000000001"><ele>2505.0</ele></trkpt><trkpt lat="38.85293" lon="-120.10303999999996"><ele>2507.6957181934267</ele></trkpt><trkpt lat="38.85293" lon="-120.10303999999996"><ele>2507.6957181934267</ele></trkpt><trkpt lat="38.85305" lon="-120.10356999999999"><ele>2512.8769021965563</ele></trkpt><trkpt lat="38.85317" lon="-120.10433999999998"><ele>2519.0</ele></trkpt><trkpt lat="38.85353" lon="-120.10559999999998"><ele>2525.0</ele></trkpt><trkpt lat="38.85419" lon="-120.10671000000002"><ele>2530.0</ele></trkpt><trkpt lat="38.85468" lon="-120.10804999999999"><ele>2532.0</ele></trkpt><trkpt lat="38.85472" lon="-120.10838999999999"><ele>2532.8481660365865</ele></trkpt><trkpt lat="38.85481" lon="-120.10874000000001"><ele>2534.0</ele></trkpt><trkpt lat="38.85497" lon="-120.10899"><ele>2535.0</ele></trkpt><trkpt lat="38.85497" lon="-120.10899"><ele>2535.0</ele></trkpt><trkpt lat="38.85501" lon="-120.10906"><ele>2535.0</ele></trkpt><trkpt lat="38.85566" lon="-120.10957000000002"><ele>2537.0</ele></trkpt><trkpt lat="38.85588" lon="-120.10985"><ele>2537.0</ele></trkpt><trkpt lat="38.85595" lon="-120.11014"><ele>2537.0</ele></trkpt><trkpt lat="38.85597" lon="-120.11043000000001"><ele>2537.0</ele></trkpt><trkpt lat="38.85589" lon="-120.1112"><ele>2541.0</ele></trkpt><trkpt lat="38.855939980839125" lon="-120.11133678966496"><ele>2542.0</ele></trkpt><trkpt lat="38.85595332970159" lon="-120.11137332323949"><ele>2542.0</ele></trkpt><trkpt lat="38.85608" lon="-120.11171999999999"><ele>2540.0</ele></trkpt><trkpt lat="38.85608" lon="-120.11171999999999"><ele>2540.0</ele></trkpt><trkpt lat="38.85592" lon="-120.11167"><ele>2543.369503580034</ele></trkpt><trkpt lat="38.85569" lon="-120.11163999999997"><ele>2546.6834093143393</ele></trkpt><trkpt lat="38.85529" lon="-120.11149999999998"><ele>2550.007928431278</ele></trkpt><trkpt lat="38.85435" lon="-120.11135000000002"><ele>2560.0</ele></trkpt><trkpt lat="38.85361" lon="-120.11138"><ele>2564.0</ele></trkpt><trkpt lat="38.85302" lon="-120.11124000000001"><ele>2563.0</ele></trkpt><trkpt lat="38.85301802561756" lon="-120.11123891308989"><ele>2563.0</ele></trkpt><trkpt lat="38.85301802561756" lon="-120.11123891308989"><ele>2563.0</ele></trkpt><trkpt lat="38.85289" lon="-120.11198999999999"><ele>2559.0</ele></trkpt><trkpt lat="38.85292" lon="-120.11220000000003"><ele>2556.026041713973</ele></trkpt><trkpt lat="38.85290594245755" lon="-120.11227965940725"><ele>2555.1421741694703</ele></trkpt><trkpt lat="38.85289723898449" lon="-120.11232897914863"><ele>2554.8032021269087</ele></trkpt><trkpt lat="38.85283" lon="-120.11270999999999"><ele>2549.0</ele></trkpt><trkpt lat="38.85284" lon="-120.11298"><ele>2544.9427478532057</ele></trkpt><trkpt lat="38.85309" lon="-120.11358999999999"><ele>2535.488984889351</ele></trkpt><trkpt lat="38.85346" lon="-120.11433999999997"><ele>2523.0</ele></trkpt><trkpt lat="38.85344" lon="-120.11437000000001"><ele>2522.138350221794</ele></trkpt><trkpt lat="38.85334" lon="-120.11439999999999"><ele>2519.800376134399</ele></trkpt><trkpt lat="38.85308" lon="-120.11441000000002"><ele>2515.2742151096463</ele></trkpt><trkpt lat="38.85297" lon="-120.11445000000003"><ele>2512.41007999843</ele></trkpt><trkpt lat="38.85251" lon="-120.11445000000003"><ele>2503.2303294660933</ele></trkpt><trkpt lat="38.85243" lon="-120.11448000000001"><ele>2500.7769527914916</ele></trkpt><trkpt lat="38.85243" lon="-120.11457000000001"><ele>2497.633083457573</ele></trkpt><trkpt lat="38.85253" lon="-120.11471"><ele>2497.2224010796035</ele></trkpt><trkpt lat="38.85289" lon="-120.11509999999998"><ele>2493.035600263734</ele></trkpt><trkpt lat="38.85301" lon="-120.11527000000001"><ele>2489.195310221985</ele></trkpt><trkpt lat="38.85316" lon="-120.11538999999999"><ele>2487.2771341805205</ele></trkpt><trkpt lat="38.85325" lon="-120.11550999999997"><ele>2487.0</ele></trkpt><trkpt lat="38.85328" lon="-120.11563999999998"><ele>2485.6101489449816</ele></trkpt><trkpt lat="38.85326" lon="-120.11588"><ele>2481.3406614749174</ele></trkpt><trkpt lat="38.85329" lon="-120.11619999999999"><ele>2476.2044082102634</ele></trkpt><trkpt lat="38.85325" lon="-120.11633"><ele>2473.968454370732</ele></trkpt><trkpt lat="38.85313" lon="-120.11637000000002"><ele>2472.0</ele></trkpt><trkpt lat="38.85307" lon="-120.11646000000002"><ele>2470.073767375201</ele></trkpt><trkpt lat="38.85305" lon="-120.11660999999998"><ele>2467.654856530938</ele></trkpt><trkpt lat="38.85296" lon="-120.11689000000001"><ele>2464.342647678887</ele></trkpt><trkpt lat="38.85299" lon="-120.11725999999999"><ele>2458.454588444438</ele></trkpt><trkpt lat="38.85295" lon="-120.1173"><ele>2457.0</ele></trkpt><trkpt lat="38.85287980257573" lon="-120.11728168762846"><ele>2457.0</ele></trkpt><trkpt lat="38.852878628930576" lon="-120.1172813814394"><ele>2457.0</ele></trkpt><trkpt lat="38.85272" lon="-120.11723999999998"><ele>2455.0</ele></trkpt><trkpt lat="38.85272" lon="-120.11723999999998"><ele>2455.0</ele></trkpt><trkpt lat="38.85263" lon="-120.11716000000001"><ele>2453.0</ele></trkpt><trkpt lat="38.85248" lon="-120.11712999999997"><ele>2450.766386086121</ele></trkpt><trkpt lat="38.85231" lon="-120.11696999999998"><ele>2449.6055091350977</ele></trkpt><trkpt lat="38.85206" lon="-120.11658999999997"><ele>2448.429371232798</ele></trkpt><trkpt lat="38.851869976280625" lon="-120.11640757722944"><ele>2448.213950715054</ele></trkpt><trkpt lat="38.85186333516005" lon="-120.11640120168283"><ele>2448.0</ele></trkpt><trkpt lat="38.85206" lon="-120.11658999999997"><ele>2448.429371232798</ele></trkpt><trkpt lat="38.85231" lon="-120.11696999999998"><ele>2449.6055091350977</ele></trkpt><trkpt lat="38.85248" lon="-120.11712999999997"><ele>2450.766386086121</ele></trkpt><trkpt lat="38.85263" lon="-120.11716000000001"><ele>2453.0</ele></trkpt><trkpt lat="38.85272" lon="-120.11723999999998"><ele>2455.0</ele></trkpt><trkpt lat="38.85272" lon="-120.11723999999998"><ele>2455.0</ele></trkpt><trkpt lat="38.85284" lon="-120.11757"><ele>2451.0023365927077</ele></trkpt><trkpt lat="38.85312" lon="-120.11772000000002"><ele>2448.0</ele></trkpt><trkpt lat="38.8532" lon="-120.11784999999998"><ele>2448.0</ele></trkpt><trkpt lat="38.85321" lon="-120.11808000000002"><ele>2448.4518330432475</ele></trkpt><trkpt lat="38.85328" lon="-120.11842000000001"><ele>2450.6408720668405</ele></trkpt><trkpt lat="38.85323" lon="-120.1189"><ele>2450.6236520283855</ele></trkpt><trkpt lat="38.85315" lon="-120.11919"><ele>2453.351162120234</ele></trkpt><trkpt lat="38.85311" lon="-120.11921999999998"><ele>2451.467498742044</ele></trkpt><trkpt lat="38.85308" lon="-120.11928999999998"><ele>2451.6722000893205</ele></trkpt><trkpt lat="38.8531" lon="-120.11962"><ele>2452.869065772742</ele></trkpt><trkpt lat="38.85303" lon="-120.11981000000003"><ele>2449.2611512705644</ele></trkpt><trkpt lat="38.85301" lon="-120.11995999999999"><ele>2449.483172846958</ele></trkpt><trkpt lat="38.85305" lon="-120.12031000000002"><ele>2452.6013039187646</ele></trkpt><trkpt lat="38.85302" lon="-120.12052"><ele>2452.0430529446326</ele></trkpt><trkpt lat="38.853073085211996" lon="-120.12075888345396"><ele>2451.0</ele></trkpt><trkpt lat="38.853073085211996" lon="-120.12075888345396"><ele>2451.0</ele></trkpt><trkpt lat="38.85316" lon="-120.12115"><ele>2454.459664842114</ele></trkpt><trkpt lat="38.85325" lon="-120.12128999999999"><ele>2458.9007046532915</ele></trkpt><trkpt lat="38.85337" lon="-120.12119999999999"><ele>2461.004358525993</ele></trkpt><trkpt lat="38.85343" lon="-120.12121000000002"><ele>2462.388191410464</ele></trkpt><trkpt lat="38.85357" lon="-120.12113"><ele>2465.9955062121153</ele></trkpt><trkpt lat="38.85364" lon="-120.12113999999997"><ele>2467.4834369680852</ele></trkpt><trkpt lat="38.85365" lon="-120.12122"><ele>2469.0742190298897</ele></trkpt><trkpt lat="38.85363" lon="-120.12135"><ele>2470.586129007861</ele></trkpt><trkpt lat="38.85364" lon="-120.12164999999999"><ele>2474.0247761979217</ele></trkpt><trkpt lat="38.85362" lon="-120.12179000000003"><ele>2474.0</ele></trkpt><trkpt lat="38.85363" lon="-120.12188000000003"><ele>2475.939167954679</ele></trkpt><trkpt lat="38.85366" lon="-120.12191999999999"><ele>2477.8250419766678</ele></trkpt><trkpt lat="38.85375" lon="-120.12188000000003"><ele>2479.96580933077</ele></trkpt><trkpt lat="38.85377" lon="-120.12194"><ele>2480.987463332581</ele></trkpt><trkpt lat="38.85374" lon="-120.12203"><ele>2482.8699595207586</ele></trkpt><trkpt lat="38.85372" lon="-120.12232"><ele>2488.348489718786</ele></trkpt><trkpt lat="38.85373" lon="-120.12245000000001"><ele>2491.0</ele></trkpt><trkpt lat="38.85376" lon="-120.12252999999998"><ele>2492.365822121501</ele></trkpt><trkpt lat="38.85388" lon="-120.12257"><ele>2497.0</ele></trkpt><trkpt lat="38.85392" lon="-120.12265000000002"><ele>2498.9408485572785</ele></trkpt><trkpt lat="38.85393" lon="-120.12284"><ele>2499.539288422093</ele></trkpt><trkpt lat="38.85398" lon="-120.12295"><ele>2500.850455525684</ele></trkpt><trkpt lat="38.85403" lon="-120.12302"><ele>2501.9808675558306</ele></trkpt><trkpt lat="38.8542" lon="-120.12311"><ele>2502.0</ele></trkpt><trkpt lat="38.85426" lon="-120.12319000000002"><ele>2502.0</ele></trkpt><trkpt lat="38.85459573610985" lon="-120.12371758531549"><ele>2501.806577570903</ele></trkpt><trkpt lat="38.854610587483215" lon="-120.12374092129244"><ele>2501.7314455416054</ele></trkpt><trkpt lat="38.8551" lon="-120.12450999999999"><ele>2501.0</ele></trkpt><trkpt lat="38.8551" lon="-120.12450999999999"><ele>2501.0</ele></trkpt><trkpt lat="38.85519" lon="-120.12464999999997"><ele>2501.0</ele></trkpt><trkpt lat="38.85542" lon="-120.12544000000003"><ele>2497.4613582880947</ele></trkpt><trkpt lat="38.85549" lon="-120.12562000000003"><ele>2495.0876387106046</ele></trkpt><trkpt lat="38.85584" lon="-120.12605000000002"><ele>2490.0</ele></trkpt><trkpt lat="38.85599" lon="-120.12616000000003"><ele>2488.0568814804747</ele></trkpt><trkpt lat="38.85613" lon="-120.12632000000002"><ele>2487.0</ele></trkpt><trkpt lat="38.85634" lon="-120.12648000000002"><ele>2484.180710989926</ele></trkpt><trkpt lat="38.85634" lon="-120.12648000000002"><ele>2484.180710989926</ele></trkpt><trkpt lat="38.85634" lon="-120.12648000000002"><ele>2484.180710989926</ele></trkpt><trkpt lat="38.85653" lon="-120.12687"><ele>2480.0</ele></trkpt><trkpt lat="38.85661" lon="-120.12698"><ele>2479.0</ele></trkpt><trkpt lat="38.85661" lon="-120.12698"><ele>2479.0</ele></trkpt><trkpt lat="38.85661" lon="-120.12698"><ele>2479.0</ele></trkpt><trkpt lat="38.85682" lon="-120.12718999999998"><ele>2477.0</ele></trkpt><trkpt lat="38.85682" lon="-120.12718999999998"><ele>2477.0</ele></trkpt><trkpt lat="38.85703" lon="-120.12745999999999"><ele>2476.0</ele></trkpt><trkpt lat="38.85718" lon="-120.12756000000002"><ele>2476.0</ele></trkpt><trkpt lat="38.85751" lon="-120.12766999999997"><ele>2477.0</ele></trkpt><trkpt lat="38.85778" lon="-120.12788"><ele>2477.0</ele></trkpt><trkpt lat="38.85799" lon="-120.12790999999999"><ele>2476.0</ele></trkpt><trkpt lat="38.85828" lon="-120.12783000000002"><ele>2476.0</ele></trkpt><trkpt lat="38.85843" lon="-120.12784999999997"><ele>2477.782180698569</ele></trkpt><trkpt lat="38.85856" lon="-120.12779999999998"><ele>2478.0</ele></trkpt><trkpt lat="38.85871" lon="-120.12781000000001"><ele>2478.0</ele></trkpt><trkpt lat="38.85909" lon="-120.12802999999997"><ele>2476.0</ele></trkpt><trkpt lat="38.85937" lon="-120.12795"><ele>2478.0</ele></trkpt><trkpt lat="38.85955" lon="-120.12796000000003"><ele>2477.798446220346</ele></trkpt><trkpt lat="38.85978" lon="-120.12804"><ele>2475.0</ele></trkpt><trkpt lat="38.86004" lon="-120.12805000000003"><ele>2474.604142220225</ele></trkpt><trkpt lat="38.86023" lon="-120.12801999999999"><ele>2476.574088238489</ele></trkpt><trkpt lat="38.86042" lon="-120.12784999999997"><ele>2479.0</ele></trkpt><trkpt lat="38.8606" lon="-120.12775999999997"><ele>2477.085461108526</ele></trkpt><trkpt lat="38.86133205936339" lon="-120.1276975071275"><ele>2479.0</ele></trkpt><trkpt lat="38.861358243361316" lon="-120.12769527193632"><ele>2479.0</ele></trkpt><trkpt lat="38.86142" lon="-120.12769000000003"><ele>2479.0</ele></trkpt><trkpt lat="38.86169" lon="-120.12772000000001"><ele>2479.0</ele></trkpt><trkpt lat="38.86189" lon="-120.12781000000001"><ele>2478.0</ele></trkpt><trkpt lat="38.86213" lon="-120.12799000000001"><ele>2474.400344888214</ele></trkpt><trkpt lat="38.86234" lon="-120.12808999999999"><ele>2474.962824006549</ele></trkpt><trkpt lat="38.86257" lon="-120.12813"><ele>2474.0</ele></trkpt><trkpt lat="38.86321" lon="-120.12810999999999"><ele>2477.0</ele></trkpt><trkpt lat="38.86334" lon="-120.12815"><ele>2478.0</ele></trkpt><trkpt lat="38.864" lon="-120.12850000000003"><ele>2479.0</ele></trkpt><trkpt lat="38.86434" lon="-120.12853000000001"><ele>2480.0</ele></trkpt><trkpt lat="38.86469" lon="-120.12886000000003"><ele>2479.0</ele></trkpt><trkpt lat="38.86469" lon="-120.12886000000003"><ele>2479.0</ele></trkpt><trkpt lat="38.86453" lon="-120.12833999999998"><ele>2484.0</ele></trkpt><trkpt lat="38.86435" lon="-120.12811999999997"><ele>2485.3419057792053</ele></trkpt><trkpt lat="38.86427" lon="-120.12805000000003"><ele>2485.7510615119936</ele></trkpt><trkpt lat="38.86397" lon="-120.12797"><ele>2487.0</ele></trkpt><trkpt lat="38.86382" lon="-120.12786"><ele>2490.0</ele></trkpt><trkpt lat="38.86369" lon="-120.1277"><ele>2492.915324444417</ele></trkpt><trkpt lat="38.86337" lon="-120.12716999999998"><ele>2498.6151146679185</ele></trkpt><trkpt lat="38.86337" lon="-120.12711000000002"><ele>2499.0</ele></trkpt><trkpt lat="38.86346" lon="-120.12700000000001"><ele>2500.0</ele></trkpt><trkpt lat="38.86345" lon="-120.12687"><ele>2501.0</ele></trkpt><trkpt lat="38.86324883846375" lon="-120.12663940019013"><ele>2502.342858054675</ele></trkpt><trkpt lat="38.86325085767982" lon="-120.12664171456277"><ele>2502.23500047205</ele></trkpt><trkpt lat="38.86304" lon="-120.12639999999999"><ele>2504.499715555925</ele></trkpt><trkpt lat="38.86283" lon="-120.12606"><ele>2509.0</ele></trkpt><trkpt lat="38.86268" lon="-120.12589000000003"><ele>2510.2674382207915</ele></trkpt><trkpt lat="38.86243" lon="-120.12574999999998"><ele>2510.0</ele></trkpt><trkpt lat="38.86198" lon="-120.12507"><ele>2516.0</ele></trkpt><trkpt lat="38.86179" lon="-120.12493999999998"><ele>2517.0</ele></trkpt><trkpt lat="38.86152" lon="-120.1248"><ele>2519.0</ele></trkpt><trkpt lat="38.86136" lon="-120.12475"><ele>2519.0</ele></trkpt><trkpt lat="38.86112" lon="-120.12472000000002"><ele>2519.0</ele></trkpt><trkpt lat="38.86081" lon="-120.12450999999999"><ele>2520.8799665065026</ele></trkpt><trkpt lat="38.86081" lon="-120.12450999999999"><ele>2520.8799665065026</ele></trkpt><trkpt lat="38.86066" lon="-120.12441000000001"><ele>2522.0</ele></trkpt><trkpt lat="38.8605" lon="-120.12421999999998"><ele>2522.7579067003553</ele></trkpt><trkpt lat="38.86035" lon="-120.12396000000001"><ele>2523.244948297739</ele></trkpt><trkpt lat="38.86003" lon="-120.12299999999999"><ele>2526.0</ele></trkpt><trkpt lat="38.86003" lon="-120.12290000000002"><ele>2527.0</ele></trkpt><trkpt lat="38.8601" lon="-120.12272999999999"><ele>2528.0</ele></trkpt><trkpt lat="38.86009" lon="-120.12254999999999"><ele>2528.0</ele></trkpt><trkpt lat="38.85992" lon="-120.12216999999998"><ele>2527.0</ele></trkpt><trkpt lat="38.85988" lon="-120.12182000000001"><ele>2525.625929687172</ele></trkpt><trkpt lat="38.8599" lon="-120.12148000000002"><ele>2526.0</ele></trkpt><trkpt lat="38.85982" lon="-120.12122999999997"><ele>2526.0</ele></trkpt><trkpt lat="38.85972" lon="-120.12112000000002"><ele>2526.0</ele></trkpt><trkpt lat="38.85972" lon="-120.12112000000002"><ele>2526.0</ele></trkpt><trkpt lat="38.85943" lon="-120.12086"><ele>2527.0</ele></trkpt><trkpt lat="38.85932" lon="-120.12068999999997"><ele>2527.0</ele></trkpt><trkpt lat="38.85915" lon="-120.12032999999997"><ele>2526.0</ele></trkpt><trkpt lat="38.85909" lon="-120.12011000000001"><ele>2526.0</ele></trkpt><trkpt lat="38.85898" lon="-120.11995999999999"><ele>2526.0</ele></trkpt><trkpt lat="38.85862" lon="-120.11968000000002"><ele>2528.0</ele></trkpt><trkpt lat="38.85823" lon="-120.11950999999999"><ele>2533.0</ele></trkpt><trkpt lat="38.85802" lon="-120.11912000000001"><ele>2536.0</ele></trkpt><trkpt lat="38.85783" lon="-120.11887000000002"><ele>2537.0</ele></trkpt><trkpt lat="38.857660397674096" lon="-120.11870932411227"><ele>2539.0</ele></trkpt><trkpt lat="38.85764" lon="-120.11869000000002"><ele>2539.0</ele></trkpt><trkpt lat="38.85729" lon="-120.11815000000001"><ele>2540.0224177790806</ele></trkpt><trkpt lat="38.85719" lon="-120.11790000000002"><ele>2540.0</ele></trkpt><trkpt lat="38.85713" lon="-120.11754000000002"><ele>2539.0</ele></trkpt><trkpt lat="38.85717" lon="-120.11714"><ele>2539.0</ele></trkpt><trkpt lat="38.85717" lon="-120.11617000000001"><ele>2534.0</ele></trkpt><trkpt lat="38.85704" lon="-120.11586"><ele>2534.5397307001112</ele></trkpt><trkpt lat="38.85694" lon="-120.11574999999999"><ele>2535.0569103351722</ele></trkpt><trkpt lat="38.85682" lon="-120.11545999999998"><ele>2532.8324129015796</ele></trkpt><trkpt lat="38.85682" lon="-120.11545999999998"><ele>2532.8324129015796</ele></trkpt><trkpt lat="38.85676" lon="-120.11531000000002"><ele>2530.767672663089</ele></trkpt><trkpt lat="38.85668188075526" lon="-120.11497669122247"><ele>2530.1355100134388</ele></trkpt><trkpt lat="38.85668729196655" lon="-120.11499977888872"><ele>2531.0</ele></trkpt><trkpt lat="38.85661" lon="-120.11466999999999"><ele>2527.0</ele></trkpt><trkpt lat="38.85663" lon="-120.11410000000001"><ele>2526.0</ele></trkpt><trkpt lat="38.85651" lon="-120.11325"><ele>2532.0604145377874</ele></trkpt><trkpt lat="38.85651" lon="-120.11325"><ele>2532.0604145377874</ele></trkpt><trkpt lat="38.85651" lon="-120.11325"><ele>2532.0604145377874</ele></trkpt><trkpt lat="38.85644" lon="-120.11288000000002"><ele>2533.0</ele></trkpt><trkpt lat="38.85636" lon="-120.11270000000002"><ele>2534.0700687120952</ele></trkpt><trkpt lat="38.85628" lon="-120.11259000000001"><ele>2535.983837411977</ele></trkpt><trkpt lat="38.85608" lon="-120.11171999999999"><ele>2540.0</ele></trkpt><trkpt lat="38.85608" lon="-120.11171999999999"><ele>2540.0</ele></trkpt><trkpt lat="38.85589" lon="-120.1112"><ele>2541.0</ele></trkpt><trkpt lat="38.85597" lon="-120.11043000000001"><ele>2537.0</ele></trkpt><trkpt lat="38.85595" lon="-120.11014"><ele>2537.0</ele></trkpt><trkpt lat="38.85588" lon="-120.10985"><ele>2537.0</ele></trkpt><trkpt lat="38.85566" lon="-120.10957000000002"><ele>2537.0</ele></trkpt><trkpt lat="38.85501" lon="-120.10906"><ele>2535.0</ele></trkpt><trkpt lat="38.85497" lon="-120.10899"><ele>2535.0</ele></trkpt><trkpt lat="38.85497" lon="-120.10899"><ele>2535.0</ele></trkpt><trkpt lat="38.85481" lon="-120.10874000000001"><ele>2534.0</ele></trkpt><trkpt lat="38.85472" lon="-120.10838999999999"><ele>2532.8481660365865</ele></trkpt><trkpt lat="38.85468" lon="-120.10804999999999"><ele>2532.0</ele></trkpt><trkpt lat="38.85419" lon="-120.10671000000002"><ele>2530.0</ele></trkpt><trkpt lat="38.85353" lon="-120.10559999999998"><ele>2525.0</ele></trkpt><trkpt lat="38.85317" lon="-120.10433999999998"><ele>2519.0</ele></trkpt><trkpt lat="38.85314350095977" lon="-120.10416996449186"><ele>2517.0</ele></trkpt><trkpt lat="38.8531408290459" lon="-120.10415281959166"><ele>2517.0</ele></trkpt><trkpt lat="38.85305" lon="-120.10356999999999"><ele>2512.8769021965563</ele></trkpt><trkpt lat="38.85293" lon="-120.10303999999996"><ele>2507.6957181934267</ele></trkpt><trkpt lat="38.85293" lon="-120.10303999999996"><ele>2507.6957181934267</ele></trkpt><trkpt lat="38.85278" lon="-120.10282000000001"><ele>2505.0</ele></trkpt><trkpt lat="38.8527" lon="-120.10253999999998"><ele>2502.931816054508</ele></trkpt><trkpt lat="38.8527" lon="-120.10253999999998"><ele>2502.931816054508</ele></trkpt><trkpt lat="38.85257" lon="-120.10176000000001"><ele>2496.15223887749</ele></trkpt><trkpt lat="38.85251" lon="-120.10153000000003"><ele>2494.8569510311245</ele></trkpt><trkpt lat="38.85246" lon="-120.10156999999998"><ele>2493.569530835375</ele></trkpt><trkpt lat="38.85239" lon="-120.10199999999998"><ele>2487.6146133533575</ele></trkpt><trkpt lat="38.85219" lon="-120.10237999999998"><ele>2484.4632606637433</ele></trkpt><trkpt lat="38.85212" lon="-120.10239999999999"><ele>2483.004286392085</ele></trkpt><trkpt lat="38.8521" lon="-120.10228999999998"><ele>2481.0261938758194</ele></trkpt><trkpt lat="38.85215" lon="-120.10203000000001"><ele>2480.7759680007584</ele></trkpt><trkpt lat="38.85214" lon="-120.10187000000002"><ele>2478.419892596081</ele></trkpt><trkpt lat="38.85209" lon="-120.10167000000001"><ele>2476.0</ele></trkpt><trkpt lat="38.85201" lon="-120.10144000000003"><ele>2472.640376670286</ele></trkpt><trkpt lat="38.85174" lon="-120.10088999999999"><ele>2464.1699473464396</ele></trkpt><trkpt lat="38.85161" lon="-120.10052999999999"><ele>2460.0908201075313</ele></trkpt><trkpt lat="38.85151" lon="-120.10016000000002"><ele>2455.719294078648</ele></trkpt><trkpt lat="38.85109" lon="-120.09937000000002"><ele>2447.110716120512</ele></trkpt><trkpt lat="38.85091" lon="-120.09919000000002"><ele>2444.0</ele></trkpt><trkpt lat="38.85071" lon="-120.09888000000001"><ele>2441.0</ele></trkpt><trkpt lat="38.85051" lon="-120.09866"><ele>2437.8777598608285</ele></trkpt><trkpt lat="38.85033" lon="-120.09838000000002"><ele>2434.034716001603</ele></trkpt><trkpt lat="38.85017" lon="-120.09797000000003"><ele>2430.0</ele></trkpt><trkpt lat="38.84992" lon="-120.09766000000002"><ele>2426.571649271995</ele></trkpt><trkpt lat="38.84979" lon="-120.09740999999997"><ele>2425.0</ele></trkpt><trkpt lat="38.84965" lon="-120.09724"><ele>2422.7341560061286</ele></trkpt><trkpt lat="38.84959" lon="-120.09712999999999"><ele>2421.824291381985</ele></trkpt><trkpt lat="38.84952" lon="-120.09685000000002"><ele>2419.0</ele></trkpt><trkpt lat="38.84943" lon="-120.09662000000003"><ele>2416.738717658458</ele></trkpt><trkpt lat="38.84901" lon="-120.09611999999998"><ele>2410.117035880685</ele></trkpt><trkpt lat="38.84894" lon="-120.09599000000003"><ele>2408.928248319775</ele></trkpt><trkpt lat="38.84884" lon="-120.09573999999998"><ele>2405.0</ele></trkpt><trkpt lat="38.84878" lon="-120.09539000000001"><ele>2401.3538922294974</ele></trkpt><trkpt lat="38.84878" lon="-120.09539000000001"><ele>2401.3538922294974</ele></trkpt><trkpt lat="38.84864" lon="-120.09487000000001"><ele>2396.9786137464844</ele></trkpt><trkpt lat="38.84869" lon="-120.09478000000001"><ele>2395.9014791119844</ele></trkpt><trkpt lat="38.84884" lon="-120.09469000000001"><ele>2392.0</ele></trkpt><trkpt lat="38.84896" lon="-120.09453000000002"><ele>2391.2192942193624</ele></trkpt><trkpt lat="38.849" lon="-120.09444000000002"><ele>2389.545752882103</ele></trkpt><trkpt lat="38.84925" lon="-120.09352000000001"><ele>2385.6598476362415</ele></trkpt><trkpt lat="38.84938" lon="-120.09334999999999"><ele>2384.066689668995</ele></trkpt><trkpt lat="38.84945" lon="-120.09321999999997"><ele>2385.089424112122</ele></trkpt><trkpt lat="38.84946" lon="-120.09305999999998"><ele>2384.04505433701</ele></trkpt><trkpt lat="38.84939" lon="-120.09248000000002"><ele>2382.85624027811</ele></trkpt><trkpt lat="38.84936" lon="-120.09231999999997"><ele>2380.0</ele></trkpt><trkpt lat="38.84921" lon="-120.09195999999997"><ele>2378.5608533596937</ele></trkpt><trkpt lat="38.84912" lon="-120.09162000000003"><ele>2376.0</ele></trkpt><trkpt lat="38.84892" lon="-120.09114999999997"><ele>2374.0</ele></trkpt><trkpt lat="38.84871" lon="-120.09075999999999"><ele>2371.1651182118803</ele></trkpt><trkpt lat="38.84860128146847" lon="-120.09060550524464"><ele>2370.0</ele></trkpt><trkpt lat="38.84860534659111" lon="-120.0906112819087"><ele>2370.0</ele></trkpt><trkpt lat="38.84852" lon="-120.09048999999999"><ele>2369.027011556085</ele></trkpt><trkpt lat="38.8484" lon="-120.09023000000002"><ele>2366.0</ele></trkpt><trkpt lat="38.84807" lon="-120.0897"><ele>2359.8679468743503</ele></trkpt><trkpt lat="38.84801" lon="-120.08952999999997"><ele>2358.277604725212</ele></trkpt><trkpt lat="38.84798" lon="-120.08924000000002"><ele>2356.482434788719</ele></trkpt><trkpt lat="38.84783" lon="-120.08861999999999"><ele>2353.0</ele></trkpt><trkpt lat="38.84751" lon="-120.08817999999997"><ele>2351.0</ele></trkpt><trkpt lat="38.84738" lon="-120.08789999999999"><ele>2350.4226733354926</ele></trkpt><trkpt lat="38.84735" lon="-120.08776"><ele>2349.199328995906</ele></trkpt><trkpt lat="38.84736" lon="-120.08763999999996"><ele>2348.382425546646</ele></trkpt><trkpt lat="38.84733" lon="-120.08757000000003"><ele>2348.06393904377</ele></trkpt><trkpt lat="38.84722" lon="-120.08749999999998"><ele>2348.3742862793606</ele></trkpt><trkpt lat="38.84722" lon="-120.08749999999998"><ele>2348.3742862793606</ele></trkpt><trkpt lat="38.84715" lon="-120.08744999999999"><ele>2348.701280000154</ele></trkpt><trkpt lat="38.84714" lon="-120.08735000000001"><ele>2348.8563660811633</ele></trkpt><trkpt lat="38.84721" lon="-120.08708000000001"><ele>2348.406665433198</ele></trkpt><trkpt lat="38.84721" lon="-120.08686999999998"><ele>2346.406665433198</ele></trkpt><trkpt lat="38.84706" lon="-120.08667000000003"><ele>2345.0223712880406</ele></trkpt><trkpt lat="38.84696" lon="-120.08649000000003"><ele>2343.447107302025</ele></trkpt><trkpt lat="38.84691" lon="-120.08627999999999"><ele>2341.4552019853145</ele></trkpt><trkpt lat="38.84696" lon="-120.08559000000002"><ele>2334.7879310030667</ele></trkpt><trkpt lat="38.84691" lon="-120.08514000000002"><ele>2331.293567650996</ele></trkpt><trkpt lat="38.84703" lon="-120.08460000000002"><ele>2329.0818310383193</ele></trkpt><trkpt lat="38.84719" lon="-120.08434"><ele>2325.7059842756908</ele></trkpt><trkpt lat="38.84726" lon="-120.08406000000002"><ele>2320.711852703709</ele></trkpt><trkpt lat="38.84738" lon="-120.08389"><ele>2318.969890100416</ele></trkpt><trkpt lat="38.8474" lon="-120.08356000000003"><ele>2315.7875452167355</ele></trkpt><trkpt lat="38.84758" lon="-120.08303000000001"><ele>2313.029250876996</ele></trkpt><trkpt lat="38.84784" lon="-120.08267000000001"><ele>2305.534574222751</ele></trkpt><trkpt lat="38.84793" lon="-120.08242000000001"><ele>2304.923944160908</ele></trkpt><trkpt lat="38.84797" lon="-120.08179999999999"><ele>2298.998798190549</ele></trkpt><trkpt lat="38.84805" lon="-120.08134000000001"><ele>2297.8527091797496</ele></trkpt><trkpt lat="38.84806" lon="-120.08116999999999"><ele>2295.6400487530045</ele></trkpt><trkpt lat="38.84797" lon="-120.08078"><ele>2292.0</ele></trkpt><trkpt lat="38.84779" lon="-120.08056999999997"><ele>2290.44556186907</ele></trkpt><trkpt lat="38.84779" lon="-120.08056999999997"><ele>2290.44556186907</ele></trkpt><trkpt lat="38.84758" lon="-120.08032000000003"><ele>2287.9924621584337</ele></trkpt><trkpt lat="38.84743" lon="-120.08023000000003"><ele>2286.8223324459977</ele></trkpt><trkpt lat="38.84735" lon="-120.08015"><ele>2285.7102923158236</ele></trkpt><trkpt lat="38.84732" lon="-120.08008000000001"><ele>2284.9888876657933</ele></trkpt><trkpt lat="38.84735" lon="-120.07990000000001"><ele>2283.0</ele></trkpt><trkpt lat="38.84758" lon="-120.07969000000003"><ele>2281.5469079446048</ele></trkpt><trkpt lat="38.84768" lon="-120.07943"><ele>2281.2864233307046</ele></trkpt><trkpt lat="38.84766" lon="-120.07927999999998"><ele>2280.1834086659546</ele></trkpt><trkpt lat="38.8476" lon="-120.07915000000003"><ele>2279.37876834697</ele></trkpt><trkpt lat="38.84734" lon="-120.07884000000001"><ele>2277.0</ele></trkpt><trkpt lat="38.84726" lon="-120.07859000000002"><ele>2277.0</ele></trkpt><trkpt lat="38.84726" lon="-120.07859000000002"><ele>2277.0</ele></trkpt><trkpt lat="38.84728" lon="-120.07848000000001"><ele>2277.595351131633</ele></trkpt><trkpt lat="38.84738" lon="-120.07835"><ele>2276.2079822225496</ele></trkpt><trkpt lat="38.84741" lon="-120.07826"><ele>2275.382907572142</ele></trkpt><trkpt lat="38.8474" lon="-120.07789000000002"><ele>2275.36825377765</ele></trkpt><trkpt lat="38.84749" lon="-120.07753000000002"><ele>2276.0</ele></trkpt><trkpt lat="38.84748" lon="-120.07742999999999"><ele>2276.0</ele></trkpt><trkpt lat="38.84745" lon="-120.07731999999999"><ele>2276.0</ele></trkpt><trkpt lat="38.84732" lon="-120.07713000000001"><ele>2277.0</ele></trkpt><trkpt lat="38.8471" lon="-120.07688999999999"><ele>2277.0</ele></trkpt><trkpt lat="38.84695" lon="-120.07636000000002"><ele>2281.0</ele></trkpt><trkpt lat="38.84674" lon="-120.07607999999999"><ele>2281.2827396318316</ele></trkpt><trkpt lat="38.84642" lon="-120.07580000000002"><ele>2278.1346411444247</ele></trkpt><trkpt lat="38.84633" lon="-120.07559000000003"><ele>2279.0</ele></trkpt><trkpt lat="38.84616" lon="-120.07475999999997"><ele>2282.0</ele></trkpt><trkpt lat="38.84611" lon="-120.07439999999997"><ele>2283.9482747580023</ele></trkpt><trkpt lat="38.84598" lon="-120.07403"><ele>2285.924756135326</ele></trkpt><trkpt lat="38.84585" lon="-120.07385999999997"><ele>2285.0411840016022</ele></trkpt><trkpt lat="38.8454" lon="-120.07343000000003"><ele>2283.1006520111114</ele></trkpt><trkpt lat="38.84532" lon="-120.07325000000003"><ele>2283.3137094788253</ele></trkpt><trkpt lat="38.84528" lon="-120.07306"><ele>2284.0</ele></trkpt><trkpt lat="38.84476" lon="-120.07229000000001"><ele>2286.8458627251393</ele></trkpt><trkpt lat="38.84461" lon="-120.07193999999998"><ele>2288.431237388936</ele></trkpt><trkpt lat="38.8445" lon="-120.07157000000001"><ele>2290.0</ele></trkpt><trkpt lat="38.84432" lon="-120.07137"><ele>2289.0399065860875</ele></trkpt><trkpt lat="38.84418" lon="-120.07116000000002"><ele>2289.100363222882</ele></trkpt><trkpt lat="38.8441" lon="-120.07098000000002"><ele>2290.0</ele></trkpt><trkpt lat="38.84404" lon="-120.07065999999998"><ele>2290.723360966891</ele></trkpt><trkpt lat="38.84404" lon="-120.07055000000003"><ele>2290.0</ele></trkpt><trkpt lat="38.84408" lon="-120.07040999999998"><ele>2289.273260606571</ele></trkpt><trkpt lat="38.84406" lon="-120.07033000000001"><ele>2289.9200745671988</ele></trkpt><trkpt lat="38.84388" lon="-120.06999000000002"><ele>2291.0</ele></trkpt><trkpt lat="38.8439" lon="-120.06988999999999"><ele>2291.326772512456</ele></trkpt><trkpt lat="38.84394" lon="-120.06979999999999"><ele>2291.5541843381043</ele></trkpt><trkpt lat="38.84421" lon="-120.06952999999999"><ele>2290.1488129202185</ele></trkpt><trkpt lat="38.8443" lon="-120.06938000000002"><ele>2292.0493080482065</ele></trkpt><trkpt lat="38.84438" lon="-120.06932"><ele>2290.421389444455</ele></trkpt><trkpt lat="38.84451" lon="-120.06927999999999"><ele>2290.1052219357907</ele></trkpt><trkpt lat="38.84479" lon="-120.06932"><ele>2291.379480889067</ele></trkpt><trkpt lat="38.84489" lon="-120.06929000000002"><ele>2291.573111507786</ele></trkpt><trkpt lat="38.84511" lon="-120.0693"><ele>2293.7820833998944</ele></trkpt><trkpt lat="38.8452" lon="-120.06927000000002"><ele>2295.0986240021884</ele></trkpt><trkpt lat="38.84532" lon="-120.06916000000001"><ele>2295.9471147576087</ele></trkpt><trkpt lat="38.84548" lon="-120.06909000000002"><ele>2298.0</ele></trkpt><trkpt lat="38.84562" lon="-120.06898000000001"><ele>2295.657628049794</ele></trkpt><trkpt lat="38.84576" lon="-120.06835000000001"><ele>2291.1118322892007</ele></trkpt><trkpt lat="38.84572" lon="-120.06803000000002"><ele>2289.064882929812</ele></trkpt><trkpt lat="38.84573" lon="-120.06772999999998"><ele>2286.456483258028</ele></trkpt><trkpt lat="38.84569" lon="-120.06754999999998"><ele>2285.512672628879</ele></trkpt><trkpt lat="38.84556" lon="-120.06722000000002"><ele>2286.8332451228994</ele></trkpt><trkpt lat="38.84547" lon="-120.06681000000003"><ele>2290.5949973315</ele></trkpt><trkpt lat="38.84546796386208" lon="-120.0665758441391"><ele>2290.4925486217253</ele></trkpt><trkpt lat="38.84546776146287" lon="-120.06655256821614"><ele>2290.0</ele></trkpt><trkpt lat="38.84546" lon="-120.06565999999998"><ele>2291.0</ele></trkpt><trkpt lat="38.84559" lon="-120.06527"><ele>2292.4696621019393</ele></trkpt><trkpt lat="38.84561" lon="-120.06479000000002"><ele>2296.489019243757</ele></trkpt><trkpt lat="38.84557" lon="-120.06453999999997"><ele>2298.2729227673262</ele></trkpt><trkpt lat="38.84557" lon="-120.06453999999997"><ele>2298.2729227673262</ele></trkpt><trkpt lat="38.84557" lon="-120.06453999999997"><ele>2298.2729227673262</ele></trkpt><trkpt lat="38.8456" lon="-120.06407000000002"><ele>2303.019610359697</ele></trkpt><trkpt lat="38.84553" lon="-120.06358"><ele>2308.894382769595</ele></trkpt><trkpt lat="38.84556" lon="-120.06342000000001"><ele>2311.349106453359</ele></trkpt><trkpt lat="38.84561" lon="-120.06330000000003"><ele>2313.6664017718285</ele></trkpt><trkpt lat="38.84554" lon="-120.06306000000001"><ele>2312.0</ele></trkpt><trkpt lat="38.84553" lon="-120.06227000000001"><ele>2320.7588902153075</ele></trkpt><trkpt lat="38.84539" lon="-120.06180999999998"><ele>2320.502283900976</ele></trkpt><trkpt lat="38.84538126126312" lon="-120.06177286036825"><ele>2319.986450683062</ele></trkpt><trkpt lat="38.845382652682474" lon="-120.06177877388461"><ele>2320.0668491064434</ele></trkpt><trkpt lat="38.84531" lon="-120.06146999999999"><ele>2322.7153420392424</ele></trkpt><trkpt lat="38.84527" lon="-120.06121999999999"><ele>2322.321873128414</ele></trkpt><trkpt lat="38.84526" lon="-120.06103000000002"><ele>2321.7235061116517</ele></trkpt><trkpt lat="38.8452" lon="-120.06073000000004"><ele>2319.259084328213</ele></trkpt><trkpt lat="38.84423" lon="-120.05890999999997"><ele>2304.162345563171</ele></trkpt><trkpt lat="38.84403" lon="-120.05858999999998"><ele>2300.7997669610195</ele></trkpt><trkpt lat="38.84403" lon="-120.05858999999998"><ele>2300.7997669610195</ele></trkpt><trkpt lat="38.84363" lon="-120.05794000000003"><ele>2293.3485708646476</ele></trkpt><trkpt lat="38.84369" lon="-120.05827999999997"><ele>2289.780927442014</ele></trkpt><trkpt lat="38.84372" lon="-120.05854999999997"><ele>2286.8863883998865</ele></trkpt><trkpt lat="38.84360425434147" lon="-120.05843425434148"><ele>2283.9765832883677</ele></trkpt><trkpt lat="38.84359125461452" lon="-120.05842125461453"><ele>2283.8724641557783</ele></trkpt><trkpt lat="38.84345" lon="-120.05827999999997"><ele>2280.542270912323</ele></trkpt><trkpt lat="38.84322" lon="-120.05750999999998"><ele>2280.3189760165596</ele></trkpt><trkpt lat="38.84312" lon="-120.05734000000001"><ele>2278.976912920208</ele></trkpt><trkpt lat="38.84304" lon="-120.05696999999998"><ele>2280.9073812711736</ele></trkpt><trkpt lat="38.84275" lon="-120.05624999999998"><ele>2280.2627110849135</ele></trkpt><trkpt lat="38.84231" lon="-120.05551000000003"><ele>2280.4220738937147</ele></trkpt><trkpt lat="38.84183" lon="-120.05457999999999"><ele>2284.270823881733</ele></trkpt><trkpt lat="38.84176711765234" lon="-120.05448853476707"><ele>2284.5931415531454</ele></trkpt><trkpt lat="38.84176789229507" lon="-120.05448966135003"><ele>2284.590449369345</ele></trkpt><trkpt lat="38.8415" lon="-120.0541"><ele>2284.0</ele></trkpt><trkpt lat="38.84132" lon="-120.05376000000001"><ele>2285.7486546618507</ele></trkpt><trkpt lat="38.84115" lon="-120.05360999999999"><ele>2285.759584000334</ele></trkpt><trkpt lat="38.84076" lon="-120.05333999999999"><ele>2284.649472730798</ele></trkpt><trkpt lat="38.84034" lon="-120.05297999999999"><ele>2284.0403588044205</ele></trkpt><trkpt lat="38.84016" lon="-120.05291999999997"><ele>2279.9636150389533</ele></trkpt><trkpt lat="38.83971" lon="-120.05246"><ele>2281.0</ele></trkpt><trkpt lat="38.83971" lon="-120.05246"><ele>2281.0</ele></trkpt><trkpt lat="38.83949" lon="-120.05221"><ele>2279.0043128882535</ele></trkpt><trkpt lat="38.83917" lon="-120.05192999999997"><ele>2278.3868712456897</ele></trkpt><trkpt lat="38.83872" lon="-120.05160000000001"><ele>2277.432373332791</ele></trkpt><trkpt lat="38.83827" lon="-120.05108000000001"><ele>2278.323428855544</ele></trkpt><trkpt lat="38.83802" lon="-120.05070999999998"><ele>2279.9572140682985</ele></trkpt><trkpt lat="38.83793" lon="-120.05052"><ele>2281.109334646869</ele></trkpt><trkpt lat="38.83773" lon="-120.0503"><ele>2280.0029675450596</ele></trkpt><trkpt lat="38.83762" lon="-120.05007"><ele>2281.4381465780416</ele></trkpt><trkpt lat="38.83732" lon="-120.04910999999998"><ele>2284.0</ele></trkpt><trkpt lat="38.83714" lon="-120.04859999999996"><ele>2285.2127377013276</ele></trkpt><trkpt lat="38.83698" lon="-120.04804999999999"><ele>2284.5706996492936</ele></trkpt><trkpt lat="38.83681" lon="-120.04775999999998"><ele>2279.522777515929</ele></trkpt><trkpt lat="38.83671" lon="-120.04723999999999"><ele>2276.1504784859717</ele></trkpt><trkpt lat="38.83628" lon="-120.04613"><ele>2274.0</ele></trkpt><trkpt lat="38.83596" lon="-120.04561999999999"><ele>2274.432745715418</ele></trkpt><trkpt lat="38.83581" lon="-120.04532"><ele>2274.6085230857134</ele></trkpt><trkpt lat="38.83573" lon="-120.04509000000002"><ele>2274.424918411718</ele></trkpt><trkpt lat="38.83568" lon="-120.04473999999999"><ele>2277.069262453063</ele></trkpt><trkpt lat="38.83577" lon="-120.04419999999999"><ele>2277.613743259106</ele></trkpt><trkpt lat="38.83579" lon="-120.04395"><ele>2274.0</ele></trkpt><trkpt lat="38.83579" lon="-120.04395"><ele>2274.0</ele></trkpt><trkpt lat="38.83563" lon="-120.04395"><ele>2271.0277110383277</ele></trkpt><trkpt lat="38.83563" lon="-120.04395"><ele>2271.0277110383277</ele></trkpt><trkpt lat="38.83559" lon="-120.04398000000003"><ele>2270.5279799886393</ele></trkpt><trkpt lat="38.83556" lon="-120.04406"><ele>2268.347099898383</ele></trkpt><trkpt lat="38.83553" lon="-120.04404"><ele>2267.552244035527</ele></trkpt><trkpt lat="38.83549" lon="-120.04406"><ele>2266.1591040547937</ele></trkpt><trkpt lat="38.83546" lon="-120.04424"><ele>2264.9310161806643</ele></trkpt><trkpt lat="38.83537" lon="-120.04433"><ele>2262.0</ele></trkpt><trkpt lat="38.83538" lon="-120.04437999999999"><ele>2262.0</ele></trkpt><trkpt lat="38.83538" lon="-120.04437999999999"><ele>2262.0</ele></trkpt><trkpt lat="38.83537" lon="-120.04443000000003"><ele>2262.0</ele></trkpt><trkpt lat="38.83541" lon="-120.04451"><ele>2261.0</ele></trkpt><trkpt lat="38.83542" lon="-120.0446"><ele>2261.0</ele></trkpt><trkpt lat="38.83539" lon="-120.04470000000003"><ele>2260.0</ele></trkpt><trkpt lat="38.83539" lon="-120.04470000000003"><ele>2260.0</ele></trkpt><trkpt lat="38.83531" lon="-120.04475000000002"><ele>2259.7404567916738</ele></trkpt><trkpt lat="38.83531" lon="-120.04475000000002"><ele>2259.7404567916738</ele></trkpt><trkpt lat="38.83508" lon="-120.04475000000002"><ele>2260.0</ele></trkpt><trkpt lat="38.83491" lon="-120.04467"><ele>2260.3937813332304</ele></trkpt><trkpt lat="38.83485" lon="-120.04434000000003"><ele>2260.328316798635</ele></trkpt><trkpt lat="38.83485" lon="-120.04434000000003"><ele>2260.328316798635</ele></trkpt><trkpt lat="38.83483" lon="-120.04422999999997"><ele>2260.3275113981217</ele></trkpt><trkpt lat="38.83483" lon="-120.04422999999997"><ele>2260.3275113981217</ele></trkpt><trkpt lat="38.83483" lon="-120.04422999999997"><ele>2260.3275113981217</ele></trkpt><trkpt lat="38.83465" lon="-120.04422999999997"><ele>2262.0</ele></trkpt><trkpt lat="38.83465" lon="-120.04422999999997"><ele>2262.0</ele></trkpt><trkpt lat="38.83454" lon="-120.04408000000001"><ele>2263.0</ele></trkpt><trkpt lat="38.83454" lon="-120.04408000000001"><ele>2263.0</ele></trkpt><trkpt lat="38.83452" lon="-120.04386999999997"><ele>2264.0</ele></trkpt><trkpt lat="38.83447" lon="-120.04380000000003"><ele>2264.0</ele></trkpt><trkpt lat="38.83439" lon="-120.04377"><ele>2264.2195126196157</ele></trkpt><trkpt lat="38.83439" lon="-120.04377"><ele>2264.2195126196157</ele></trkpt><trkpt lat="38.83428" lon="-120.04365999999999"><ele>2266.0</ele></trkpt><trkpt lat="38.83426" lon="-120.04350999999997"><ele>2268.4536995571107</ele></trkpt><trkpt lat="38.83428" lon="-120.04345"><ele>2269.0581633853694</ele></trkpt><trkpt lat="38.83443" lon="-120.04329000000001"><ele>2270.7064426657744</ele></trkpt><trkpt lat="38.83448" lon="-120.04317000000003"><ele>2273.486220114057</ele></trkpt><trkpt lat="38.83449" lon="-120.04305999999997"><ele>2274.809723691449</ele></trkpt><trkpt lat="38.83444" lon="-120.04287999999997"><ele>2280.4741668859497</ele></trkpt><trkpt lat="38.83437" lon="-120.04282"><ele>2283.5174698913315</ele></trkpt><trkpt lat="38.83423" lon="-120.04260999999997"><ele>2286.2241167966276</ele></trkpt><trkpt lat="38.83417" lon="-120.04254000000003"><ele>2288.9364879260183</ele></trkpt><trkpt lat="38.83417" lon="-120.04254000000003"><ele>2288.9364879260183</ele></trkpt><trkpt lat="38.8341477915894" lon="-120.04243451004965"><ele>2289.0</ele></trkpt><trkpt lat="38.834137942798286" lon="-120.04238772829183"><ele>2289.0</ele></trkpt><trkpt lat="38.83413" lon="-120.04235"><ele>2289.0</ele></trkpt><trkpt lat="38.83397" lon="-120.04218000000003"><ele>2291.0</ele></trkpt></trkseg></trk></gpx>