<?xml version="1.0"?>
<gpx xmlns="http://www.topografix.com/GPX/1/1" xmlns:gpxx="http://www.garmin.com/xmlschemas/GpxExtensions/v3" creator="CALTOPO" version="1.1"><metadata><name><![CDATA[Granite Chief-Five Lakes]]></name></metadata><wpt lat="39.179191297934" lon="-120.22942976853027"><name>Five Lakes Trailhead</name></wpt><trk><name>Granite Chief-Five Lakes</name><trkseg><trkpt lat="39.17928102654856" lon="-120.22967631167433"><ele>1994.0</ele></trkpt><trkpt lat="39.17926461696883" lon="-120.2296443417481"><ele>1994.0</ele></trkpt><trkpt lat="39.17926461696883" lon="-120.22964434174804"><ele>1994.0</ele></trkpt><trkpt lat="39.17927" lon="-120.22964999999999"><ele>1994.0</ele></trkpt><trkpt lat="39.17934" lon="-120.22976"><ele>1996.425411555916</ele></trkpt><trkpt lat="39.179357873285966" lon="-120.22985830307277"><ele>1998.2371359094977</ele></trkpt><trkpt lat="39.17936000000002" lon="-120.22987"><ele>1998.3649940416217</ele></trkpt><trkpt lat="39.17936" lon="-120.22987"><ele>1998.3649940378964</ele></trkpt><trkpt lat="39.179" lon="-120.23070999999999"><ele>2010.7824535362759</ele></trkpt><trkpt lat="39.17873" lon="-120.23109999999997"><ele>2016.9356501927039</ele></trkpt><trkpt lat="39.17851" lon="-120.23121000000003"><ele>2021.0003093350679</ele></trkpt><trkpt lat="39.17831" lon="-120.23147"><ele>2026.1171875558794</ele></trkpt><trkpt lat="39.1783" lon="-120.23149999999998"><ele>2026.8246476995296</ele></trkpt><trkpt lat="39.17833" lon="-120.23154999999997"><ele>2028.0</ele></trkpt><trkpt lat="39.17851" lon="-120.23162000000002"><ele>2031.0</ele></trkpt><trkpt lat="39.17853" lon="-120.23167000000001"><ele>2031.9035195410252</ele></trkpt><trkpt lat="39.17852" lon="-120.23171000000002"><ele>2033.3019982236437</ele></trkpt><trkpt lat="39.17845" lon="-120.23178000000001"><ele>2034.8501459009462</ele></trkpt><trkpt lat="39.17829" lon="-120.23178999999999"><ele>2036.059415681691</ele></trkpt><trkpt lat="39.17823" lon="-120.23185000000001"><ele>2037.3552968013844</ele></trkpt><trkpt lat="39.17819" lon="-120.23208"><ele>2041.5703819990158</ele></trkpt><trkpt lat="39.17804" lon="-120.23221999999998"><ele>2045.0765006531517</ele></trkpt><trkpt lat="39.17799" lon="-120.23235"><ele>2047.1295034517534</ele></trkpt><trkpt lat="39.17799" lon="-120.23239999999998"><ele>2048.459056597121</ele></trkpt><trkpt lat="39.17801" lon="-120.23241999999999"><ele>2049.469928384425</ele></trkpt><trkpt lat="39.1781" lon="-120.23243000000002"><ele>2051.8564302236773</ele></trkpt><trkpt lat="39.17821" lon="-120.23248999999998"><ele>2053.652632887941</ele></trkpt><trkpt lat="39.17842" lon="-120.23241000000002"><ele>2056.9888461722353</ele></trkpt><trkpt lat="39.17849" lon="-120.23241000000002"><ele>2058.1319161864662</ele></trkpt><trkpt lat="39.17858" lon="-120.23246"><ele>2060.60611232784</ele></trkpt><trkpt lat="39.17845" lon="-120.23264"><ele>2065.6431395555846</ele></trkpt><trkpt lat="39.17837" lon="-120.23280999999997"><ele>2067.4789189916255</ele></trkpt><trkpt lat="39.17825" lon="-120.23291999999998"><ele>2070.692085332703</ele></trkpt><trkpt lat="39.17812" lon="-120.23309999999998"><ele>2074.080693332944</ele></trkpt><trkpt lat="39.17803" lon="-120.23316"><ele>2075.8768960004672</ele></trkpt><trkpt lat="39.17795" lon="-120.23331999999999"><ele>2078.1989246636645</ele></trkpt><trkpt lat="39.17778" lon="-120.23399"><ele>2089.5863184022182</ele></trkpt><trkpt lat="39.17775" lon="-120.23437999999999"><ele>2094.5728399418294</ele></trkpt><trkpt lat="39.17775" lon="-120.23437999999999"><ele>2094.5728399418294</ele></trkpt><trkpt lat="39.17767" lon="-120.23525000000001"><ele>2108.7633497193456</ele></trkpt><trkpt lat="39.1777" lon="-120.23565000000002"><ele>2110.5669079124928</ele></trkpt><trkpt lat="39.17779" lon="-120.23613"><ele>2111.0</ele></trkpt><trkpt lat="39.17787" lon="-120.23626999999999"><ele>2111.826815187961</ele></trkpt><trkpt lat="39.17823475105672" lon="-120.23657672247953"><ele>2115.715525345877</ele></trkpt><trkpt lat="39.17824438898943" lon="-120.23658482695782"><ele>2116.1517805957196</ele></trkpt><trkpt lat="39.17831" lon="-120.23663999999997"><ele>2117.2825118404717</ele></trkpt><trkpt lat="39.17841" lon="-120.23678999999998"><ele>2121.0</ele></trkpt><trkpt lat="39.17849" lon="-120.23711000000003"><ele>2125.0</ele></trkpt><trkpt lat="39.17855" lon="-120.23725999999999"><ele>2125.0</ele></trkpt><trkpt lat="39.17853" lon="-120.23741999999999"><ele>2125.0</ele></trkpt><trkpt lat="39.17863" lon="-120.2378"><ele>2130.0</ele></trkpt><trkpt lat="39.17866" lon="-120.23816"><ele>2133.281176423654</ele></trkpt><trkpt lat="39.17873" lon="-120.23852"><ele>2138.0</ele></trkpt><trkpt lat="39.17876" lon="-120.23851000000002"><ele>2139.2931247148663</ele></trkpt><trkpt lat="39.17895" lon="-120.23806000000002"><ele>2144.498034045104</ele></trkpt><trkpt lat="39.17897" lon="-120.23801000000003"><ele>2145.0</ele></trkpt><trkpt lat="39.179" lon="-120.23802"><ele>2145.8245649901974</ele></trkpt><trkpt lat="39.17904" lon="-120.23813000000001"><ele>2148.1266254205257</ele></trkpt><trkpt lat="39.17906" lon="-120.23849000000001"><ele>2151.329020895064</ele></trkpt><trkpt lat="39.17909" lon="-120.23858999999999"><ele>2152.132614744827</ele></trkpt><trkpt lat="39.17922" lon="-120.23822000000001"><ele>2156.948196992278</ele></trkpt><trkpt lat="39.17931" lon="-120.23779000000002"><ele>2161.5925308303595</ele></trkpt><trkpt lat="39.17935" lon="-120.23770999999999"><ele>2162.7637936938554</ele></trkpt><trkpt lat="39.17937" lon="-120.23771999999997"><ele>2163.0</ele></trkpt><trkpt lat="39.17943" lon="-120.23858999999999"><ele>2170.5733988452703</ele></trkpt><trkpt lat="39.17952" lon="-120.23917"><ele>2175.947407628875</ele></trkpt><trkpt lat="39.1795" lon="-120.23927000000003"><ele>2177.4874839470704</ele></trkpt><trkpt lat="39.17946" lon="-120.23930000000001"><ele>2177.0432711122558</ele></trkpt><trkpt lat="39.17931" lon="-120.23933"><ele>2178.1506826759633</ele></trkpt><trkpt lat="39.17927" lon="-120.23937999999998"><ele>2177.7155556043026</ele></trkpt><trkpt lat="39.17909" lon="-120.23975999999999"><ele>2181.060895276226</ele></trkpt><trkpt lat="39.17911" lon="-120.23987"><ele>2184.196169382342</ele></trkpt><trkpt lat="39.17906" lon="-120.24002000000002"><ele>2185.9050884512253</ele></trkpt><trkpt lat="39.17892" lon="-120.24014"><ele>2185.7585687280807</ele></trkpt><trkpt lat="39.17871" lon="-120.24044000000004"><ele>2186.830346554794</ele></trkpt><trkpt lat="39.17862" lon="-120.24053000000004"><ele>2188.3012975814127</ele></trkpt><trkpt lat="39.17835" lon="-120.24063000000001"><ele>2193.645659843477</ele></trkpt><trkpt lat="39.17805" lon="-120.24077999999997"><ele>2193.9978993482805</ele></trkpt><trkpt lat="39.17794" lon="-120.24071000000004"><ele>2195.003368183033</ele></trkpt><trkpt lat="39.17744" lon="-120.24083999999999"><ele>2201.7402995105895</ele></trkpt><trkpt lat="39.17721" lon="-120.24095999999997"><ele>2201.4503996004983</ele></trkpt><trkpt lat="39.17698" lon="-120.24090000000001"><ele>2200.305316316895</ele></trkpt><trkpt lat="39.17696" lon="-120.24097999999998"><ele>2201.315310221631</ele></trkpt><trkpt lat="39.17717" lon="-120.24115"><ele>2206.942044246476</ele></trkpt><trkpt lat="39.17736" lon="-120.24110000000002"><ele>2209.0</ele></trkpt><trkpt lat="39.1777" lon="-120.24119999999999"><ele>2212.2460194040445</ele></trkpt><trkpt lat="39.17784" lon="-120.24135999999999"><ele>2213.0</ele></trkpt><trkpt lat="39.1778" lon="-120.24146999999999"><ele>2215.0</ele></trkpt><trkpt lat="39.17781" lon="-120.24149999999997"><ele>2215.4502559681005</ele></trkpt><trkpt lat="39.17787" lon="-120.24155999999999"><ele>2216.0</ele></trkpt><trkpt lat="39.17808" lon="-120.24194"><ele>2224.4120449647307</ele></trkpt><trkpt lat="39.1781" lon="-120.24209000000002"><ele>2224.0</ele></trkpt><trkpt lat="39.17813" lon="-120.24214"><ele>2223.781614510829</ele></trkpt><trkpt lat="39.17824" lon="-120.24223999999998"><ele>2225.964433778543</ele></trkpt><trkpt lat="39.17841" lon="-120.24234000000001"><ele>2228.4790066725855</ele></trkpt><trkpt lat="39.17876" lon="-120.24265000000003"><ele>2232.857048887294</ele></trkpt><trkpt lat="39.17894" lon="-120.24273"><ele>2238.2434318559244</ele></trkpt><trkpt lat="39.17915" lon="-120.24295000000001"><ele>2241.739804757759</ele></trkpt><trkpt lat="39.17923" lon="-120.24308000000002"><ele>2243.098792452365</ele></trkpt><trkpt lat="39.17926" lon="-120.24327"><ele>2243.3290259017285</ele></trkpt><trkpt lat="39.17933" lon="-120.24347999999998"><ele>2244.6603362037904</ele></trkpt><trkpt lat="39.17952" lon="-120.24379999999996"><ele>2251.9725774231656</ele></trkpt><trkpt lat="39.17957" lon="-120.24400000000003"><ele>2251.9327099206857</ele></trkpt><trkpt lat="39.17961" lon="-120.24400000000003"><ele>2253.395030448213</ele></trkpt><trkpt lat="39.17962" lon="-120.24391000000003"><ele>2256.996233018115</ele></trkpt><trkpt lat="39.17963" lon="-120.24392"><ele>2257.268194780685</ele></trkpt><trkpt lat="39.17995" lon="-120.24428"><ele>2261.671931479126</ele></trkpt><trkpt lat="39.17995" lon="-120.24435"><ele>2260.363716484233</ele></trkpt><trkpt lat="39.18" lon="-120.24446999999998"><ele>2259.8481406215087</ele></trkpt><trkpt lat="39.18008" lon="-120.24453"><ele>2261.894342260901</ele></trkpt><trkpt lat="39.18021" lon="-120.24468999999999"><ele>2266.253494124394</ele></trkpt><trkpt lat="39.18022" lon="-120.24490000000003"><ele>2267.0</ele></trkpt><trkpt lat="39.18033" lon="-120.24507"><ele>2269.681833939627</ele></trkpt><trkpt lat="39.18038" lon="-120.24536"><ele>2271.1259833117947</ele></trkpt><trkpt lat="39.18038" lon="-120.24572999999998"><ele>2273.687878422439</ele></trkpt><trkpt lat="39.1804" lon="-120.24595999999997"><ele>2274.3562358476524</ele></trkpt><trkpt lat="39.18029" lon="-120.2466"><ele>2282.276999892667</ele></trkpt><trkpt lat="39.18029" lon="-120.24667999999997"><ele>2284.2315634470433</ele></trkpt><trkpt lat="39.18036" lon="-120.24652000000003"><ele>2284.2417704856834</ele></trkpt><trkpt lat="39.18037" lon="-120.24667999999997"><ele>2289.127902265638</ele></trkpt><trkpt lat="39.18024" lon="-120.24711000000002"><ele>2293.9940160014667</ele></trkpt><trkpt lat="39.18012" lon="-120.24732"><ele>2296.0564704611897</ele></trkpt><trkpt lat="39.17987" lon="-120.24766"><ele>2296.635722656099</ele></trkpt><trkpt lat="39.17964" lon="-120.24810000000002"><ele>2297.198638411239</ele></trkpt><trkpt lat="39.17913" lon="-120.24869999999999"><ele>2300.050186717764</ele></trkpt><trkpt lat="39.17902" lon="-120.24889999999999"><ele>2299.955603665877</ele></trkpt><trkpt lat="39.17885" lon="-120.24912999999998"><ele>2299.0</ele></trkpt><trkpt lat="39.17874" lon="-120.24923000000001"><ele>2299.071968408399</ele></trkpt><trkpt lat="39.17867" lon="-120.24936000000002"><ele>2299.8823708686978</ele></trkpt><trkpt lat="39.17863" lon="-120.24954000000002"><ele>2301.0</ele></trkpt><trkpt lat="39.17863" lon="-120.24954000000002"><ele>2301.0</ele></trkpt><trkpt lat="39.17863" lon="-120.24954000000002"><ele>2301.0</ele></trkpt><trkpt lat="39.17864" lon="-120.24984"><ele>2303.2825943238254</ele></trkpt><trkpt lat="39.17859" lon="-120.2502"><ele>2304.0728177074343</ele></trkpt><trkpt lat="39.17859" lon="-120.25043"><ele>2305.0</ele></trkpt><trkpt lat="39.17865" lon="-120.25072"><ele>2304.9256887066495</ele></trkpt><trkpt lat="39.17862" lon="-120.25112999999999"><ele>2306.0</ele></trkpt><trkpt lat="39.17848" lon="-120.25173000000001"><ele>2310.459691049531</ele></trkpt><trkpt lat="39.17827" lon="-120.25220999999999"><ele>2311.0</ele></trkpt><trkpt lat="39.17827" lon="-120.25220999999999"><ele>2311.0</ele></trkpt><trkpt lat="39.17819" lon="-120.25245000000001"><ele>2314.0</ele></trkpt><trkpt lat="39.1782" lon="-120.25279999999998"><ele>2315.0</ele></trkpt><trkpt lat="39.1782" lon="-120.25279999999998"><ele>2315.0</ele></trkpt><trkpt lat="39.1782" lon="-120.25279999999998"><ele>2315.0</ele></trkpt><trkpt lat="39.17827" lon="-120.25306"><ele>2315.834659796208</ele></trkpt><trkpt lat="39.17837009445962" lon="-120.253266444823"><ele>2316.0</ele></trkpt><trkpt lat="39.17838640533705" lon="-120.25330008593323"><ele>2316.0</ele></trkpt><trkpt lat="39.17843" lon="-120.25338999999997"><ele>2316.8160310626176</ele></trkpt><trkpt lat="39.17843" lon="-120.25351"><ele>2316.453727805987</ele></trkpt><trkpt lat="39.17835" lon="-120.25378999999998"><ele>2315.6441910639405</ele></trkpt><trkpt lat="39.17824" lon="-120.25396999999998"><ele>2314.702725427577</ele></trkpt><trkpt lat="39.178" lon="-120.25413000000003"><ele>2313.0</ele></trkpt><trkpt lat="39.17789" lon="-120.25425000000001"><ele>2312.734311992739</ele></trkpt><trkpt lat="39.17755" lon="-120.25439"><ele>2310.0</ele></trkpt><trkpt lat="39.17743" lon="-120.25459000000001"><ele>2310.0</ele></trkpt><trkpt lat="39.17728" lon="-120.25497999999999"><ele>2306.241868406286</ele></trkpt><trkpt lat="39.17724" lon="-120.25522999999998"><ele>2302.963796203223</ele></trkpt><trkpt lat="39.17711" lon="-120.25548000000003"><ele>2300.064288001973</ele></trkpt><trkpt lat="39.17706" lon="-120.25554"><ele>2300.8604906667024</ele></trkpt><trkpt lat="39.17676" lon="-120.25569000000002"><ele>2299.0</ele></trkpt><trkpt lat="39.17653" lon="-120.25572999999997"><ele>2295.780284113057</ele></trkpt><trkpt lat="39.17636" lon="-120.25594000000001"><ele>2293.008725784719</ele></trkpt><trkpt lat="39.17615" lon="-120.25635"><ele>2292.0</ele></trkpt><trkpt lat="39.17615" lon="-120.25635"><ele>2292.0</ele></trkpt><trkpt lat="39.17596" lon="-120.25695999999999"><ele>2291.0358629225684</ele></trkpt><trkpt lat="39.17578" lon="-120.25736"><ele>2291.0955081366747</ele></trkpt><trkpt lat="39.17553" lon="-120.25761"><ele>2289.0</ele></trkpt><trkpt lat="39.17522" lon="-120.25803000000002"><ele>2288.0</ele></trkpt><trkpt lat="39.17507" lon="-120.25815999999998"><ele>2286.0</ele></trkpt><trkpt lat="39.17507" lon="-120.25815999999998"><ele>2286.0</ele></trkpt><trkpt lat="39.17507" lon="-120.25815999999998"><ele>2286.0</ele></trkpt><trkpt lat="39.17494" lon="-120.25837000000001"><ele>2286.909997196849</ele></trkpt><trkpt lat="39.17487" lon="-120.25864000000001"><ele>2286.143849026232</ele></trkpt><trkpt lat="39.17465" lon="-120.25889999999998"><ele>2283.093641634856</ele></trkpt><trkpt lat="39.17433" lon="-120.25905999999998"><ele>2282.0</ele></trkpt><trkpt lat="39.17418" lon="-120.25909000000001"><ele>2282.3024817784317</ele></trkpt><trkpt lat="39.17391" lon="-120.25900999999999"><ele>2277.574211555533</ele></trkpt><trkpt lat="39.17363" lon="-120.25902000000002"><ele>2278.144657772701</ele></trkpt><trkpt lat="39.17331" lon="-120.25909000000001"><ele>2279.3024817784317</ele></trkpt><trkpt lat="39.17307" lon="-120.25903"><ele>2276.5062791109085</ele></trkpt><trkpt lat="39.17291" lon="-120.25903"><ele>2273.8067233041847</ele></trkpt><trkpt lat="39.17259" lon="-120.25909000000001"><ele>2269.56190733701</ele></trkpt><trkpt lat="39.17228" lon="-120.25909999999999"><ele>2266.0</ele></trkpt><trkpt lat="39.17212" lon="-120.25916000000001"><ele>2265.0</ele></trkpt><trkpt lat="39.17201" lon="-120.25904000000003"><ele>2262.0</ele></trkpt><trkpt lat="39.17200910766715" lon="-120.2590381389781"><ele>2262.0</ele></trkpt><trkpt lat="39.17192" lon="-120.25911000000002"><ele>2261.307703997527</ele></trkpt><trkpt lat="39.17183" lon="-120.25936000000002"><ele>2261.9639383717868</ele></trkpt><trkpt lat="39.17159" lon="-120.25954000000002"><ele>2260.2740017790347</ele></trkpt><trkpt lat="39.17126" lon="-120.25964999999997"><ele>2258.1684489446784</ele></trkpt><trkpt lat="39.17096" lon="-120.25968"><ele>2256.0</ele></trkpt><trkpt lat="39.1705" lon="-120.26036999999997"><ele>2257.988023880858</ele></trkpt><trkpt lat="39.17037" lon="-120.26047"><ele>2256.0</ele></trkpt><trkpt lat="39.1703" lon="-120.26062999999999"><ele>2257.784218253102</ele></trkpt><trkpt lat="39.17014" lon="-120.26085999999998"><ele>2256.0</ele></trkpt><trkpt lat="39.17014" lon="-120.26085999999998"><ele>2256.0</ele></trkpt><trkpt lat="39.17014" lon="-120.26085999999998"><ele>2256.0</ele></trkpt><trkpt lat="39.17011" lon="-120.26094999999998"><ele>2256.286777677384</ele></trkpt><trkpt lat="39.17001" lon="-120.26105000000001"><ele>2256.18063231449</ele></trkpt><trkpt lat="39.16987" lon="-120.26126"><ele>2254.864327808842</ele></trkpt><trkpt lat="39.16972" lon="-120.26198"><ele>2254.835889379758</ele></trkpt><trkpt lat="39.16961" lon="-120.26222999999999"><ele>2253.1498788583103</ele></trkpt><trkpt lat="39.16958" lon="-120.26222000000001"><ele>2252.0738792469883</ele></trkpt><trkpt lat="39.16963" lon="-120.26193999999998"><ele>2251.437490362674</ele></trkpt><trkpt lat="39.16962" lon="-120.26130999999998"><ele>2247.637300025384</ele></trkpt><trkpt lat="39.16969" lon="-120.26112"><ele>2246.9114338448167</ele></trkpt><trkpt lat="39.16966" lon="-120.2611"><ele>2245.9752711113542</ele></trkpt><trkpt lat="39.16964" lon="-120.26112"><ele>2245.9109160994853</ele></trkpt><trkpt lat="39.16945" lon="-120.26143000000002"><ele>2242.2187958608733</ele></trkpt><trkpt lat="39.1694" lon="-120.26166"><ele>2241.0447621885473</ele></trkpt><trkpt lat="39.16933" lon="-120.26166999999998"><ele>2239.725366972687</ele></trkpt><trkpt lat="39.16929" lon="-120.26161000000002"><ele>2238.742663087578</ele></trkpt><trkpt lat="39.16927" lon="-120.26162"><ele>2238.16666320938</ele></trkpt><trkpt lat="39.16909" lon="-120.26189"><ele>2235.773951528496</ele></trkpt><trkpt lat="39.16901" lon="-120.26211"><ele>2234.2130708270706</ele></trkpt><trkpt lat="39.16897" lon="-120.26216999999997"><ele>2234.84088533232</ele></trkpt><trkpt lat="39.16886" lon="-120.26220999999998"><ele>2233.1517192460597</ele></trkpt><trkpt lat="39.16882" lon="-120.26227"><ele>2231.747277447954</ele></trkpt><trkpt lat="39.16881" lon="-120.26233000000002"><ele>2231.14616721496</ele></trkpt><trkpt lat="39.16875" lon="-120.26238999999998"><ele>2230.0</ele></trkpt><trkpt lat="39.16868" lon="-120.26249999999999"><ele>2229.0</ele></trkpt><trkpt lat="39.16849" lon="-120.26301999999998"><ele>2227.0</ele></trkpt><trkpt lat="39.16846" lon="-120.26323000000002"><ele>2226.0</ele></trkpt><trkpt lat="39.16843" lon="-120.26332000000002"><ele>2224.6066232838753</ele></trkpt><trkpt lat="39.16833" lon="-120.26344"><ele>2222.292976429686</ele></trkpt><trkpt lat="39.16822" lon="-120.26369999999997"><ele>2218.954020281146</ele></trkpt><trkpt lat="39.16812" lon="-120.26355999999998"><ele>2217.6697673853487</ele></trkpt><trkpt lat="39.16806" lon="-120.26333"><ele>2216.0062635762615</ele></trkpt><trkpt lat="39.16804" lon="-120.26318000000003"><ele>2215.0</ele></trkpt><trkpt lat="39.16807" lon="-120.26294999999999"><ele>2212.7285503967682</ele></trkpt><trkpt lat="39.16805" lon="-120.26278000000002"><ele>2212.0</ele></trkpt><trkpt lat="39.16802" lon="-120.26273000000003"><ele>2211.0</ele></trkpt><trkpt lat="39.16795" lon="-120.26274000000001"><ele>2209.45100671798</ele></trkpt><trkpt lat="39.16784" lon="-120.26310000000001"><ele>2208.1526986438175</ele></trkpt><trkpt lat="39.1677" lon="-120.26342"><ele>2205.0</ele></trkpt><trkpt lat="39.16766" lon="-120.26362"><ele>2205.007924921686</ele></trkpt><trkpt lat="39.16759" lon="-120.26371"><ele>2204.0</ele></trkpt><trkpt lat="39.1675" lon="-120.26396"><ele>2202.296710369496</ele></trkpt><trkpt lat="39.16765" lon="-120.26427999999999"><ele>2199.0</ele></trkpt><trkpt lat="39.16765" lon="-120.26441999999997"><ele>2198.0</ele></trkpt><trkpt lat="39.16781" lon="-120.26454999999999"><ele>2196.0355753023177</ele></trkpt><trkpt lat="39.16783" lon="-120.26477"><ele>2196.2451475805483</ele></trkpt><trkpt lat="39.16776" lon="-120.26486"><ele>2196.0</ele></trkpt><trkpt lat="39.16768" lon="-120.26501999999999"><ele>2195.0</ele></trkpt><trkpt lat="39.16743" lon="-120.26530000000002"><ele>2193.0</ele></trkpt><trkpt lat="39.16734" lon="-120.26551999999998"><ele>2190.79206102385</ele></trkpt><trkpt lat="39.16733" lon="-120.26567999999997"><ele>2190.0</ele></trkpt><trkpt lat="39.16729" lon="-120.26578999999998"><ele>2188.778405269608</ele></trkpt><trkpt lat="39.1671" lon="-120.26612999999998"><ele>2185.0</ele></trkpt><trkpt lat="39.16705" lon="-120.26648"><ele>2183.35209704563</ele></trkpt><trkpt lat="39.167" lon="-120.26652000000001"><ele>2182.5655786669813</ele></trkpt><trkpt lat="39.16681" lon="-120.26657"><ele>2181.837048733112</ele></trkpt><trkpt lat="39.16676" lon="-120.26661999999999"><ele>2181.0</ele></trkpt><trkpt lat="39.16669" lon="-120.26673"><ele>2180.2510851722027</ele></trkpt><trkpt lat="39.16666" lon="-120.26686000000001"><ele>2179.909451169893</ele></trkpt><trkpt lat="39.16667" lon="-120.26737000000003"><ele>2174.0</ele></trkpt><trkpt lat="39.16674" lon="-120.26794000000001"><ele>2170.790790114757</ele></trkpt><trkpt lat="39.16686" lon="-120.26830000000001"><ele>2168.48040888831</ele></trkpt><trkpt lat="39.16701" lon="-120.26848999999999"><ele>2168.5930502085657</ele></trkpt><trkpt lat="39.16701" lon="-120.26848999999999"><ele>2168.5930502085657</ele></trkpt><trkpt lat="39.16742" lon="-120.269"><ele>2166.9421781108513</ele></trkpt><trkpt lat="39.16804" lon="-120.26947000000001"><ele>2160.993666581707</ele></trkpt><trkpt lat="39.16818" lon="-120.26965999999999"><ele>2158.348621440994</ele></trkpt><trkpt lat="39.16878" lon="-120.27004"><ele>2157.390531555284</ele></trkpt><trkpt lat="39.16915" lon="-120.27019999999999"><ele>2158.5839631650597</ele></trkpt><trkpt lat="39.16921" lon="-120.27031"><ele>2157.844295597385</ele></trkpt><trkpt lat="39.16944" lon="-120.27055000000001"><ele>2156.6390878534876</ele></trkpt><trkpt lat="39.16966" lon="-120.27096"><ele>2153.632130422232</ele></trkpt><trkpt lat="39.16975" lon="-120.27103"><ele>2155.164800521783</ele></trkpt><trkpt lat="39.16986" lon="-120.27123"><ele>2156.195720601827</ele></trkpt><trkpt lat="39.1699" lon="-120.27125000000001"><ele>2157.6676859520376</ele></trkpt><trkpt lat="39.17035" lon="-120.27184"><ele>2166.5019422171413</ele></trkpt><trkpt lat="39.17064" lon="-120.27228000000002"><ele>2168.1506076685164</ele></trkpt><trkpt lat="39.17102" lon="-120.27249999999998"><ele>2175.993607081473</ele></trkpt><trkpt lat="39.17126" lon="-120.27278000000001"><ele>2182.0</ele></trkpt><trkpt lat="39.1713" lon="-120.27289000000002"><ele>2181.8252549022436</ele></trkpt><trkpt lat="39.17129" lon="-120.27305000000001"><ele>2181.2497552265327</ele></trkpt><trkpt lat="39.17151" lon="-120.27328999999997"><ele>2184.961186579793</ele></trkpt><trkpt lat="39.17172" lon="-120.27375"><ele>2188.0728522874415</ele></trkpt><trkpt lat="39.17179" lon="-120.27397000000002"><ele>2190.452873437646</ele></trkpt><trkpt lat="39.1719" lon="-120.27417000000003"><ele>2193.893297329545</ele></trkpt><trkpt lat="39.17196" lon="-120.27436999999998"><ele>2196.5001185014844</ele></trkpt><trkpt lat="39.17202" lon="-120.27483000000001"><ele>2197.0</ele></trkpt><trkpt lat="39.17207" lon="-120.27497"><ele>2196.1126319672912</ele></trkpt><trkpt lat="39.1721" lon="-120.27516000000003"><ele>2195.0</ele></trkpt><trkpt lat="39.1722" lon="-120.27540999999997"><ele>2196.0</ele></trkpt><trkpt lat="39.17234" lon="-120.27557999999999"><ele>2199.2720276991204</ele></trkpt><trkpt lat="39.17236" lon="-120.27564999999998"><ele>2200.0</ele></trkpt><trkpt lat="39.17271" lon="-120.27605"><ele>2206.0</ele></trkpt><trkpt lat="39.17292" lon="-120.27647999999999"><ele>2208.0</ele></trkpt><trkpt lat="39.17299" lon="-120.27672000000001"><ele>2209.0</ele></trkpt><trkpt lat="39.17311" lon="-120.27702"><ele>2210.0</ele></trkpt><trkpt lat="39.17326" lon="-120.27796999999998"><ele>2209.0</ele></trkpt><trkpt lat="39.17325" lon="-120.27832000000001"><ele>2210.0</ele></trkpt><trkpt lat="39.17325" lon="-120.27832000000001"><ele>2210.0</ele></trkpt><trkpt lat="39.17326" lon="-120.27868000000001"><ele>2212.0</ele></trkpt><trkpt lat="39.1733" lon="-120.27881000000002"><ele>2213.0</ele></trkpt><trkpt lat="39.17341" lon="-120.27912000000003"><ele>2215.0</ele></trkpt><trkpt lat="39.17364" lon="-120.27954999999997"><ele>2214.0</ele></trkpt><trkpt lat="39.1737" lon="-120.27963999999997"><ele>2214.0</ele></trkpt><trkpt lat="39.17391" lon="-120.27983999999998"><ele>2214.0</ele></trkpt><trkpt lat="39.17405" lon="-120.28012000000001"><ele>2214.0</ele></trkpt><trkpt lat="39.17458" lon="-120.28070000000002"><ele>2217.0005850439125</ele></trkpt><trkpt lat="39.17499" lon="-120.28091999999998"><ele>2220.0</ele></trkpt><trkpt lat="39.1752" lon="-120.28109"><ele>2220.115548997266</ele></trkpt><trkpt lat="39.17541" lon="-120.28132"><ele>2223.265277363659</ele></trkpt><trkpt lat="39.1758" lon="-120.28156999999999"><ele>2227.0183839249007</ele></trkpt><trkpt lat="39.17595" lon="-120.28161999999998"><ele>2230.260888381118</ele></trkpt><trkpt lat="39.17689" lon="-120.28214000000003"><ele>2246.8711068220437</ele></trkpt><trkpt lat="39.177" lon="-120.28230000000002"><ele>2248.501171066084</ele></trkpt><trkpt lat="39.17732" lon="-120.2826"><ele>2252.7740009981208</ele></trkpt><trkpt lat="39.17736" lon="-120.28267"><ele>2253.100018728989</ele></trkpt><trkpt lat="39.17744" lon="-120.28274999999996"><ele>2254.0576635030707</ele></trkpt><trkpt lat="39.17772" lon="-120.28296999999998"><ele>2258.9558995508687</ele></trkpt><trkpt lat="39.17786" lon="-120.28298000000001"><ele>2263.0</ele></trkpt><trkpt lat="39.17806" lon="-120.28322000000003"><ele>2267.2096662521362</ele></trkpt><trkpt lat="39.1781" lon="-120.28332"><ele>2268.112098686397</ele></trkpt><trkpt lat="39.17829" lon="-120.28345999999999"><ele>2267.973201777786</ele></trkpt><trkpt lat="39.17845" lon="-120.28341999999998"><ele>2269.549387491464</ele></trkpt><trkpt lat="39.17849" lon="-120.28343999999998"><ele>2270.210730997158</ele></trkpt><trkpt lat="39.17841" lon="-120.28370000000001"><ele>2273.251343106851</ele></trkpt><trkpt lat="39.17842" lon="-120.28377"><ele>2272.4485654869413</ele></trkpt><trkpt lat="39.17845" lon="-120.28386"><ele>2272.217731485587</ele></trkpt><trkpt lat="39.17863" lon="-120.28399999999999"><ele>2276.3855984614393</ele></trkpt><trkpt lat="39.17884" lon="-120.28404"><ele>2281.1026895027608</ele></trkpt><trkpt lat="39.17893" lon="-120.28411"><ele>2281.8447956297396</ele></trkpt><trkpt lat="39.1793" lon="-120.2842"><ele>2289.368819660477</ele></trkpt><trkpt lat="39.17949" lon="-120.2842"><ele>2294.5794070347974</ele></trkpt><trkpt lat="39.17955" lon="-120.28415999999999"><ele>2296.8622586125184</ele></trkpt><trkpt lat="39.17952" lon="-120.28406000000001"><ele>2298.011175110936</ele></trkpt><trkpt lat="39.17958" lon="-120.28395999999998"><ele>2302.0</ele></trkpt><trkpt lat="39.17964" lon="-120.28395999999998"><ele>2303.0</ele></trkpt><trkpt lat="39.17998" lon="-120.28412000000003"><ele>2307.0</ele></trkpt><trkpt lat="39.18021" lon="-120.28411"><ele>2311.0</ele></trkpt><trkpt lat="39.1804" lon="-120.28413999999998"><ele>2313.2518693218885</ele></trkpt><trkpt lat="39.18063" lon="-120.28411"><ele>2316.7181329037994</ele></trkpt><trkpt lat="39.18072" lon="-120.28413"><ele>2318.0</ele></trkpt><trkpt lat="39.1808" lon="-120.28421000000003"><ele>2319.0</ele></trkpt><trkpt lat="39.18085" lon="-120.28440999999998"><ele>2319.2834470365565</ele></trkpt><trkpt lat="39.1808" lon="-120.28474"><ele>2320.0</ele></trkpt><trkpt lat="39.18074" lon="-120.28481999999997"><ele>2320.0</ele></trkpt><trkpt lat="39.1805" lon="-120.28498000000002"><ele>2320.0</ele></trkpt><trkpt lat="39.18046" lon="-120.28503"><ele>2320.0</ele></trkpt><trkpt lat="39.18047" lon="-120.28514999999999"><ele>2321.0</ele></trkpt><trkpt lat="39.1805" lon="-120.28523000000001"><ele>2322.952639265409</ele></trkpt><trkpt lat="39.18062" lon="-120.28526999999997"><ele>2323.9273813358486</ele></trkpt><trkpt lat="39.18067" lon="-120.28537"><ele>2326.0</ele></trkpt><trkpt lat="39.18099" lon="-120.28571999999997"><ele>2332.0</ele></trkpt><trkpt lat="39.1811" lon="-120.28575000000001"><ele>2333.729936795126</ele></trkpt><trkpt lat="39.1811" lon="-120.2858"><ele>2334.078702222556</ele></trkpt><trkpt lat="39.18102" lon="-120.28584999999998"><ele>2335.408871110063</ele></trkpt><trkpt lat="39.18099" lon="-120.28592000000003"><ele>2337.4283053664967</ele></trkpt><trkpt lat="39.18118" lon="-120.28604999999999"><ele>2341.0</ele></trkpt><trkpt lat="39.18118" lon="-120.28604999999999"><ele>2341.0</ele></trkpt><trkpt lat="39.18119" lon="-120.28607999999997"><ele>2342.1276479987428</ele></trkpt><trkpt lat="39.18118" lon="-120.28615000000002"><ele>2344.3898844453506</ele></trkpt><trkpt lat="39.18118" lon="-120.28615000000002"><ele>2344.3898844453506</ele></trkpt><trkpt lat="39.18105" lon="-120.28625"><ele>2345.0</ele></trkpt><trkpt lat="39.18101" lon="-120.28637000000003"><ele>2347.3625846598316</ele></trkpt><trkpt lat="39.18105" lon="-120.28640999999999"><ele>2348.491093950209</ele></trkpt><trkpt lat="39.18118" lon="-120.28645"><ele>2351.8646681014243</ele></trkpt><trkpt lat="39.18118" lon="-120.28645"><ele>2351.8646681014243</ele></trkpt><trkpt lat="39.18165" lon="-120.28656000000001"><ele>2360.0</ele></trkpt><trkpt lat="39.18167" lon="-120.28658999999999"><ele>2360.9209593628784</ele></trkpt><trkpt lat="39.18166" lon="-120.28665000000001"><ele>2364.1364936674245</ele></trkpt><trkpt lat="39.18141" lon="-120.28683999999998"><ele>2367.5462151099928</ele></trkpt><trkpt lat="39.18135" lon="-120.28694000000002"><ele>2369.0</ele></trkpt><trkpt lat="39.18137" lon="-120.28699"><ele>2370.0</ele></trkpt><trkpt lat="39.18144" lon="-120.28701999999998"><ele>2370.9619708863966</ele></trkpt><trkpt lat="39.18188" lon="-120.28739000000002"><ele>2377.1780728893355</ele></trkpt><trkpt lat="39.18186" lon="-120.28750000000002"><ele>2380.0</ele></trkpt><trkpt lat="39.18135" lon="-120.28757999999999"><ele>2383.0327146667987</ele></trkpt><trkpt lat="39.18118" lon="-120.28764999999999"><ele>2384.848330523145</ele></trkpt><trkpt lat="39.18118" lon="-120.28764999999999"><ele>2384.848330523145</ele></trkpt><trkpt lat="39.18086" lon="-120.28775999999999"><ele>2386.0</ele></trkpt><trkpt lat="39.18082" lon="-120.28782000000001"><ele>2387.0</ele></trkpt><trkpt lat="39.18118" lon="-120.28795000000002"><ele>2391.0</ele></trkpt><trkpt lat="39.18118" lon="-120.28795000000002"><ele>2391.0</ele></trkpt><trkpt lat="39.18183" lon="-120.28834"><ele>2399.0</ele></trkpt><trkpt lat="39.1823" lon="-120.28888"><ele>2405.0</ele></trkpt><trkpt lat="39.18238" lon="-120.28892000000002"><ele>2405.0330078663455</ele></trkpt><trkpt lat="39.18251" lon="-120.28908999999999"><ele>2407.3017948370534</ele></trkpt><trkpt lat="39.1826" lon="-120.28915"><ele>2408.0</ele></trkpt><trkpt lat="39.18282" lon="-120.2894"><ele>2412.0</ele></trkpt><trkpt lat="39.18296" lon="-120.28960000000001"><ele>2414.0</ele></trkpt><trkpt lat="39.18304" lon="-120.28964000000002"><ele>2414.0</ele></trkpt><trkpt lat="39.18326" lon="-120.28956"><ele>2415.0</ele></trkpt><trkpt lat="39.18415" lon="-120.28888999999998"><ele>2420.0</ele></trkpt><trkpt lat="39.18432" lon="-120.28888"><ele>2419.0</ele></trkpt><trkpt lat="39.18462" lon="-120.28865000000002"><ele>2417.8983288900927</ele></trkpt><trkpt lat="39.184751993443925" lon="-120.28862704461847"><ele>2417.450953551568</ele></trkpt><trkpt lat="39.184763730302535" lon="-120.28862500344098"><ele>2417.7334048063494</ele></trkpt><trkpt lat="39.18485" lon="-120.28861"><ele>2417.0</ele></trkpt><trkpt lat="39.18485" lon="-120.28861"><ele>2417.0</ele></trkpt><trkpt lat="39.18485" lon="-120.28861"><ele>2417.0</ele></trkpt><trkpt lat="39.18491" lon="-120.28854999999999"><ele>2417.0</ele></trkpt><trkpt lat="39.18494" lon="-120.28838000000002"><ele>2418.0</ele></trkpt><trkpt lat="39.18501" lon="-120.28825999999998"><ele>2419.0</ele></trkpt><trkpt lat="39.1852" lon="-120.28811999999999"><ele>2419.0</ele></trkpt><trkpt lat="39.18522" lon="-120.28807"><ele>2419.1316302218474</ele></trkpt><trkpt lat="39.18523" lon="-120.28787"><ele>2423.0</ele></trkpt><trkpt lat="39.18548" lon="-120.28775000000002"><ele>2425.0</ele></trkpt><trkpt lat="39.18552" lon="-120.28771"><ele>2425.90884622233</ele></trkpt><trkpt lat="39.18555" lon="-120.28751"><ele>2428.0</ele></trkpt><trkpt lat="39.18574" lon="-120.28714000000002"><ele>2431.4483043751547</ele></trkpt><trkpt lat="39.18588" lon="-120.28706999999997"><ele>2433.7350080013275</ele></trkpt><trkpt lat="39.18604" lon="-120.28705000000002"><ele>2435.0</ele></trkpt><trkpt lat="39.18629" lon="-120.28694999999999"><ele>2439.0</ele></trkpt><trkpt lat="39.18662" lon="-120.28692000000001"><ele>2443.0</ele></trkpt><trkpt lat="39.18699" lon="-120.28672"><ele>2444.0413039875834</ele></trkpt><trkpt lat="39.1871" lon="-120.2867"><ele>2444.0</ele></trkpt><trkpt lat="39.18734" lon="-120.28672"><ele>2444.189390562332</ele></trkpt><trkpt lat="39.1875" lon="-120.28679"><ele>2446.0</ele></trkpt><trkpt lat="39.1877" lon="-120.28679"><ele>2448.0</ele></trkpt><trkpt lat="39.18794" lon="-120.28674000000001"><ele>2451.0</ele></trkpt><trkpt lat="39.18811930777437" lon="-120.2868386192759"><ele>2453.0</ele></trkpt><trkpt lat="39.18812253940008" lon="-120.28684039665757"><ele>2453.0</ele></trkpt><trkpt lat="39.18814" lon="-120.28685000000002"><ele>2453.0</ele></trkpt><trkpt lat="39.18821" lon="-120.28683999999998"><ele>2454.209118034556</ele></trkpt><trkpt lat="39.18836" lon="-120.28665999999998"><ele>2457.0</ele></trkpt><trkpt lat="39.18858" lon="-120.28628000000003"><ele>2461.0</ele></trkpt><trkpt lat="39.18893" lon="-120.28555"><ele>2468.430783416421</ele></trkpt><trkpt lat="39.18909" lon="-120.28539"><ele>2471.0</ele></trkpt><trkpt lat="39.18923" lon="-120.28538000000003"><ele>2472.0</ele></trkpt><trkpt lat="39.18967" lon="-120.28548"><ele>2470.0</ele></trkpt><trkpt lat="39.1898" lon="-120.28564"><ele>2470.0</ele></trkpt><trkpt lat="39.19001" lon="-120.28566000000001"><ele>2473.383477983244</ele></trkpt><trkpt lat="39.19014" lon="-120.28555"><ele>2476.0</ele></trkpt><trkpt lat="39.19027" lon="-120.28537"><ele>2477.3519928460446</ele></trkpt><trkpt lat="39.19031" lon="-120.28541000000001"><ele>2478.9739810838487</ele></trkpt><trkpt lat="39.19032" lon="-120.28565000000003"><ele>2480.0</ele></trkpt><trkpt lat="39.19037" lon="-120.28582"><ele>2481.0</ele></trkpt><trkpt lat="39.19042" lon="-120.28584999999998"><ele>2482.0</ele></trkpt><trkpt lat="39.19048" lon="-120.28583000000003"><ele>2482.0</ele></trkpt><trkpt lat="39.19061" lon="-120.28559000000001"><ele>2485.0</ele></trkpt><trkpt lat="39.19065" lon="-120.28557"><ele>2486.0</ele></trkpt><trkpt lat="39.19072" lon="-120.28562"><ele>2487.0</ele></trkpt><trkpt lat="39.19077" lon="-120.28571999999997"><ele>2488.0</ele></trkpt><trkpt lat="39.19085" lon="-120.28579000000002"><ele>2489.0</ele></trkpt><trkpt lat="39.19099" lon="-120.28580999999997"><ele>2491.0</ele></trkpt><trkpt lat="39.19143" lon="-120.28574000000003"><ele>2497.0</ele></trkpt><trkpt lat="39.19153" lon="-120.28566999999998"><ele>2498.0</ele></trkpt><trkpt lat="39.19172" lon="-120.28566999999998"><ele>2500.0</ele></trkpt><trkpt lat="39.19193" lon="-120.28544999999997"><ele>2503.0</ele></trkpt><trkpt lat="39.192" lon="-120.28550000000001"><ele>2504.3163610237157</ele></trkpt><trkpt lat="39.19204" lon="-120.28565000000003"><ele>2505.0</ele></trkpt><trkpt lat="39.19222" lon="-120.28604999999999"><ele>2507.57941990532</ele></trkpt><trkpt lat="39.19228" lon="-120.28602999999998"><ele>2508.0</ele></trkpt><trkpt lat="39.19234" lon="-120.28584000000001"><ele>2511.0</ele></trkpt><trkpt lat="39.19239" lon="-120.28544"><ele>2512.8017089888453</ele></trkpt><trkpt lat="39.19252" lon="-120.28521999999998"><ele>2514.0</ele></trkpt><trkpt lat="39.1925" lon="-120.28507000000002"><ele>2515.391909742272</ele></trkpt><trkpt lat="39.19251" lon="-120.28492"><ele>2517.0</ele></trkpt><trkpt lat="39.19256" lon="-120.28476"><ele>2519.024022810161</ele></trkpt><trkpt lat="39.1926" lon="-120.28474"><ele>2520.429276710376</ele></trkpt><trkpt lat="39.19268" lon="-120.28487000000001"><ele>2523.0</ele></trkpt><trkpt lat="39.19277" lon="-120.28444999999999"><ele>2527.6516210790724</ele></trkpt><trkpt lat="39.19284" lon="-120.28422999999998"><ele>2530.0</ele></trkpt><trkpt lat="39.19291" lon="-120.28424999999999"><ele>2532.0700408890843</ele></trkpt><trkpt lat="39.19297" lon="-120.28448000000003"><ele>2533.0</ele></trkpt><trkpt lat="39.19308" lon="-120.28478000000001"><ele>2536.2924303542823</ele></trkpt><trkpt lat="39.19315" lon="-120.28490999999997"><ele>2537.5016567315906</ele></trkpt><trkpt lat="39.1932" lon="-120.28489000000002"><ele>2539.0</ele></trkpt><trkpt lat="39.19353" lon="-120.28373999999997"><ele>2551.0</ele></trkpt><trkpt lat="39.19353" lon="-120.28357"><ele>2551.0</ele></trkpt><trkpt lat="39.19358" lon="-120.28339"><ele>2551.0</ele></trkpt><trkpt lat="39.1936" lon="-120.28301999999996"><ele>2552.561069291085</ele></trkpt><trkpt lat="39.19364" lon="-120.28286000000003"><ele>2553.9663587938994</ele></trkpt><trkpt lat="39.19367" lon="-120.28283999999996"><ele>2554.770326819271</ele></trkpt><trkpt lat="39.19368" lon="-120.28291000000002"><ele>2555.0</ele></trkpt><trkpt lat="39.19384" lon="-120.28307999999998"><ele>2558.9928268436342</ele></trkpt><trkpt lat="39.19394" lon="-120.28332"><ele>2561.0030227313873</ele></trkpt><trkpt lat="39.19394" lon="-120.28332"><ele>2561.0030227313873</ele></trkpt><trkpt lat="39.19394243813058" lon="-120.2833078093471"><ele>2561.152684625238</ele></trkpt><trkpt lat="39.193942052152615" lon="-120.2833097392434"><ele>2561.1263493520287</ele></trkpt><trkpt lat="39.19394" lon="-120.28332"><ele>2561.0030227313873</ele></trkpt><trkpt lat="39.19394" lon="-120.28332"><ele>2561.0030227313873</ele></trkpt><trkpt lat="39.19408" lon="-120.28355999999997"><ele>2565.42463369295</ele></trkpt><trkpt lat="39.19411" lon="-120.28355999999997"><ele>2566.2286130134016</ele></trkpt><trkpt lat="39.19418" lon="-120.28319999999997"><ele>2570.437901094556</ele></trkpt><trkpt lat="39.19422" lon="-120.28312"><ele>2571.153168991319</ele></trkpt><trkpt lat="39.19425" lon="-120.28314"><ele>2572.6873135978663</ele></trkpt><trkpt lat="39.19428" lon="-120.28334000000001"><ele>2573.451177051291</ele></trkpt><trkpt lat="39.19437" lon="-120.28345999999999"><ele>2574.840002309237</ele></trkpt><trkpt lat="39.1945" lon="-120.28358000000003"><ele>2575.8021113875852</ele></trkpt><trkpt lat="39.19479" lon="-120.28363999999999"><ele>2580.0</ele></trkpt><trkpt lat="39.19512" lon="-120.28359"><ele>2585.0820863635854</ele></trkpt><trkpt lat="39.19528" lon="-120.28341999999998"><ele>2585.162663110066</ele></trkpt><trkpt lat="39.19533" lon="-120.28332"><ele>2586.0</ele></trkpt><trkpt lat="39.19537" lon="-120.28312"><ele>2587.0</ele></trkpt><trkpt lat="39.19551" lon="-120.28286000000003"><ele>2590.0</ele></trkpt><trkpt lat="39.19558" lon="-120.28266000000002"><ele>2592.624543303624</ele></trkpt><trkpt lat="39.19583" lon="-120.28226999999998"><ele>2598.0</ele></trkpt><trkpt lat="39.19588" lon="-120.28222"><ele>2599.7447487234367</ele></trkpt><trkpt lat="39.19588" lon="-120.28222"><ele>2599.7447487234367</ele></trkpt><trkpt lat="39.19588" lon="-120.28222"><ele>2599.7447487234367</ele></trkpt><trkpt lat="39.19611" lon="-120.28212000000002"><ele>2605.0</ele></trkpt><trkpt lat="39.19611" lon="-120.28212000000002"><ele>2605.0</ele></trkpt><trkpt lat="39.19611" lon="-120.28212000000002"><ele>2605.0</ele></trkpt><trkpt lat="39.19611066805939" lon="-120.28211936710164"><ele>2605.0</ele></trkpt><trkpt lat="39.19611004491156" lon="-120.28211995745227"><ele>2605.0</ele></trkpt><trkpt lat="39.19611" lon="-120.28212000000002"><ele>2605.0</ele></trkpt><trkpt lat="39.19611" lon="-120.28212000000002"><ele>2605.0</ele></trkpt><trkpt lat="39.19611" lon="-120.28212000000002"><ele>2605.0</ele></trkpt><trkpt lat="39.19588" lon="-120.28222"><ele>2599.7447487234367</ele></trkpt><trkpt lat="39.19588" lon="-120.28222"><ele>2599.7447487234367</ele></trkpt><trkpt lat="39.19588" lon="-120.28222"><ele>2599.7447487234367</ele></trkpt><trkpt lat="39.19583" lon="-120.28226999999998"><ele>2598.0</ele></trkpt><trkpt lat="39.19558" lon="-120.28266000000002"><ele>2592.624543303624</ele></trkpt><trkpt lat="39.19551" lon="-120.28286000000003"><ele>2590.0</ele></trkpt><trkpt lat="39.19537" lon="-120.28312"><ele>2587.0</ele></trkpt><trkpt lat="39.19533" lon="-120.28332"><ele>2586.0</ele></trkpt><trkpt lat="39.19528" lon="-120.28341999999998"><ele>2585.162663110066</ele></trkpt><trkpt lat="39.19512" lon="-120.28359"><ele>2585.0820863635854</ele></trkpt><trkpt lat="39.19479" lon="-120.28363999999999"><ele>2580.0</ele></trkpt><trkpt lat="39.1945" lon="-120.28358000000003"><ele>2575.8021113875852</ele></trkpt><trkpt lat="39.19437" lon="-120.28345999999999"><ele>2574.840002309237</ele></trkpt><trkpt lat="39.19428" lon="-120.28334000000001"><ele>2573.451177051291</ele></trkpt><trkpt lat="39.19425" lon="-120.28314"><ele>2572.6873135978663</ele></trkpt><trkpt lat="39.19422" lon="-120.28312"><ele>2571.153168991319</ele></trkpt><trkpt lat="39.19418" lon="-120.28319999999997"><ele>2570.437901094556</ele></trkpt><trkpt lat="39.19411" lon="-120.28355999999997"><ele>2566.2286130134016</ele></trkpt><trkpt lat="39.19408" lon="-120.28355999999997"><ele>2565.42463369295</ele></trkpt><trkpt lat="39.19394" lon="-120.28332"><ele>2561.0030227313873</ele></trkpt><trkpt lat="39.19394" lon="-120.28332"><ele>2561.0030227313873</ele></trkpt><trkpt lat="39.19384" lon="-120.28307999999998"><ele>2558.9928268436342</ele></trkpt><trkpt lat="39.19368" lon="-120.28291000000002"><ele>2555.0</ele></trkpt><trkpt lat="39.19367" lon="-120.28283999999996"><ele>2554.770326819271</ele></trkpt><trkpt lat="39.19364" lon="-120.28286000000003"><ele>2553.9663587938994</ele></trkpt><trkpt lat="39.1936" lon="-120.28301999999996"><ele>2552.561069291085</ele></trkpt><trkpt lat="39.19358" lon="-120.28339"><ele>2551.0</ele></trkpt><trkpt lat="39.19353" lon="-120.28357"><ele>2551.0</ele></trkpt><trkpt lat="39.19353" lon="-120.28373999999997"><ele>2551.0</ele></trkpt><trkpt lat="39.1932" lon="-120.28489000000002"><ele>2539.0</ele></trkpt><trkpt lat="39.19315" lon="-120.28490999999997"><ele>2537.5016567315906</ele></trkpt><trkpt lat="39.19308" lon="-120.28478000000001"><ele>2536.2924303542823</ele></trkpt><trkpt lat="39.19297" lon="-120.28448000000003"><ele>2533.0</ele></trkpt><trkpt lat="39.19291" lon="-120.28424999999999"><ele>2532.0700408890843</ele></trkpt><trkpt lat="39.19284" lon="-120.28422999999998"><ele>2530.0</ele></trkpt><trkpt lat="39.19277" lon="-120.28444999999999"><ele>2527.6516210790724</ele></trkpt><trkpt lat="39.19268" lon="-120.28487000000001"><ele>2523.0</ele></trkpt><trkpt lat="39.1926" lon="-120.28474"><ele>2520.429276710376</ele></trkpt><trkpt lat="39.19256" lon="-120.28476"><ele>2519.024022810161</ele></trkpt><trkpt lat="39.19251" lon="-120.28492"><ele>2517.0</ele></trkpt><trkpt lat="39.1925" lon="-120.28507000000002"><ele>2515.391909742272</ele></trkpt><trkpt lat="39.19252" lon="-120.28521999999998"><ele>2514.0</ele></trkpt><trkpt lat="39.19239" lon="-120.28544"><ele>2512.8017089888453</ele></trkpt><trkpt lat="39.19234" lon="-120.28584000000001"><ele>2511.0</ele></trkpt><trkpt lat="39.19228" lon="-120.28602999999998"><ele>2508.0</ele></trkpt><trkpt lat="39.19222" lon="-120.28604999999999"><ele>2507.57941990532</ele></trkpt><trkpt lat="39.19204" lon="-120.28565000000003"><ele>2505.0</ele></trkpt><trkpt lat="39.192" lon="-120.28550000000001"><ele>2504.3163610237157</ele></trkpt><trkpt lat="39.19193" lon="-120.28544999999997"><ele>2503.0</ele></trkpt><trkpt lat="39.19172" lon="-120.28566999999998"><ele>2500.0</ele></trkpt><trkpt lat="39.19153" lon="-120.28566999999998"><ele>2498.0</ele></trkpt><trkpt lat="39.19143" lon="-120.28574000000003"><ele>2497.0</ele></trkpt><trkpt lat="39.19099" lon="-120.28580999999997"><ele>2491.0</ele></trkpt><trkpt lat="39.19085" lon="-120.28579000000002"><ele>2489.0</ele></trkpt><trkpt lat="39.19077" lon="-120.28571999999997"><ele>2488.0</ele></trkpt><trkpt lat="39.19072" lon="-120.28562"><ele>2487.0</ele></trkpt><trkpt lat="39.19065" lon="-120.28557"><ele>2486.0</ele></trkpt><trkpt lat="39.19061" lon="-120.28559000000001"><ele>2485.0</ele></trkpt><trkpt lat="39.19048" lon="-120.28583000000003"><ele>2482.0</ele></trkpt><trkpt lat="39.19042" lon="-120.28584999999998"><ele>2482.0</ele></trkpt><trkpt lat="39.19037" lon="-120.28582"><ele>2481.0</ele></trkpt><trkpt lat="39.19032" lon="-120.28565000000003"><ele>2480.0</ele></trkpt><trkpt lat="39.19031" lon="-120.28541000000001"><ele>2478.9739810838487</ele></trkpt><trkpt lat="39.19027" lon="-120.28537"><ele>2477.3519928460446</ele></trkpt><trkpt lat="39.19014" lon="-120.28555"><ele>2476.0</ele></trkpt><trkpt lat="39.19001" lon="-120.28566000000001"><ele>2473.383477983244</ele></trkpt><trkpt lat="39.1898" lon="-120.28564"><ele>2470.0</ele></trkpt><trkpt lat="39.18967" lon="-120.28548"><ele>2470.0</ele></trkpt><trkpt lat="39.18923" lon="-120.28538000000003"><ele>2472.0</ele></trkpt><trkpt lat="39.18909" lon="-120.28539"><ele>2471.0</ele></trkpt><trkpt lat="39.18893" lon="-120.28555"><ele>2468.430783416421</ele></trkpt><trkpt lat="39.18858" lon="-120.28628000000003"><ele>2461.0</ele></trkpt><trkpt lat="39.18836" lon="-120.28665999999998"><ele>2457.0</ele></trkpt><trkpt lat="39.18821" lon="-120.28683999999998"><ele>2454.209118034556</ele></trkpt><trkpt lat="39.18814" lon="-120.28685000000002"><ele>2453.0</ele></trkpt><trkpt lat="39.18794" lon="-120.28674000000001"><ele>2451.0</ele></trkpt><trkpt lat="39.187929235792694" lon="-120.2867422425432"><ele>2451.0</ele></trkpt><trkpt lat="39.18794" lon="-120.28674000000001"><ele>2451.0</ele></trkpt><trkpt lat="39.18794" lon="-120.28674000000001"><ele>2451.0</ele></trkpt><trkpt lat="39.1877" lon="-120.28679"><ele>2448.0</ele></trkpt><trkpt lat="39.1875" lon="-120.28679"><ele>2446.0</ele></trkpt><trkpt lat="39.18734" lon="-120.28672"><ele>2444.189390562332</ele></trkpt><trkpt lat="39.1871" lon="-120.2867"><ele>2444.0</ele></trkpt><trkpt lat="39.18699" lon="-120.28672"><ele>2444.0413039875834</ele></trkpt><trkpt lat="39.18662" lon="-120.28692000000001"><ele>2443.0</ele></trkpt><trkpt lat="39.18629" lon="-120.28694999999999"><ele>2439.0</ele></trkpt><trkpt lat="39.18604" lon="-120.28705000000002"><ele>2435.0</ele></trkpt><trkpt lat="39.18588" lon="-120.28706999999997"><ele>2433.7350080013275</ele></trkpt><trkpt lat="39.18574" lon="-120.28714000000002"><ele>2431.4483043751547</ele></trkpt><trkpt lat="39.18555" lon="-120.28751"><ele>2428.0</ele></trkpt><trkpt lat="39.18552" lon="-120.28771"><ele>2425.90884622233</ele></trkpt><trkpt lat="39.18548" lon="-120.28775000000002"><ele>2425.0</ele></trkpt><trkpt lat="39.18523" lon="-120.28787"><ele>2423.0</ele></trkpt><trkpt lat="39.18522" lon="-120.28807"><ele>2419.1316302218474</ele></trkpt><trkpt lat="39.1852" lon="-120.28811999999999"><ele>2419.0</ele></trkpt><trkpt lat="39.18501" lon="-120.28825999999998"><ele>2419.0</ele></trkpt><trkpt lat="39.18494" lon="-120.28838000000002"><ele>2418.0</ele></trkpt><trkpt lat="39.18491" lon="-120.28854999999999"><ele>2417.0</ele></trkpt><trkpt lat="39.18485" lon="-120.28861"><ele>2417.0</ele></trkpt><trkpt lat="39.18485" lon="-120.28861"><ele>2417.0</ele></trkpt><trkpt lat="39.18485" lon="-120.28861"><ele>2417.0</ele></trkpt><trkpt lat="39.18462" lon="-120.28865000000002"><ele>2417.8983288900927</ele></trkpt><trkpt lat="39.18432" lon="-120.28888"><ele>2419.0</ele></trkpt><trkpt lat="39.18415" lon="-120.28888999999998"><ele>2420.0</ele></trkpt><trkpt lat="39.18326" lon="-120.28956"><ele>2415.0</ele></trkpt><trkpt lat="39.18304" lon="-120.28964000000002"><ele>2414.0</ele></trkpt><trkpt lat="39.18296" lon="-120.28960000000001"><ele>2414.0</ele></trkpt><trkpt lat="39.18282" lon="-120.2894"><ele>2412.0</ele></trkpt><trkpt lat="39.1826" lon="-120.28915"><ele>2408.0</ele></trkpt><trkpt lat="39.18251" lon="-120.28908999999999"><ele>2407.3017948370534</ele></trkpt><trkpt lat="39.18238" lon="-120.28892000000002"><ele>2405.0330078663455</ele></trkpt><trkpt lat="39.1823" lon="-120.28888"><ele>2405.0</ele></trkpt><trkpt lat="39.18183" lon="-120.28834"><ele>2399.0</ele></trkpt><trkpt lat="39.18118" lon="-120.28795000000002"><ele>2391.0</ele></trkpt><trkpt lat="39.18118" lon="-120.28795000000002"><ele>2391.0</ele></trkpt><trkpt lat="39.18082" lon="-120.28782000000001"><ele>2387.0</ele></trkpt><trkpt lat="39.18086" lon="-120.28775999999999"><ele>2386.0</ele></trkpt><trkpt lat="39.18118" lon="-120.28764999999999"><ele>2384.848330523145</ele></trkpt><trkpt lat="39.18118" lon="-120.28764999999999"><ele>2384.848330523145</ele></trkpt><trkpt lat="39.18135" lon="-120.28757999999999"><ele>2383.0327146667987</ele></trkpt><trkpt lat="39.18186" lon="-120.28750000000002"><ele>2380.0</ele></trkpt><trkpt lat="39.18188" lon="-120.28739000000002"><ele>2377.1780728893355</ele></trkpt><trkpt lat="39.18144" lon="-120.28701999999998"><ele>2370.9619708863966</ele></trkpt><trkpt lat="39.18137" lon="-120.28699"><ele>2370.0</ele></trkpt><trkpt lat="39.18135" lon="-120.28694000000002"><ele>2369.0</ele></trkpt><trkpt lat="39.18141" lon="-120.28683999999998"><ele>2367.5462151099928</ele></trkpt><trkpt lat="39.18166" lon="-120.28665000000001"><ele>2364.1364936674245</ele></trkpt><trkpt lat="39.18167" lon="-120.28658999999999"><ele>2360.9209593628784</ele></trkpt><trkpt lat="39.18165" lon="-120.28656000000001"><ele>2360.0</ele></trkpt><trkpt lat="39.18118" lon="-120.28645"><ele>2351.8646681014243</ele></trkpt><trkpt lat="39.18118" lon="-120.28645"><ele>2351.8646681014243</ele></trkpt><trkpt lat="39.18105" lon="-120.28640999999999"><ele>2348.491093950209</ele></trkpt><trkpt lat="39.18101" lon="-120.28637000000003"><ele>2347.3625846598316</ele></trkpt><trkpt lat="39.18105" lon="-120.28625"><ele>2345.0</ele></trkpt><trkpt lat="39.18118" lon="-120.28615000000002"><ele>2344.3898844453506</ele></trkpt><trkpt lat="39.18118" lon="-120.28615000000002"><ele>2344.3898844453506</ele></trkpt><trkpt lat="39.18119" lon="-120.28607999999997"><ele>2342.1276479987428</ele></trkpt><trkpt lat="39.18118" lon="-120.28604999999999"><ele>2341.0</ele></trkpt><trkpt lat="39.18118" lon="-120.28604999999999"><ele>2341.0</ele></trkpt><trkpt lat="39.18099" lon="-120.28592000000003"><ele>2337.4283053664967</ele></trkpt><trkpt lat="39.18102" lon="-120.28584999999998"><ele>2335.408871110063</ele></trkpt><trkpt lat="39.1811" lon="-120.2858"><ele>2334.078702222556</ele></trkpt><trkpt lat="39.1811" lon="-120.28575000000001"><ele>2333.729936795126</ele></trkpt><trkpt lat="39.18099" lon="-120.28571999999997"><ele>2332.0</ele></trkpt><trkpt lat="39.18067" lon="-120.28537"><ele>2326.0</ele></trkpt><trkpt lat="39.18062" lon="-120.28526999999997"><ele>2323.9273813358486</ele></trkpt><trkpt lat="39.1805" lon="-120.28523000000001"><ele>2322.952639265409</ele></trkpt><trkpt lat="39.18047" lon="-120.28514999999999"><ele>2321.0</ele></trkpt><trkpt lat="39.18046" lon="-120.28503"><ele>2320.0</ele></trkpt><trkpt lat="39.1805" lon="-120.28498000000002"><ele>2320.0</ele></trkpt><trkpt lat="39.18074" lon="-120.28481999999997"><ele>2320.0</ele></trkpt><trkpt lat="39.1808" lon="-120.28474"><ele>2320.0</ele></trkpt><trkpt lat="39.18085" lon="-120.28440999999998"><ele>2319.2834470365565</ele></trkpt><trkpt lat="39.1808" lon="-120.28421000000003"><ele>2319.0</ele></trkpt><trkpt lat="39.18072" lon="-120.28413"><ele>2318.0</ele></trkpt><trkpt lat="39.18063" lon="-120.28411"><ele>2316.7181329037994</ele></trkpt><trkpt lat="39.1804" lon="-120.28413999999998"><ele>2313.2518693218885</ele></trkpt><trkpt lat="39.18021" lon="-120.28411"><ele>2311.0</ele></trkpt><trkpt lat="39.17998" lon="-120.28412000000003"><ele>2307.0</ele></trkpt><trkpt lat="39.17964" lon="-120.28395999999998"><ele>2303.0</ele></trkpt><trkpt lat="39.17958" lon="-120.28395999999998"><ele>2302.0</ele></trkpt><trkpt lat="39.17952" lon="-120.28406000000001"><ele>2298.011175110936</ele></trkpt><trkpt lat="39.17955" lon="-120.28415999999999"><ele>2296.8622586125184</ele></trkpt><trkpt lat="39.17949" lon="-120.2842"><ele>2294.5794070347974</ele></trkpt><trkpt lat="39.1793" lon="-120.2842"><ele>2289.368819660477</ele></trkpt><trkpt lat="39.17893" lon="-120.28411"><ele>2281.8447956297396</ele></trkpt><trkpt lat="39.17884" lon="-120.28404"><ele>2281.1026895027608</ele></trkpt><trkpt lat="39.17863" lon="-120.28399999999999"><ele>2276.3855984614393</ele></trkpt><trkpt lat="39.17845" lon="-120.28386"><ele>2272.217731485587</ele></trkpt><trkpt lat="39.17842" lon="-120.28377"><ele>2272.4485654869413</ele></trkpt><trkpt lat="39.17841" lon="-120.28370000000001"><ele>2273.251343106851</ele></trkpt><trkpt lat="39.17849" lon="-120.28343999999998"><ele>2270.210730997158</ele></trkpt><trkpt lat="39.17845" lon="-120.28341999999998"><ele>2269.549387491464</ele></trkpt><trkpt lat="39.17829" lon="-120.28345999999999"><ele>2267.973201777786</ele></trkpt><trkpt lat="39.1781" lon="-120.28332"><ele>2268.112098686397</ele></trkpt><trkpt lat="39.17806" lon="-120.28322000000003"><ele>2267.2096662521362</ele></trkpt><trkpt lat="39.17786" lon="-120.28298000000001"><ele>2263.0</ele></trkpt><trkpt lat="39.17772" lon="-120.28296999999998"><ele>2258.9558995508687</ele></trkpt><trkpt lat="39.17744" lon="-120.28274999999996"><ele>2254.0576635030707</ele></trkpt><trkpt lat="39.17736" lon="-120.28267"><ele>2253.100018728989</ele></trkpt><trkpt lat="39.17732" lon="-120.2826"><ele>2252.7740009981208</ele></trkpt><trkpt lat="39.177" lon="-120.28230000000002"><ele>2248.501171066084</ele></trkpt><trkpt lat="39.17689" lon="-120.28214000000003"><ele>2246.8711068220437</ele></trkpt><trkpt lat="39.17595" lon="-120.28161999999998"><ele>2230.260888381118</ele></trkpt><trkpt lat="39.1758" lon="-120.28156999999999"><ele>2227.0183839249007</ele></trkpt><trkpt lat="39.17541" lon="-120.28132"><ele>2223.265277363659</ele></trkpt><trkpt lat="39.1752" lon="-120.28109"><ele>2220.115548997266</ele></trkpt><trkpt lat="39.17499" lon="-120.28091999999998"><ele>2220.0</ele></trkpt><trkpt lat="39.17458" lon="-120.28070000000002"><ele>2217.0005850439125</ele></trkpt><trkpt lat="39.17405" lon="-120.28012000000001"><ele>2214.0</ele></trkpt><trkpt lat="39.17391" lon="-120.27983999999998"><ele>2214.0</ele></trkpt><trkpt lat="39.1737" lon="-120.27963999999997"><ele>2214.0</ele></trkpt><trkpt lat="39.17364" lon="-120.27954999999997"><ele>2214.0</ele></trkpt><trkpt lat="39.17341" lon="-120.27912000000003"><ele>2215.0</ele></trkpt><trkpt lat="39.1733" lon="-120.27881000000002"><ele>2213.0</ele></trkpt><trkpt lat="39.17326" lon="-120.27868000000001"><ele>2212.0</ele></trkpt><trkpt lat="39.17325" lon="-120.27832000000001"><ele>2210.0</ele></trkpt><trkpt lat="39.17325" lon="-120.27832000000001"><ele>2210.0</ele></trkpt><trkpt lat="39.17326" lon="-120.27796999999998"><ele>2209.0</ele></trkpt><trkpt lat="39.17311" lon="-120.27702"><ele>2210.0</ele></trkpt><trkpt lat="39.17299" lon="-120.27672000000001"><ele>2209.0</ele></trkpt><trkpt lat="39.17292" lon="-120.27647999999999"><ele>2208.0</ele></trkpt><trkpt lat="39.17291960742175" lon="-120.2764791961493"><ele>2208.0</ele></trkpt><trkpt lat="39.17292149854704" lon="-120.27648513787307"><ele>2208.0</ele></trkpt><trkpt lat="39.17292" lon="-120.27647999999999"><ele>2208.0</ele></trkpt><trkpt lat="39.17271" lon="-120.27605"><ele>2206.0</ele></trkpt><trkpt lat="39.17236" lon="-120.27564999999998"><ele>2200.0</ele></trkpt><trkpt lat="39.17234" lon="-120.27557999999999"><ele>2199.2720276991204</ele></trkpt><trkpt lat="39.1722" lon="-120.27540999999997"><ele>2196.0</ele></trkpt><trkpt lat="39.1721" lon="-120.27516000000003"><ele>2195.0</ele></trkpt><trkpt lat="39.17207" lon="-120.27497"><ele>2196.1126319672912</ele></trkpt><trkpt lat="39.17202" lon="-120.27483000000001"><ele>2197.0</ele></trkpt><trkpt lat="39.17196" lon="-120.27436999999998"><ele>2196.5001185014844</ele></trkpt><trkpt lat="39.1719" lon="-120.27417000000003"><ele>2193.893297329545</ele></trkpt><trkpt lat="39.17179" lon="-120.27397000000002"><ele>2190.452873437646</ele></trkpt><trkpt lat="39.17172" lon="-120.27375"><ele>2188.0728522874415</ele></trkpt><trkpt lat="39.17151" lon="-120.27328999999997"><ele>2184.961186579793</ele></trkpt><trkpt lat="39.17129" lon="-120.27305000000001"><ele>2181.2497552265327</ele></trkpt><trkpt lat="39.1713" lon="-120.27289000000002"><ele>2181.8252549022436</ele></trkpt><trkpt lat="39.17126" lon="-120.27278000000001"><ele>2182.0</ele></trkpt><trkpt lat="39.17102" lon="-120.27249999999998"><ele>2175.993607081473</ele></trkpt><trkpt lat="39.17064" lon="-120.27228000000002"><ele>2168.1506076685164</ele></trkpt><trkpt lat="39.17035" lon="-120.27184"><ele>2166.5019422171413</ele></trkpt><trkpt lat="39.1699" lon="-120.27125000000001"><ele>2157.6676859520376</ele></trkpt><trkpt lat="39.16986" lon="-120.27123"><ele>2156.195720601827</ele></trkpt><trkpt lat="39.16975" lon="-120.27103"><ele>2155.164800521783</ele></trkpt><trkpt lat="39.16966" lon="-120.27096"><ele>2153.632130422232</ele></trkpt><trkpt lat="39.16944" lon="-120.27055000000001"><ele>2156.6390878534876</ele></trkpt><trkpt lat="39.16921" lon="-120.27031"><ele>2157.844295597385</ele></trkpt><trkpt lat="39.16915" lon="-120.27019999999999"><ele>2158.5839631650597</ele></trkpt><trkpt lat="39.16878" lon="-120.27004"><ele>2157.390531555284</ele></trkpt><trkpt lat="39.16818" lon="-120.26965999999999"><ele>2158.348621440994</ele></trkpt><trkpt lat="39.16804" lon="-120.26947000000001"><ele>2160.993666581707</ele></trkpt><trkpt lat="39.16742" lon="-120.269"><ele>2166.9421781108513</ele></trkpt><trkpt lat="39.16701" lon="-120.26848999999999"><ele>2168.5930502085657</ele></trkpt><trkpt lat="39.16701" lon="-120.26848999999999"><ele>2168.5930502085657</ele></trkpt><trkpt lat="39.16686" lon="-120.26830000000001"><ele>2168.48040888831</ele></trkpt><trkpt lat="39.16674" lon="-120.26794000000001"><ele>2170.790790114757</ele></trkpt><trkpt lat="39.16667" lon="-120.26737000000003"><ele>2174.0</ele></trkpt><trkpt lat="39.16666" lon="-120.26686000000001"><ele>2179.909451169893</ele></trkpt><trkpt lat="39.16669" lon="-120.26673"><ele>2180.2510851722027</ele></trkpt><trkpt lat="39.16676" lon="-120.26661999999999"><ele>2181.0</ele></trkpt><trkpt lat="39.16681" lon="-120.26657"><ele>2181.837048733112</ele></trkpt><trkpt lat="39.167" lon="-120.26652000000001"><ele>2182.5655786669813</ele></trkpt><trkpt lat="39.16705" lon="-120.26648"><ele>2183.35209704563</ele></trkpt><trkpt lat="39.1671" lon="-120.26612999999998"><ele>2185.0</ele></trkpt><trkpt lat="39.16729" lon="-120.26578999999998"><ele>2188.778405269608</ele></trkpt><trkpt lat="39.16733" lon="-120.26567999999997"><ele>2190.0</ele></trkpt><trkpt lat="39.16734" lon="-120.26551999999998"><ele>2190.79206102385</ele></trkpt><trkpt lat="39.16743" lon="-120.26530000000002"><ele>2193.0</ele></trkpt><trkpt lat="39.16768" lon="-120.26501999999999"><ele>2195.0</ele></trkpt><trkpt lat="39.16776" lon="-120.26486"><ele>2196.0</ele></trkpt><trkpt lat="39.16783" lon="-120.26477"><ele>2196.2451475805483</ele></trkpt><trkpt lat="39.16781" lon="-120.26454999999999"><ele>2196.0355753023177</ele></trkpt><trkpt lat="39.16765" lon="-120.26441999999997"><ele>2198.0</ele></trkpt><trkpt lat="39.16765" lon="-120.26427999999999"><ele>2199.0</ele></trkpt><trkpt lat="39.1675" lon="-120.26396"><ele>2202.296710369496</ele></trkpt><trkpt lat="39.16759" lon="-120.26371"><ele>2204.0</ele></trkpt><trkpt lat="39.16766" lon="-120.26362"><ele>2205.007924921686</ele></trkpt><trkpt lat="39.1677" lon="-120.26342"><ele>2205.0</ele></trkpt><trkpt lat="39.16784" lon="-120.26310000000001"><ele>2208.1526986438175</ele></trkpt><trkpt lat="39.16795" lon="-120.26274000000001"><ele>2209.45100671798</ele></trkpt><trkpt lat="39.16802" lon="-120.26273000000003"><ele>2211.0</ele></trkpt><trkpt lat="39.16805" lon="-120.26278000000002"><ele>2212.0</ele></trkpt><trkpt lat="39.16807" lon="-120.26294999999999"><ele>2212.7285503967682</ele></trkpt><trkpt lat="39.16804" lon="-120.26318000000003"><ele>2215.0</ele></trkpt><trkpt lat="39.16806" lon="-120.26333"><ele>2216.0062635762615</ele></trkpt><trkpt lat="39.16812" lon="-120.26355999999998"><ele>2217.6697673853487</ele></trkpt><trkpt lat="39.16822" lon="-120.26369999999997"><ele>2218.954020281146</ele></trkpt><trkpt lat="39.16833" lon="-120.26344"><ele>2222.292976429686</ele></trkpt><trkpt lat="39.16843" lon="-120.26332000000002"><ele>2224.6066232838753</ele></trkpt><trkpt lat="39.16846" lon="-120.26323000000002"><ele>2226.0</ele></trkpt><trkpt lat="39.16849" lon="-120.26301999999998"><ele>2227.0</ele></trkpt><trkpt lat="39.16868" lon="-120.26249999999999"><ele>2229.0</ele></trkpt><trkpt lat="39.16875" lon="-120.26238999999998"><ele>2230.0</ele></trkpt><trkpt lat="39.16881" lon="-120.26233000000002"><ele>2231.14616721496</ele></trkpt><trkpt lat="39.16882" lon="-120.26227"><ele>2231.747277447954</ele></trkpt><trkpt lat="39.16886" lon="-120.26220999999998"><ele>2233.1517192460597</ele></trkpt><trkpt lat="39.16897" lon="-120.26216999999997"><ele>2234.84088533232</ele></trkpt><trkpt lat="39.16901" lon="-120.26211"><ele>2234.2130708270706</ele></trkpt><trkpt lat="39.16909" lon="-120.26189"><ele>2235.773951528496</ele></trkpt><trkpt lat="39.16927" lon="-120.26162"><ele>2238.16666320938</ele></trkpt><trkpt lat="39.16929" lon="-120.26161000000002"><ele>2238.742663087578</ele></trkpt><trkpt lat="39.16933" lon="-120.26166999999998"><ele>2239.725366972687</ele></trkpt><trkpt lat="39.1694" lon="-120.26166"><ele>2241.0447621885473</ele></trkpt><trkpt lat="39.16945" lon="-120.26143000000002"><ele>2242.2187958608733</ele></trkpt><trkpt lat="39.16964" lon="-120.26112"><ele>2245.9109160994853</ele></trkpt><trkpt lat="39.16966" lon="-120.2611"><ele>2245.9752711113542</ele></trkpt><trkpt lat="39.16969" lon="-120.26112"><ele>2246.9114338448167</ele></trkpt><trkpt lat="39.16962" lon="-120.26130999999998"><ele>2247.637300025384</ele></trkpt><trkpt lat="39.16963" lon="-120.26193999999998"><ele>2251.437490362674</ele></trkpt><trkpt lat="39.16958" lon="-120.26222000000001"><ele>2252.0738792469883</ele></trkpt><trkpt lat="39.16961" lon="-120.26222999999999"><ele>2253.1498788583103</ele></trkpt><trkpt lat="39.16972" lon="-120.26198"><ele>2254.835889379758</ele></trkpt><trkpt lat="39.16987" lon="-120.26126"><ele>2254.864327808842</ele></trkpt><trkpt lat="39.17001" lon="-120.26105000000001"><ele>2256.18063231449</ele></trkpt><trkpt lat="39.17011" lon="-120.26094999999998"><ele>2256.286777677384</ele></trkpt><trkpt lat="39.17014" lon="-120.26085999999998"><ele>2256.0</ele></trkpt><trkpt lat="39.1703" lon="-120.26062999999999"><ele>2257.784218253102</ele></trkpt><trkpt lat="39.17037" lon="-120.26047"><ele>2256.0</ele></trkpt><trkpt lat="39.1705" lon="-120.26036999999997"><ele>2257.988023880858</ele></trkpt><trkpt lat="39.17096" lon="-120.25968"><ele>2256.0</ele></trkpt><trkpt lat="39.17126" lon="-120.25964999999997"><ele>2258.1684489446784</ele></trkpt><trkpt lat="39.17159" lon="-120.25954000000002"><ele>2260.2740017790347</ele></trkpt><trkpt lat="39.17183" lon="-120.25936000000002"><ele>2261.9639383717868</ele></trkpt><trkpt lat="39.17192" lon="-120.25911000000002"><ele>2261.307703997527</ele></trkpt><trkpt lat="39.17200910766715" lon="-120.2590381389781"><ele>2262.0</ele></trkpt><trkpt lat="39.17200910766715" lon="-120.2590381389781"><ele>2262.0</ele></trkpt><trkpt lat="39.17223" lon="-120.25886000000003"><ele>2262.88795493728</ele></trkpt><trkpt lat="39.17248" lon="-120.25857000000002"><ele>2262.7759019801283</ele></trkpt><trkpt lat="39.17255" lon="-120.25833999999998"><ele>2262.0</ele></trkpt><trkpt lat="39.17255" lon="-120.25819000000001"><ele>2261.9790904097226</ele></trkpt><trkpt lat="39.17241" lon="-120.25787000000003"><ele>2260.0</ele></trkpt><trkpt lat="39.17242" lon="-120.25779999999997"><ele>2260.0</ele></trkpt><trkpt lat="39.17249" lon="-120.2577"><ele>2261.0</ele></trkpt><trkpt lat="39.17252" lon="-120.25761"><ele>2262.0</ele></trkpt><trkpt lat="39.17257" lon="-120.25729000000001"><ele>2261.169641731307</ele></trkpt><trkpt lat="39.17253" lon="-120.25725999999997"><ele>2260.0</ele></trkpt><trkpt lat="39.17244" lon="-120.25725999999997"><ele>2261.0</ele></trkpt><trkpt lat="39.1723" lon="-120.25716"><ele>2262.642037333455</ele></trkpt><trkpt lat="39.17215" lon="-120.25718"><ele>2266.0555628264833</ele></trkpt><trkpt lat="39.17205" lon="-120.25716"><ele>2267.0</ele></trkpt><trkpt lat="39.17196" lon="-120.25706000000002"><ele>2269.0</ele></trkpt><trkpt lat="39.17189" lon="-120.25689"><ele>2270.2249493328854</ele></trkpt><trkpt lat="39.17189" lon="-120.25677999999999"><ele>2272.0</ele></trkpt><trkpt lat="39.17198" lon="-120.25650999999999"><ele>2273.0</ele></trkpt><trkpt lat="39.17209" lon="-120.25635"><ele>2275.0</ele></trkpt><trkpt lat="39.17209" lon="-120.25635"><ele>2275.0</ele></trkpt><trkpt lat="39.17238" lon="-120.25605000000002"><ele>2275.0</ele></trkpt><trkpt lat="39.17245" lon="-120.25602000000003"><ele>2274.7698879987</ele></trkpt><trkpt lat="39.17248" lon="-120.25593000000003"><ele>2276.232019108557</ele></trkpt><trkpt lat="39.17247" lon="-120.25589000000002"><ele>2277.0</ele></trkpt><trkpt lat="39.17227" lon="-120.25594000000001"><ele>2278.932045490928</ele></trkpt><trkpt lat="39.17215" lon="-120.25605000000002"><ele>2279.420951164736</ele></trkpt><trkpt lat="39.17199" lon="-120.25611000000004"><ele>2281.0</ele></trkpt><trkpt lat="39.17188" lon="-120.2561"><ele>2283.041617777664</ele></trkpt><trkpt lat="39.17187" lon="-120.25605999999999"><ele>2284.0</ele></trkpt><trkpt lat="39.17204" lon="-120.25580000000002"><ele>2287.697779774744</ele></trkpt><trkpt lat="39.17229" lon="-120.25536"><ele>2290.8406499733665</ele></trkpt><trkpt lat="39.17227" lon="-120.25533999999999"><ele>2291.0</ele></trkpt><trkpt lat="39.17181" lon="-120.25557000000003"><ele>2296.383255037163</ele></trkpt><trkpt lat="39.17164" lon="-120.25556"><ele>2297.416498423162</ele></trkpt><trkpt lat="39.17141" lon="-120.25567999999998"><ele>2297.3458311118106</ele></trkpt><trkpt lat="39.17126" lon="-120.25569999999999"><ele>2298.682968889363</ele></trkpt><trkpt lat="39.17088" lon="-120.25566000000003"><ele>2302.0</ele></trkpt><trkpt lat="39.17082" lon="-120.25563"><ele>2303.9452053336427</ele></trkpt><trkpt lat="39.17085" lon="-120.25556"><ele>2305.0</ele></trkpt><trkpt lat="39.1714" lon="-120.25524000000001"><ele>2308.0</ele></trkpt><trkpt lat="39.17143" lon="-120.25518"><ele>2308.9167253333144</ele></trkpt><trkpt lat="39.17149" lon="-120.25515000000001"><ele>2308.237137401825</ele></trkpt><trkpt lat="39.17154" lon="-120.25503000000003"><ele>2309.976582114756</ele></trkpt><trkpt lat="39.17153" lon="-120.25495000000001"><ele>2312.221598697781</ele></trkpt><trkpt lat="39.17146" lon="-120.25491999999997"><ele>2313.03360355692</ele></trkpt><trkpt lat="39.17136" lon="-120.25493"><ele>2313.8131705565356</ele></trkpt><trkpt lat="39.17114" lon="-120.25495999999998"><ele>2315.8279452331217</ele></trkpt><trkpt lat="39.17103" lon="-120.25500999999997"><ele>2315.90442562818</ele></trkpt><trkpt lat="39.1709" lon="-120.25502"><ele>2317.082094490279</ele></trkpt><trkpt lat="39.17066" lon="-120.255"><ele>2321.0</ele></trkpt><trkpt lat="39.17063" lon="-120.25495000000001"><ele>2323.0</ele></trkpt><trkpt lat="39.17083" lon="-120.25473999999997"><ele>2324.6694068194547</ele></trkpt><trkpt lat="39.17103" lon="-120.25448"><ele>2326.725880002379</ele></trkpt><trkpt lat="39.17107" lon="-120.25432"><ele>2328.0007431765102</ele></trkpt><trkpt lat="39.17131" lon="-120.25391000000002"><ele>2331.0</ele></trkpt><trkpt lat="39.17158" lon="-120.25356"><ele>2335.0</ele></trkpt><trkpt lat="39.17161866037526" lon="-120.25347494717442"><ele>2336.0</ele></trkpt><trkpt lat="39.17231033549064" lon="-120.25319928473493"><ele>2337.2247471013106</ele></trkpt><trkpt lat="39.172809385427854" lon="-120.25319928473493"><ele>2340.2247471013106</ele></trkpt><trkpt lat="39.172975734619875" lon="-120.25285596198103"><ele>2332.341004546184</ele></trkpt><trkpt lat="39.17300900441104" lon="-120.25251263922712"><ele>2318.4398623313755</ele></trkpt><trkpt lat="39.17334170145715" lon="-120.25246972388288"><ele>2308.7752528986894</ele></trkpt><trkpt lat="39.173541318929246" lon="-120.25229806250593"><ele>2298.439862329513</ele></trkpt><trkpt lat="39.173740935834694" lon="-120.25174016303083"><ele>2301.0</ele></trkpt><trkpt lat="39.17423997561907" lon="-120.25139684027693"><ele>2296.0</ele></trkpt><trkpt lat="39.174451933835485" lon="-120.25128955191633"><ele>2294.0</ele></trkpt><trkpt lat="39.17460164462887" lon="-120.25107497519514"><ele>2292.0</ele></trkpt><trkpt lat="39.17467649990605" lon="-120.25106424635908"><ele>2292.0</ele></trkpt><trkpt lat="39.17472640337989" lon="-120.25110716170332"><ele>2293.802165141329</ele></trkpt><trkpt lat="39.17485116190952" lon="-120.25125736540815"><ele>2294.0</ele></trkpt><trkpt lat="39.17520880180103" lon="-120.25161141699812"><ele>2294.0</ele></trkpt><trkpt lat="39.17546663408275" lon="-120.25143975562116"><ele>2295.0</ele></trkpt><trkpt lat="39.175456329868105" lon="-120.25141151445871"><ele>2295.0</ele></trkpt><trkpt lat="39.17555039845013" lon="-120.25135440175313"><ele>2295.337806291878</ele></trkpt><trkpt lat="39.17555039845013" lon="-120.25135440175313"><ele>2295.337806291878</ele></trkpt><trkpt lat="39.17564" lon="-120.25130000000001"><ele>2296.0</ele></trkpt><trkpt lat="39.17569" lon="-120.25115"><ele>2296.0</ele></trkpt><trkpt lat="39.17616" lon="-120.25110999999998"><ele>2296.0</ele></trkpt><trkpt lat="39.17624" lon="-120.25112999999999"><ele>2297.8643759408847</ele></trkpt><trkpt lat="39.17628" lon="-120.25096000000002"><ele>2297.0</ele></trkpt><trkpt lat="39.17635173064608" lon="-120.25093037212446"><ele>2297.529303450535</ele></trkpt><trkpt lat="39.17636250374187" lon="-120.25092592250286"><ele>2297.8288939716294</ele></trkpt><trkpt lat="39.1769212565808" lon="-120.2506951331514"><ele>2296.0</ele></trkpt><trkpt lat="39.1769212565808" lon="-120.2506951331514"><ele>2296.0</ele></trkpt><trkpt lat="39.1772" lon="-120.25058000000001"><ele>2298.0</ele></trkpt><trkpt lat="39.17732" lon="-120.25063999999998"><ele>2297.641896776803</ele></trkpt><trkpt lat="39.1776" lon="-120.25098000000003"><ele>2298.0</ele></trkpt><trkpt lat="39.17779" lon="-120.2509"><ele>2298.0</ele></trkpt><trkpt lat="39.17792" lon="-120.25062000000003"><ele>2298.0</ele></trkpt><trkpt lat="39.1782" lon="-120.24990000000003"><ele>2297.0</ele></trkpt><trkpt lat="39.17837" lon="-120.24966999999998"><ele>2298.0</ele></trkpt><trkpt lat="39.17863" lon="-120.24954000000002"><ele>2301.0</ele></trkpt><trkpt lat="39.17863" lon="-120.24954000000002"><ele>2301.0</ele></trkpt><trkpt lat="39.17867" lon="-120.24936000000002"><ele>2299.8823708686978</ele></trkpt><trkpt lat="39.17874" lon="-120.24923000000001"><ele>2299.071968408399</ele></trkpt><trkpt lat="39.17885" lon="-120.24912999999998"><ele>2299.0</ele></trkpt><trkpt lat="39.17902" lon="-120.24889999999999"><ele>2299.955603665877</ele></trkpt><trkpt lat="39.17913" lon="-120.24869999999999"><ele>2300.050186717764</ele></trkpt><trkpt lat="39.17964" lon="-120.24810000000002"><ele>2297.198638411239</ele></trkpt><trkpt lat="39.17987" lon="-120.24766"><ele>2296.635722656099</ele></trkpt><trkpt lat="39.18009625982839" lon="-120.24735228663337"><ele>2295.629195233807</ele></trkpt><trkpt lat="39.180103777833075" lon="-120.24734206218369"><ele>2295.8900803402066</ele></trkpt><trkpt lat="39.18012" lon="-120.24732"><ele>2296.0564704611897</ele></trkpt><trkpt lat="39.18024" lon="-120.24711000000002"><ele>2293.9940160014667</ele></trkpt><trkpt lat="39.18037" lon="-120.24667999999997"><ele>2289.127902265638</ele></trkpt><trkpt lat="39.18036" lon="-120.24652000000003"><ele>2284.2417704856834</ele></trkpt><trkpt lat="39.18029" lon="-120.24667999999997"><ele>2284.2315634470433</ele></trkpt><trkpt lat="39.18029" lon="-120.2466"><ele>2282.276999892667</ele></trkpt><trkpt lat="39.1804" lon="-120.24595999999997"><ele>2274.3562358476524</ele></trkpt><trkpt lat="39.18038" lon="-120.24572999999998"><ele>2273.687878422439</ele></trkpt><trkpt lat="39.18038" lon="-120.24536"><ele>2271.1259833117947</ele></trkpt><trkpt lat="39.18033" lon="-120.24507"><ele>2269.681833939627</ele></trkpt><trkpt lat="39.18022" lon="-120.24490000000003"><ele>2267.0</ele></trkpt><trkpt lat="39.18021" lon="-120.24468999999999"><ele>2266.253494124394</ele></trkpt><trkpt lat="39.18008" lon="-120.24453"><ele>2261.894342260901</ele></trkpt><trkpt lat="39.18" lon="-120.24446999999998"><ele>2259.8481406215087</ele></trkpt><trkpt lat="39.17995" lon="-120.24435"><ele>2260.363716484233</ele></trkpt><trkpt lat="39.17995" lon="-120.24428"><ele>2261.671931479126</ele></trkpt><trkpt lat="39.17963" lon="-120.24392"><ele>2257.268194780685</ele></trkpt><trkpt lat="39.17962" lon="-120.24391000000003"><ele>2256.996233018115</ele></trkpt><trkpt lat="39.17961" lon="-120.24400000000003"><ele>2253.395030448213</ele></trkpt><trkpt lat="39.17957" lon="-120.24400000000003"><ele>2251.9327099206857</ele></trkpt><trkpt lat="39.17952" lon="-120.24379999999996"><ele>2251.9725774231656</ele></trkpt><trkpt lat="39.17933" lon="-120.24347999999998"><ele>2244.6603362037904</ele></trkpt><trkpt lat="39.17926" lon="-120.24327"><ele>2243.3290259017285</ele></trkpt><trkpt lat="39.17923" lon="-120.24308000000002"><ele>2243.098792452365</ele></trkpt><trkpt lat="39.17915" lon="-120.24295000000001"><ele>2241.739804757759</ele></trkpt><trkpt lat="39.17894" lon="-120.24273"><ele>2238.2434318559244</ele></trkpt><trkpt lat="39.17876" lon="-120.24265000000003"><ele>2232.857048887294</ele></trkpt><trkpt lat="39.17841" lon="-120.24234000000001"><ele>2228.4790066725855</ele></trkpt><trkpt lat="39.17824" lon="-120.24223999999998"><ele>2225.964433778543</ele></trkpt><trkpt lat="39.17813" lon="-120.24214"><ele>2223.781614510829</ele></trkpt><trkpt lat="39.1781" lon="-120.24209000000002"><ele>2224.0</ele></trkpt><trkpt lat="39.17808" lon="-120.24194"><ele>2224.4120449647307</ele></trkpt><trkpt lat="39.17787" lon="-120.24155999999999"><ele>2216.0</ele></trkpt><trkpt lat="39.17781" lon="-120.24149999999997"><ele>2215.4502559681005</ele></trkpt><trkpt lat="39.1778" lon="-120.24146999999999"><ele>2215.0</ele></trkpt><trkpt lat="39.17784" lon="-120.24135999999999"><ele>2213.0</ele></trkpt><trkpt lat="39.1777" lon="-120.24119999999999"><ele>2212.2460194040445</ele></trkpt><trkpt lat="39.17736" lon="-120.24110000000002"><ele>2209.0</ele></trkpt><trkpt lat="39.17717" lon="-120.24115"><ele>2206.942044246476</ele></trkpt><trkpt lat="39.17696" lon="-120.24097999999998"><ele>2201.315310221631</ele></trkpt><trkpt lat="39.17698" lon="-120.24090000000001"><ele>2200.305316316895</ele></trkpt><trkpt lat="39.17721" lon="-120.24095999999997"><ele>2201.4503996004983</ele></trkpt><trkpt lat="39.17744" lon="-120.24083999999999"><ele>2201.7402995105895</ele></trkpt><trkpt lat="39.17794" lon="-120.24071000000004"><ele>2195.003368183033</ele></trkpt><trkpt lat="39.17805" lon="-120.24077999999997"><ele>2193.9978993482805</ele></trkpt><trkpt lat="39.17835" lon="-120.24063000000001"><ele>2193.645659843477</ele></trkpt><trkpt lat="39.17862" lon="-120.24053000000004"><ele>2188.3012975814127</ele></trkpt><trkpt lat="39.17871" lon="-120.24044000000004"><ele>2186.830346554794</ele></trkpt><trkpt lat="39.17892" lon="-120.24014"><ele>2185.7585687280807</ele></trkpt><trkpt lat="39.17906" lon="-120.24002000000002"><ele>2185.9050884512253</ele></trkpt><trkpt lat="39.17911" lon="-120.23987"><ele>2184.196169382342</ele></trkpt><trkpt lat="39.17909" lon="-120.23975999999999"><ele>2181.060895276226</ele></trkpt><trkpt lat="39.17927" lon="-120.23937999999998"><ele>2177.7155556043026</ele></trkpt><trkpt lat="39.17931" lon="-120.23933"><ele>2178.1506826759633</ele></trkpt><trkpt lat="39.17946" lon="-120.23930000000001"><ele>2177.0432711122558</ele></trkpt><trkpt lat="39.1795" lon="-120.23927000000003"><ele>2177.4874839470704</ele></trkpt><trkpt lat="39.17952" lon="-120.23917"><ele>2175.947407628875</ele></trkpt><trkpt lat="39.17943" lon="-120.23858999999999"><ele>2170.5733988452703</ele></trkpt><trkpt lat="39.17937" lon="-120.23771999999997"><ele>2163.0</ele></trkpt><trkpt lat="39.17935" lon="-120.23770999999999"><ele>2162.7637936938554</ele></trkpt><trkpt lat="39.17931" lon="-120.23779000000002"><ele>2161.5925308303595</ele></trkpt><trkpt lat="39.17922" lon="-120.23822000000001"><ele>2156.948196992278</ele></trkpt><trkpt lat="39.17909" lon="-120.23858999999999"><ele>2152.132614744827</ele></trkpt><trkpt lat="39.17906" lon="-120.23849000000001"><ele>2151.329020895064</ele></trkpt><trkpt lat="39.17904" lon="-120.23813000000001"><ele>2148.1266254205257</ele></trkpt><trkpt lat="39.179" lon="-120.23802"><ele>2145.8245649901974</ele></trkpt><trkpt lat="39.17897" lon="-120.23801000000003"><ele>2145.0</ele></trkpt><trkpt lat="39.17895" lon="-120.23806000000002"><ele>2144.498034045104</ele></trkpt><trkpt lat="39.17876" lon="-120.23851000000002"><ele>2139.2931247148663</ele></trkpt><trkpt lat="39.17873" lon="-120.23852"><ele>2138.0</ele></trkpt><trkpt lat="39.17866" lon="-120.23816"><ele>2133.281176423654</ele></trkpt><trkpt lat="39.17863" lon="-120.2378"><ele>2130.0</ele></trkpt><trkpt lat="39.17853" lon="-120.23741999999999"><ele>2125.0</ele></trkpt><trkpt lat="39.17855" lon="-120.23725999999999"><ele>2125.0</ele></trkpt><trkpt lat="39.17849" lon="-120.23711000000003"><ele>2125.0</ele></trkpt><trkpt lat="39.17841" lon="-120.23678999999998"><ele>2121.0</ele></trkpt><trkpt lat="39.17831" lon="-120.23663999999997"><ele>2117.2825118404717</ele></trkpt><trkpt lat="39.17787" lon="-120.23626999999999"><ele>2111.826815187961</ele></trkpt><trkpt lat="39.17779" lon="-120.23613"><ele>2111.0</ele></trkpt><trkpt lat="39.1777" lon="-120.23565000000002"><ele>2110.5669079124928</ele></trkpt><trkpt lat="39.17767" lon="-120.23525000000001"><ele>2108.7633497193456</ele></trkpt><trkpt lat="39.17775" lon="-120.23437999999999"><ele>2094.5728399418294</ele></trkpt><trkpt lat="39.17775" lon="-120.23437999999999"><ele>2094.5728399418294</ele></trkpt><trkpt lat="39.17778" lon="-120.23399"><ele>2089.5863184022182</ele></trkpt><trkpt lat="39.17795" lon="-120.23331999999999"><ele>2078.1989246636645</ele></trkpt><trkpt lat="39.17803" lon="-120.23316"><ele>2075.8768960004672</ele></trkpt><trkpt lat="39.17812" lon="-120.23309999999998"><ele>2074.080693332944</ele></trkpt><trkpt lat="39.17825" lon="-120.23291999999998"><ele>2070.692085332703</ele></trkpt><trkpt lat="39.17829891270654" lon="-120.23287516335233"><ele>2070.2050922075287</ele></trkpt><trkpt lat="39.1783026993676" lon="-120.2328716922695"><ele>2069.88156383764</ele></trkpt><trkpt lat="39.17837" lon="-120.23280999999997"><ele>2067.4789189916255</ele></trkpt><trkpt lat="39.17845" lon="-120.23264"><ele>2065.6431395555846</ele></trkpt><trkpt lat="39.17858" lon="-120.23246"><ele>2060.60611232784</ele></trkpt><trkpt lat="39.17849" lon="-120.23241000000002"><ele>2058.1319161864662</ele></trkpt><trkpt lat="39.17842" lon="-120.23241000000002"><ele>2056.9888461722353</ele></trkpt><trkpt lat="39.17821" lon="-120.23248999999998"><ele>2053.652632887941</ele></trkpt><trkpt lat="39.1781" lon="-120.23243000000002"><ele>2051.8564302236773</ele></trkpt><trkpt lat="39.17801" lon="-120.23241999999999"><ele>2049.469928384425</ele></trkpt><trkpt lat="39.17799" lon="-120.23239999999998"><ele>2048.459056597121</ele></trkpt><trkpt lat="39.17799" lon="-120.23235"><ele>2047.1295034517534</ele></trkpt><trkpt lat="39.17804" lon="-120.23221999999998"><ele>2045.0765006531517</ele></trkpt><trkpt lat="39.17819" lon="-120.23208"><ele>2041.5703819990158</ele></trkpt><trkpt lat="39.17823" lon="-120.23185000000001"><ele>2037.3552968013844</ele></trkpt><trkpt lat="39.17829" lon="-120.23178999999999"><ele>2036.059415681691</ele></trkpt><trkpt lat="39.17845" lon="-120.23178000000001"><ele>2034.8501459009462</ele></trkpt><trkpt lat="39.17852" lon="-120.23171000000002"><ele>2033.3019982236437</ele></trkpt><trkpt lat="39.17853" lon="-120.23167000000001"><ele>2031.9035195410252</ele></trkpt><trkpt lat="39.17851" lon="-120.23162000000002"><ele>2031.0</ele></trkpt><trkpt lat="39.17833" lon="-120.23154999999997"><ele>2028.0</ele></trkpt><trkpt lat="39.1783" lon="-120.23149999999998"><ele>2026.8246476995296</ele></trkpt><trkpt lat="39.17831" lon="-120.23147"><ele>2026.1171875558794</ele></trkpt><trkpt lat="39.17851" lon="-120.23121000000003"><ele>2021.0003093350679</ele></trkpt><trkpt lat="39.17873" lon="-120.23109999999997"><ele>2016.9356501927039</ele></trkpt><trkpt lat="39.179" lon="-120.23070999999999"><ele>2010.7824535362759</ele></trkpt><trkpt lat="39.17936" lon="-120.22987"><ele>1998.3649940378964</ele></trkpt><trkpt lat="39.17934" lon="-120.22976"><ele>1996.425411555916</ele></trkpt><trkpt lat="39.17927" lon="-120.22964999999999"><ele>1994.0</ele></trkpt><trkpt lat="39.17926461696883" lon="-120.22964434174804"><ele>1994.0</ele></trkpt><trkpt lat="39.179259722733036" lon="-120.22965096336122"><ele>1994.0</ele></trkpt></trkseg></trk></gpx>