<?xml version="1.0"?>
<gpx xmlns="http://www.topografix.com/GPX/1/1" xmlns:gpxx="http://www.garmin.com/xmlschemas/GpxExtensions/v3" creator="CALTOPO" version="1.1"><metadata><name><![CDATA[Leavitt Lake-Latopie Lake]]></name></metadata><wpt lat="38.304906991823685" lon="-119.59308049913373"><name>Leavitt Lake Trailhead</name></wpt><trk><name>Leavitt Lake-Latopie Lake</name><trkseg><trkpt lat="38.30490239719737" lon="-119.5931134647775"><ele>2577.0</ele></trkpt><trkpt lat="38.304896920348135" lon="-119.5931063495724"><ele>2577.0</ele></trkpt><trkpt lat="38.30483" lon="-119.59318999999999"><ele>2578.0</ele></trkpt><trkpt lat="38.30469" lon="-119.59327000000002"><ele>2580.0</ele></trkpt><trkpt lat="38.30461" lon="-119.59337"><ele>2581.0</ele></trkpt><trkpt lat="38.304539318284654" lon="-119.59350076117335"><ele>2583.0</ele></trkpt><trkpt lat="38.304530693715755" lon="-119.5935167167479"><ele>2583.339323584456</ele></trkpt><trkpt lat="38.30441" lon="-119.59374000000003"><ele>2587.0</ele></trkpt><trkpt lat="38.30409" lon="-119.59373"><ele>2590.0450424440205</ele></trkpt><trkpt lat="38.30389" lon="-119.59375999999997"><ele>2593.0</ele></trkpt><trkpt lat="38.3038" lon="-119.59381000000002"><ele>2594.0</ele></trkpt><trkpt lat="38.30315" lon="-119.59451999999999"><ele>2598.0</ele></trkpt><trkpt lat="38.30285" lon="-119.59471000000002"><ele>2596.299295975362</ele></trkpt><trkpt lat="38.30277" lon="-119.59485999999998"><ele>2596.0</ele></trkpt><trkpt lat="38.30273" lon="-119.59498000000002"><ele>2596.1005439266864</ele></trkpt><trkpt lat="38.30268" lon="-119.59545000000003"><ele>2599.0</ele></trkpt><trkpt lat="38.30262" lon="-119.59577999999999"><ele>2601.0</ele></trkpt><trkpt lat="38.30262" lon="-119.59613999999999"><ele>2603.7331155439115</ele></trkpt><trkpt lat="38.3026" lon="-119.59620000000001"><ele>2604.0</ele></trkpt><trkpt lat="38.30218" lon="-119.59662000000003"><ele>2607.0</ele></trkpt><trkpt lat="38.30206" lon="-119.59671000000003"><ele>2607.0</ele></trkpt><trkpt lat="38.30168" lon="-119.5969"><ele>2607.8351177095715</ele></trkpt><trkpt lat="38.30153" lon="-119.59717"><ele>2610.0</ele></trkpt><trkpt lat="38.30153" lon="-119.59717"><ele>2610.0</ele></trkpt><trkpt lat="38.30135" lon="-119.59744"><ele>2613.0</ele></trkpt><trkpt lat="38.30116" lon="-119.59762"><ele>2614.0472716186196</ele></trkpt><trkpt lat="38.30106" lon="-119.5978"><ele>2614.000642407803</ele></trkpt><trkpt lat="38.301" lon="-119.59788000000003"><ele>2614.0</ele></trkpt><trkpt lat="38.30075" lon="-119.59796"><ele>2615.232609927987</ele></trkpt><trkpt lat="38.30059" lon="-119.59805"><ele>2616.0</ele></trkpt><trkpt lat="38.30053" lon="-119.59812"><ele>2616.8678720002063</ele></trkpt><trkpt lat="38.30048" lon="-119.59833000000003"><ele>2615.8518026950424</ele></trkpt><trkpt lat="38.30033" lon="-119.59851000000003"><ele>2618.0</ele></trkpt><trkpt lat="38.30035" lon="-119.59872999999999"><ele>2617.8950678850865</ele></trkpt><trkpt lat="38.30033" lon="-119.59875999999997"><ele>2618.0</ele></trkpt><trkpt lat="38.30019" lon="-119.59883000000002"><ele>2619.0</ele></trkpt><trkpt lat="38.29978" lon="-119.59931"><ele>2621.9987229090134</ele></trkpt><trkpt lat="38.29959" lon="-119.59944000000002"><ele>2622.0</ele></trkpt><trkpt lat="38.2995" lon="-119.59955000000002"><ele>2623.0</ele></trkpt><trkpt lat="38.29946" lon="-119.59969999999998"><ele>2622.0</ele></trkpt><trkpt lat="38.29941" lon="-119.59977000000003"><ele>2622.992942518317</ele></trkpt><trkpt lat="38.29933" lon="-119.59983"><ele>2625.280514484737</ele></trkpt><trkpt lat="38.29926" lon="-119.59983999999997"><ele>2626.0</ele></trkpt><trkpt lat="38.29893" lon="-119.59980000000002"><ele>2623.0</ele></trkpt><trkpt lat="38.29879" lon="-119.59987000000001"><ele>2624.0</ele></trkpt><trkpt lat="38.29855" lon="-119.60014999999999"><ele>2625.472728888504</ele></trkpt><trkpt lat="38.29812" lon="-119.60052000000002"><ele>2629.0</ele></trkpt><trkpt lat="38.29782" lon="-119.60095999999999"><ele>2635.0</ele></trkpt><trkpt lat="38.29773" lon="-119.60104999999999"><ele>2636.0</ele></trkpt><trkpt lat="38.29722" lon="-119.60145999999997"><ele>2637.991076818704</ele></trkpt><trkpt lat="38.29693" lon="-119.60158999999999"><ele>2639.0</ele></trkpt><trkpt lat="38.29569" lon="-119.60275999999999"><ele>2640.0</ele></trkpt><trkpt lat="38.29546" lon="-119.60316999999998"><ele>2641.0</ele></trkpt><trkpt lat="38.29491" lon="-119.60401999999999"><ele>2647.0</ele></trkpt><trkpt lat="38.29478" lon="-119.60419000000002"><ele>2646.0</ele></trkpt><trkpt lat="38.29474" lon="-119.60422"><ele>2645.0</ele></trkpt><trkpt lat="38.29456" lon="-119.60424999999998"><ele>2644.0</ele></trkpt><trkpt lat="38.2944" lon="-119.60420999999997"><ele>2645.1501108939583</ele></trkpt><trkpt lat="38.29431" lon="-119.60415"><ele>2647.0</ele></trkpt><trkpt lat="38.2934" lon="-119.60309000000001"><ele>2656.0</ele></trkpt><trkpt lat="38.29303" lon="-119.60287"><ele>2659.0</ele></trkpt><trkpt lat="38.29246" lon="-119.60273000000001"><ele>2668.764302993147</ele></trkpt><trkpt lat="38.29239" lon="-119.60269"><ele>2669.0</ele></trkpt><trkpt lat="38.2922" lon="-119.60243000000003"><ele>2672.0</ele></trkpt><trkpt lat="38.29216" lon="-119.60241000000002"><ele>2673.0</ele></trkpt><trkpt lat="38.29199" lon="-119.60244"><ele>2675.0</ele></trkpt><trkpt lat="38.29181" lon="-119.60255999999998"><ele>2678.0</ele></trkpt><trkpt lat="38.29166" lon="-119.60262999999998"><ele>2680.0</ele></trkpt><trkpt lat="38.29154" lon="-119.60262999999998"><ele>2682.0</ele></trkpt><trkpt lat="38.29143" lon="-119.60259000000002"><ele>2682.8588272022184</ele></trkpt><trkpt lat="38.29133" lon="-119.60252000000003"><ele>2684.0590704896044</ele></trkpt><trkpt lat="38.29125" lon="-119.60243000000003"><ele>2686.0</ele></trkpt><trkpt lat="38.29118" lon="-119.60228000000001"><ele>2687.0</ele></trkpt><trkpt lat="38.29111" lon="-119.60223000000002"><ele>2688.0</ele></trkpt><trkpt lat="38.29093" lon="-119.60223000000002"><ele>2691.0</ele></trkpt><trkpt lat="38.29085" lon="-119.60228999999998"><ele>2692.2654636502266</ele></trkpt><trkpt lat="38.29074" lon="-119.60246999999998"><ele>2695.0</ele></trkpt><trkpt lat="38.29067" lon="-119.60309999999998"><ele>2701.0</ele></trkpt><trkpt lat="38.29067" lon="-119.60329000000002"><ele>2703.0</ele></trkpt><trkpt lat="38.29072" lon="-119.60361999999998"><ele>2706.9873406575375</ele></trkpt><trkpt lat="38.29099" lon="-119.60462999999999"><ele>2719.0</ele></trkpt><trkpt lat="38.29102" lon="-119.60494"><ele>2722.0</ele></trkpt><trkpt lat="38.29099" lon="-119.60518000000002"><ele>2725.041984593107</ele></trkpt><trkpt lat="38.29084" lon="-119.60541"><ele>2728.94460703445</ele></trkpt><trkpt lat="38.29074" lon="-119.60548"><ele>2730.8235652678068</ele></trkpt><trkpt lat="38.29062" lon="-119.60550999999998"><ele>2733.0</ele></trkpt><trkpt lat="38.2901" lon="-119.60554000000002"><ele>2742.0</ele></trkpt><trkpt lat="38.28994" lon="-119.60559"><ele>2744.996563025007</ele></trkpt><trkpt lat="38.28994" lon="-119.60559"><ele>2744.996563025007</ele></trkpt><trkpt lat="38.2898" lon="-119.60572000000002"><ele>2747.0</ele></trkpt><trkpt lat="38.28943" lon="-119.60622000000001"><ele>2756.72899111306</ele></trkpt><trkpt lat="38.28901" lon="-119.60665"><ele>2765.0</ele></trkpt><trkpt lat="38.28887" lon="-119.60676999999998"><ele>2767.8299033027142</ele></trkpt><trkpt lat="38.28866" lon="-119.60685000000001"><ele>2772.0</ele></trkpt><trkpt lat="38.28856" lon="-119.60692"><ele>2774.2361665964127</ele></trkpt><trkpt lat="38.2881" lon="-119.60746"><ele>2781.469869385615</ele></trkpt><trkpt lat="38.28778" lon="-119.60762"><ele>2786.0</ele></trkpt><trkpt lat="38.28708" lon="-119.60843"><ele>2796.0</ele></trkpt><trkpt lat="38.2865" lon="-119.60888999999997"><ele>2804.0</ele></trkpt><trkpt lat="38.28635" lon="-119.60908999999998"><ele>2806.0</ele></trkpt><trkpt lat="38.28626" lon="-119.60978999999998"><ele>2811.0</ele></trkpt><trkpt lat="38.2861" lon="-119.61031000000003"><ele>2814.0</ele></trkpt><trkpt lat="38.28602" lon="-119.61041999999998"><ele>2815.0</ele></trkpt><trkpt lat="38.2858" lon="-119.61063999999999"><ele>2815.0</ele></trkpt><trkpt lat="38.28543" lon="-119.61083000000002"><ele>2815.0</ele></trkpt><trkpt lat="38.28526" lon="-119.61095"><ele>2815.0</ele></trkpt><trkpt lat="38.28502" lon="-119.61127999999997"><ele>2814.0</ele></trkpt><trkpt lat="38.28477" lon="-119.61135999999999"><ele>2814.0</ele></trkpt><trkpt lat="38.28447" lon="-119.61138"><ele>2817.0727314203978</ele></trkpt><trkpt lat="38.28405" lon="-119.61133000000001"><ele>2820.5058538555318</ele></trkpt><trkpt lat="38.28316" lon="-119.61169999999998"><ele>2835.2192058392534</ele></trkpt><trkpt lat="38.28285" lon="-119.61178000000001"><ele>2839.0</ele></trkpt><trkpt lat="38.28243" lon="-119.61205000000001"><ele>2842.0</ele></trkpt><trkpt lat="38.28188" lon="-119.61214000000001"><ele>2846.8423558175564</ele></trkpt><trkpt lat="38.28157" lon="-119.61225999999999"><ele>2851.367627065218</ele></trkpt><trkpt lat="38.28119" lon="-119.61273"><ele>2859.0</ele></trkpt><trkpt lat="38.2809" lon="-119.61302"><ele>2865.0</ele></trkpt><trkpt lat="38.2802" lon="-119.61441000000002"><ele>2888.0</ele></trkpt><trkpt lat="38.27995" lon="-119.61484999999999"><ele>2894.736355227229</ele></trkpt><trkpt lat="38.27973" lon="-119.6157"><ele>2905.0</ele></trkpt><trkpt lat="38.27965810206876" lon="-119.61612339892844"><ele>2908.0</ele></trkpt><trkpt lat="38.279648659734484" lon="-119.61617900381452"><ele>2908.1636467075195</ele></trkpt><trkpt lat="38.27964" lon="-119.61622999999997"><ele>2908.0</ele></trkpt><trkpt lat="38.27956" lon="-119.61639000000002"><ele>2910.0</ele></trkpt><trkpt lat="38.27917" lon="-119.61675000000002"><ele>2914.0</ele></trkpt><trkpt lat="38.27886" lon="-119.61716000000001"><ele>2915.0</ele></trkpt><trkpt lat="38.27875" lon="-119.61727000000002"><ele>2916.0</ele></trkpt><trkpt lat="38.27822" lon="-119.61746"><ele>2919.0</ele></trkpt><trkpt lat="38.27811016140362" lon="-119.61753040935662"><ele>2920.0</ele></trkpt><trkpt lat="38.27811016140362" lon="-119.61753040935662"><ele>2920.0</ele></trkpt><trkpt lat="38.27783" lon="-119.61770999999999"><ele>2923.0</ele></trkpt><trkpt lat="38.27763" lon="-119.61775999999998"><ele>2925.0</ele></trkpt><trkpt lat="38.27735" lon="-119.61777000000001"><ele>2925.624245333951</ele></trkpt><trkpt lat="38.27709" lon="-119.61768999999998"><ele>2924.705445149581</ele></trkpt><trkpt lat="38.27695" lon="-119.61768999999998"><ele>2922.4266473091975</ele></trkpt><trkpt lat="38.2768" lon="-119.61773"><ele>2921.0</ele></trkpt><trkpt lat="38.27661" lon="-119.61783000000003"><ele>2921.0</ele></trkpt><trkpt lat="38.27661" lon="-119.61783000000003"><ele>2921.0</ele></trkpt><trkpt lat="38.27661" lon="-119.61783000000003"><ele>2921.0</ele></trkpt><trkpt lat="38.27653" lon="-119.61784"><ele>2921.0</ele></trkpt><trkpt lat="38.27626" lon="-119.61763000000002"><ele>2921.0</ele></trkpt><trkpt lat="38.27615976070196" lon="-119.61747024361875"><ele>2921.0</ele></trkpt><trkpt lat="38.27615976070196" lon="-119.61747024361875"><ele>2921.0</ele></trkpt><trkpt lat="38.27594" lon="-119.61712"><ele>2922.0</ele></trkpt><trkpt lat="38.27573" lon="-119.61687"><ele>2923.0</ele></trkpt><trkpt lat="38.27572070676354" lon="-119.61682972930868"><ele>2923.0</ele></trkpt><trkpt lat="38.27572070676354" lon="-119.61682972930868"><ele>2923.0</ele></trkpt><trkpt lat="38.2757" lon="-119.61674"><ele>2923.0</ele></trkpt><trkpt lat="38.27573" lon="-119.61612000000002"><ele>2927.0</ele></trkpt><trkpt lat="38.27581" lon="-119.61571000000004"><ele>2929.0</ele></trkpt><trkpt lat="38.27587" lon="-119.61520000000002"><ele>2930.0</ele></trkpt><trkpt lat="38.27591" lon="-119.61502000000002"><ele>2931.0</ele></trkpt><trkpt lat="38.2759614474893" lon="-119.61486994527627"><ele>2930.6268475538263</ele></trkpt><trkpt lat="38.2759614474893" lon="-119.61486994527627"><ele>2930.6268475538263</ele></trkpt><trkpt lat="38.27603" lon="-119.61466999999999"><ele>2932.0</ele></trkpt><trkpt lat="38.27602" lon="-119.61460999999997"><ele>2932.1713319182477</ele></trkpt><trkpt lat="38.27596" lon="-119.61455999999998"><ele>2933.28709517275</ele></trkpt><trkpt lat="38.27596" lon="-119.61455999999998"><ele>2933.28709517275</ele></trkpt><trkpt lat="38.27585" lon="-119.61441000000002"><ele>2936.0</ele></trkpt><trkpt lat="38.27585" lon="-119.61432000000002"><ele>2935.1747136712074</ele></trkpt><trkpt lat="38.27589" lon="-119.61417"><ele>2933.9333341483634</ele></trkpt><trkpt lat="38.27588" lon="-119.61405000000002"><ele>2932.0</ele></trkpt><trkpt lat="38.27582" lon="-119.61396000000002"><ele>2932.0</ele></trkpt><trkpt lat="38.2757" lon="-119.61388999999997"><ele>2932.0</ele></trkpt><trkpt lat="38.27559" lon="-119.61376000000001"><ele>2934.0</ele></trkpt><trkpt lat="38.27553" lon="-119.61355000000003"><ele>2935.0</ele></trkpt><trkpt lat="38.27543" lon="-119.61340000000001"><ele>2936.0</ele></trkpt><trkpt lat="38.27528" lon="-119.61336"><ele>2937.9651641277264</ele></trkpt><trkpt lat="38.27528" lon="-119.61336"><ele>2937.9651641277264</ele></trkpt><trkpt lat="38.27528" lon="-119.61336"><ele>2937.9651641277264</ele></trkpt><trkpt lat="38.27516" lon="-119.61327"><ele>2939.806020302887</ele></trkpt><trkpt lat="38.27504" lon="-119.61313000000001"><ele>2943.0</ele></trkpt><trkpt lat="38.274750181143936" lon="-119.61289963116565"><ele>2947.0</ele></trkpt><trkpt lat="38.274750181143936" lon="-119.61289963116565"><ele>2947.0</ele></trkpt><trkpt lat="38.27465" lon="-119.61282"><ele>2949.0</ele></trkpt><trkpt lat="38.27443" lon="-119.61274000000003"><ele>2953.096536352602</ele></trkpt><trkpt lat="38.27406" lon="-119.61248999999998"><ele>2961.0</ele></trkpt><trkpt lat="38.27379" lon="-119.61237"><ele>2965.0</ele></trkpt><trkpt lat="38.27349" lon="-119.61235999999997"><ele>2969.0</ele></trkpt><trkpt lat="38.27349" lon="-119.61235999999997"><ele>2969.0</ele></trkpt><trkpt lat="38.27311" lon="-119.61235999999997"><ele>2975.500028445851</ele></trkpt><trkpt lat="38.27269" lon="-119.61241000000001"><ele>2985.0</ele></trkpt><trkpt lat="38.27269" lon="-119.61241000000001"><ele>2985.0</ele></trkpt><trkpt lat="38.27227" lon="-119.61237"><ele>2992.0</ele></trkpt><trkpt lat="38.2719" lon="-119.61239"><ele>3000.308769211173</ele></trkpt><trkpt lat="38.27163" lon="-119.61248"><ele>3005.8463114988194</ele></trkpt><trkpt lat="38.27124" lon="-119.61255"><ele>3015.0</ele></trkpt><trkpt lat="38.27119344461565" lon="-119.61258724430746"><ele>3016.0</ele></trkpt><trkpt lat="38.271195124472335" lon="-119.61258590043576"><ele>3016.0</ele></trkpt><trkpt lat="38.27114" lon="-119.61262999999997"><ele>3017.38804620517</ele></trkpt><trkpt lat="38.27085" lon="-119.61270999999999"><ele>3022.706099399876</ele></trkpt><trkpt lat="38.26955" lon="-119.61277000000001"><ele>3049.3162939578892</ele></trkpt><trkpt lat="38.2689" lon="-119.61295000000001"><ele>3063.0</ele></trkpt><trkpt lat="38.26877" lon="-119.61295999999999"><ele>3065.056819039226</ele></trkpt><trkpt lat="38.26865" lon="-119.61289"><ele>3068.0</ele></trkpt><trkpt lat="38.26861" lon="-119.6128"><ele>3069.9978332531437</ele></trkpt><trkpt lat="38.26857" lon="-119.61252999999999"><ele>3071.0</ele></trkpt><trkpt lat="38.26854" lon="-119.61246"><ele>3071.0</ele></trkpt><trkpt lat="38.26834" lon="-119.61244999999997"><ele>3072.0</ele></trkpt><trkpt lat="38.26834" lon="-119.61244999999997"><ele>3072.0</ele></trkpt><trkpt lat="38.26834" lon="-119.61244999999997"><ele>3072.0</ele></trkpt><trkpt lat="38.26777" lon="-119.61252000000002"><ele>3080.4437612684196</ele></trkpt><trkpt lat="38.26747" lon="-119.61259000000001"><ele>3085.2712753061205</ele></trkpt><trkpt lat="38.26718" lon="-119.61283000000003"><ele>3093.0</ele></trkpt><trkpt lat="38.267089462520445" lon="-119.61284508957993"><ele>3094.8740878763097</ele></trkpt><trkpt lat="38.267089462520445" lon="-119.61284508957993"><ele>3094.8740878763097</ele></trkpt><trkpt lat="38.26694" lon="-119.61286999999999"><ele>3098.195611300087</ele></trkpt><trkpt lat="38.26671" lon="-119.61280999999997"><ele>3103.180519950066</ele></trkpt><trkpt lat="38.26659" lon="-119.61273"><ele>3105.0</ele></trkpt><trkpt lat="38.2664" lon="-119.61255"><ele>3108.0</ele></trkpt><trkpt lat="38.26595" lon="-119.61220000000003"><ele>3114.5159690577743</ele></trkpt><trkpt lat="38.26595" lon="-119.61210250854492"><ele>3115.0</ele></trkpt><trkpt lat="38.26594187951778" lon="-119.61205414310814"><ele>3115.0</ele></trkpt><trkpt lat="38.26578" lon="-119.61113999999998"><ele>3127.0</ele></trkpt><trkpt lat="38.26576" lon="-119.61090000000002"><ele>3129.8952009406116</ele></trkpt><trkpt lat="38.26572" lon="-119.61084"><ele>3131.0</ele></trkpt><trkpt lat="38.26568" lon="-119.61085000000003"><ele>3132.0</ele></trkpt><trkpt lat="38.26549" lon="-119.61126000000002"><ele>3137.7978638429195</ele></trkpt><trkpt lat="38.26483" lon="-119.61205999999999"><ele>3152.972681446001</ele></trkpt><trkpt lat="38.26459" lon="-119.61212"><ele>3157.0</ele></trkpt><trkpt lat="38.26454" lon="-119.61216999999999"><ele>3158.0</ele></trkpt><trkpt lat="38.26452" lon="-119.61221999999998"><ele>3159.0</ele></trkpt><trkpt lat="38.26451958150088" lon="-119.6122302532284"><ele>3159.0</ele></trkpt><trkpt lat="38.26451529287046" lon="-119.61233532468583"><ele>3160.3500185678713</ele></trkpt><trkpt lat="38.2645" lon="-119.61270999999999"><ele>3165.0</ele></trkpt><trkpt lat="38.26446" lon="-119.61288000000002"><ele>3167.0</ele></trkpt><trkpt lat="38.26433" lon="-119.61313999999999"><ele>3170.5531803671024</ele></trkpt><trkpt lat="38.26433" lon="-119.61322000000001"><ele>3171.5788764455356</ele></trkpt><trkpt lat="38.26441" lon="-119.61343999999997"><ele>3174.0</ele></trkpt><trkpt lat="38.26441" lon="-119.61347999999998"><ele>3174.6275188847294</ele></trkpt><trkpt lat="38.26435" lon="-119.61351000000002"><ele>3175.513613005415</ele></trkpt><trkpt lat="38.26435" lon="-119.61351000000002"><ele>3175.513613005415</ele></trkpt><trkpt lat="38.26435" lon="-119.61351000000002"><ele>3175.513613005415</ele></trkpt><trkpt lat="38.26402" lon="-119.61327"><ele>3180.0503802262247</ele></trkpt><trkpt lat="38.26389" lon="-119.61311999999998"><ele>3182.785525060724</ele></trkpt><trkpt lat="38.26381" lon="-119.61301000000003"><ele>3184.207832887303</ele></trkpt><trkpt lat="38.26372" lon="-119.61277000000001"><ele>3186.94377316178</ele></trkpt><trkpt lat="38.26336" lon="-119.61214000000001"><ele>3197.224405085668</ele></trkpt><trkpt lat="38.26318" lon="-119.61189999999999"><ele>3203.0</ele></trkpt><trkpt lat="38.26292" lon="-119.61144999999999"><ele>3212.9091022224165</ele></trkpt><trkpt lat="38.26285" lon="-119.61142000000001"><ele>3214.0</ele></trkpt><trkpt lat="38.26278" lon="-119.61149"><ele>3215.649769483134</ele></trkpt><trkpt lat="38.26268" lon="-119.6123"><ele>3224.0</ele></trkpt><trkpt lat="38.26261" lon="-119.61234000000002"><ele>3225.739910410717</ele></trkpt><trkpt lat="38.26253" lon="-119.61221"><ele>3227.739257834</ele></trkpt><trkpt lat="38.2624" lon="-119.61176999999998"><ele>3233.0</ele></trkpt><trkpt lat="38.26231" lon="-119.61154999999997"><ele>3236.135821372064</ele></trkpt><trkpt lat="38.26227" lon="-119.61111"><ele>3241.694002202942</ele></trkpt><trkpt lat="38.26223" lon="-119.61106000000001"><ele>3242.0</ele></trkpt><trkpt lat="38.26216" lon="-119.61104"><ele>3242.0</ele></trkpt><trkpt lat="38.26187" lon="-119.61124999999998"><ele>3244.0</ele></trkpt><trkpt lat="38.26176" lon="-119.61126999999999"><ele>3245.0</ele></trkpt><trkpt lat="38.26156" lon="-119.61142000000001"><ele>3247.6927964454517</ele></trkpt><trkpt lat="38.26135" lon="-119.61175000000003"><ele>3250.546986339148</ele></trkpt><trkpt lat="38.26076" lon="-119.61241000000001"><ele>3251.0</ele></trkpt><trkpt lat="38.26034" lon="-119.61270999999999"><ele>3247.0</ele></trkpt><trkpt lat="38.26001" lon="-119.61301000000003"><ele>3243.0</ele></trkpt><trkpt lat="38.25998" lon="-119.61307999999997"><ele>3242.0</ele></trkpt><trkpt lat="38.2599799982587" lon="-119.61308000111586"><ele>3242.0</ele></trkpt><trkpt lat="38.2599799982587" lon="-119.61308000111586"><ele>3242.0</ele></trkpt><trkpt lat="38.25996" lon="-119.61324000000002"><ele>3240.987559196625</ele></trkpt><trkpt lat="38.26002" lon="-119.61340999999999"><ele>3240.0</ele></trkpt><trkpt lat="38.26024" lon="-119.61382000000003"><ele>3236.780454657768</ele></trkpt><trkpt lat="38.26028944526926" lon="-119.61388180658656"><ele>3236.0</ele></trkpt><trkpt lat="38.26031310329653" lon="-119.61391137891513"><ele>3235.9463757564536</ele></trkpt><trkpt lat="38.26064" lon="-119.61432000000002"><ele>3231.0</ele></trkpt><trkpt lat="38.26069" lon="-119.61448000000001"><ele>3228.7913521589103</ele></trkpt><trkpt lat="38.26069" lon="-119.61448000000001"><ele>3228.7913521589103</ele></trkpt><trkpt lat="38.26143" lon="-119.61522000000002"><ele>3231.0478665615847</ele></trkpt><trkpt lat="38.26153" lon="-119.61535000000003"><ele>3231.024725533743</ele></trkpt><trkpt lat="38.26159" lon="-119.61536999999998"><ele>3231.943601203151</ele></trkpt><trkpt lat="38.26169" lon="-119.61556999999999"><ele>3229.9666020645936</ele></trkpt><trkpt lat="38.26199" lon="-119.61590000000001"><ele>3231.460952175781</ele></trkpt><trkpt lat="38.2623" lon="-119.61633999999998"><ele>3228.015991956205</ele></trkpt><trkpt lat="38.26241" lon="-119.61642999999998"><ele>3227.892699899321</ele></trkpt><trkpt lat="38.26255" lon="-119.61660999999998"><ele>3226.1345419059508</ele></trkpt><trkpt lat="38.26267" lon="-119.61666000000002"><ele>3227.086651816618</ele></trkpt><trkpt lat="38.26326" lon="-119.61703999999997"><ele>3224.332891600676</ele></trkpt><trkpt lat="38.2634" lon="-119.61707999999999"><ele>3225.0796894130362</ele></trkpt><trkpt lat="38.2635" lon="-119.61716000000001"><ele>3225.0</ele></trkpt><trkpt lat="38.26361" lon="-119.6173"><ele>3225.0</ele></trkpt><trkpt lat="38.26367" lon="-119.61748999999998"><ele>3224.1754713561386</ele></trkpt><trkpt lat="38.26369" lon="-119.61795999999998"><ele>3222.362562853843</ele></trkpt><trkpt lat="38.26379" lon="-119.61827"><ele>3221.3500175594772</ele></trkpt><trkpt lat="38.26381" lon="-119.61842000000001"><ele>3219.52814173546</ele></trkpt><trkpt lat="38.26408" lon="-119.61914000000002"><ele>3208.7697019142415</ele></trkpt><trkpt lat="38.26408" lon="-119.61914000000002"><ele>3208.7697019142415</ele></trkpt><trkpt lat="38.26424" lon="-119.61937"><ele>3205.0062454942617</ele></trkpt><trkpt lat="38.26426218619652" lon="-119.61942872816724"><ele>3204.0238296716234</ele></trkpt><trkpt lat="38.26426218619652" lon="-119.61942872816724"><ele>3204.0238296716234</ele></trkpt><trkpt lat="38.26441" lon="-119.61982"><ele>3199.0</ele></trkpt><trkpt lat="38.26444" lon="-119.62000999999998"><ele>3197.0</ele></trkpt><trkpt lat="38.26456" lon="-119.62018"><ele>3196.062889858186</ele></trkpt><trkpt lat="38.26459" lon="-119.62027"><ele>3196.0</ele></trkpt><trkpt lat="38.26458" lon="-119.62056000000001"><ele>3193.188465435058</ele></trkpt><trkpt lat="38.2647" lon="-119.62104"><ele>3193.305729283132</ele></trkpt><trkpt lat="38.26486" lon="-119.62133"><ele>3195.897795791272</ele></trkpt><trkpt lat="38.265" lon="-119.62166000000002"><ele>3198.117767840624</ele></trkpt><trkpt lat="38.26503" lon="-119.62184000000002"><ele>3196.898437814787</ele></trkpt><trkpt lat="38.2652982184021" lon="-119.6227936654297"><ele>3200.818752322346</ele></trkpt><trkpt lat="38.26530804821623" lon="-119.62282861470976"><ele>3201.0</ele></trkpt><trkpt lat="38.26548" lon="-119.62344000000002"><ele>3205.6085756588727</ele></trkpt><trkpt lat="38.26557" lon="-119.62423000000001"><ele>3205.9506230838597</ele></trkpt><trkpt lat="38.26569" lon="-119.62464999999997"><ele>3209.0733632817864</ele></trkpt><trkpt lat="38.26576" lon="-119.62518"><ele>3207.228300495073</ele></trkpt><trkpt lat="38.26597" lon="-119.62585000000001"><ele>3207.5135983885266</ele></trkpt><trkpt lat="38.26606" lon="-119.62596000000002"><ele>3210.024445615283</ele></trkpt><trkpt lat="38.26615" lon="-119.62628000000001"><ele>3208.3773097079247</ele></trkpt><trkpt lat="38.26626" lon="-119.62644999999998"><ele>3209.9065399058163</ele></trkpt><trkpt lat="38.26636" lon="-119.62667999999996"><ele>3209.842212304473</ele></trkpt><trkpt lat="38.26646" lon="-119.62680999999998"><ele>3210.859112428967</ele></trkpt><trkpt lat="38.26661" lon="-119.62714"><ele>3210.4784346667116</ele></trkpt><trkpt lat="38.26681" lon="-119.62739999999997"><ele>3213.552839215845</ele></trkpt><trkpt lat="38.26693" lon="-119.62763999999999"><ele>3213.270561495022</ele></trkpt><trkpt lat="38.26765" lon="-119.62877000000003"><ele>3213.8465887519556</ele></trkpt><trkpt lat="38.26794" lon="-119.62919"><ele>3210.0</ele></trkpt><trkpt lat="38.26848" lon="-119.62967000000003"><ele>3213.5412905888475</ele></trkpt><trkpt lat="38.26864" lon="-119.62995000000001"><ele>3214.1777601912618</ele></trkpt><trkpt lat="38.26867" lon="-119.6302"><ele>3213.0</ele></trkpt><trkpt lat="38.26868" lon="-119.63078999999999"><ele>3207.5521059706807</ele></trkpt><trkpt lat="38.26908" lon="-119.63137"><ele>3207.168458193686</ele></trkpt><trkpt lat="38.26916" lon="-119.63164"><ele>3206.044357292354</ele></trkpt><trkpt lat="38.26913" lon="-119.63170000000002"><ele>3206.0</ele></trkpt><trkpt lat="38.26899" lon="-119.63177999999999"><ele>3204.953330080956</ele></trkpt><trkpt lat="38.26893" lon="-119.63193000000001"><ele>3205.391796702519</ele></trkpt><trkpt lat="38.26914" lon="-119.6325"><ele>3205.857176395133</ele></trkpt><trkpt lat="38.2692" lon="-119.63274999999999"><ele>3206.0</ele></trkpt><trkpt lat="38.26929" lon="-119.63290999999998"><ele>3206.609301004749</ele></trkpt><trkpt lat="38.26931" lon="-119.63303000000002"><ele>3205.9482244476676</ele></trkpt><trkpt lat="38.26943" lon="-119.63321000000002"><ele>3208.0584633531976</ele></trkpt><trkpt lat="38.26972" lon="-119.63349"><ele>3211.2855551671237</ele></trkpt><trkpt lat="38.27011" lon="-119.63394"><ele>3213.0</ele></trkpt><trkpt lat="38.2702" lon="-119.63396"><ele>3212.8670684443787</ele></trkpt><trkpt lat="38.27024" lon="-119.63391000000001"><ele>3213.1671366939318</ele></trkpt><trkpt lat="38.2703" lon="-119.63391000000001"><ele>3211.1972373323515</ele></trkpt><trkpt lat="38.27037" lon="-119.63376"><ele>3214.024517522331</ele></trkpt><trkpt lat="38.27047" lon="-119.63368000000003"><ele>3214.9160142205656</ele></trkpt><trkpt lat="38.27064" lon="-119.63373000000001"><ele>3216.0</ele></trkpt><trkpt lat="38.27096" lon="-119.63395000000003"><ele>3215.0</ele></trkpt><trkpt lat="38.27104" lon="-119.63407000000001"><ele>3213.906863878602</ele></trkpt><trkpt lat="38.27115" lon="-119.63407000000001"><ele>3215.784905795656</ele></trkpt><trkpt lat="38.27142" lon="-119.63437999999996"><ele>3212.0581146141412</ele></trkpt><trkpt lat="38.27164" lon="-119.63449000000003"><ele>3213.043044422997</ele></trkpt><trkpt lat="38.27187" lon="-119.63477999999998"><ele>3210.0</ele></trkpt><trkpt lat="38.27222" lon="-119.63538"><ele>3203.690271999687</ele></trkpt><trkpt lat="38.27269" lon="-119.63569000000001"><ele>3204.0</ele></trkpt><trkpt lat="38.27269" lon="-119.63569000000001"><ele>3204.0</ele></trkpt><trkpt lat="38.27305" lon="-119.63589000000002"><ele>3204.922549332492</ele></trkpt><trkpt lat="38.27325" lon="-119.63596999999999"><ele>3205.862802376714</ele></trkpt><trkpt lat="38.27355" lon="-119.63616000000002"><ele>3204.339637332596</ele></trkpt><trkpt lat="38.27374" lon="-119.63620000000003"><ele>3205.0</ele></trkpt><trkpt lat="38.27382" lon="-119.63620000000003"><ele>3203.0</ele></trkpt><trkpt lat="38.27386" lon="-119.63614000000001"><ele>3202.0</ele></trkpt><trkpt lat="38.27383" lon="-119.63608999999997"><ele>3203.0</ele></trkpt><trkpt lat="38.27384" lon="-119.63599999999997"><ele>3204.7961777793244</ele></trkpt><trkpt lat="38.27418" lon="-119.63583"><ele>3208.0</ele></trkpt><trkpt lat="38.27424" lon="-119.63585"><ele>3208.0</ele></trkpt><trkpt lat="38.27434" lon="-119.63580999999999"><ele>3209.348330367735</ele></trkpt><trkpt lat="38.2745" lon="-119.63585"><ele>3210.0</ele></trkpt><trkpt lat="38.27457" lon="-119.63589999999999"><ele>3210.0</ele></trkpt><trkpt lat="38.27489" lon="-119.63593000000003"><ele>3210.0</ele></trkpt><trkpt lat="38.27522" lon="-119.63621"><ele>3211.0</ele></trkpt><trkpt lat="38.27544" lon="-119.63621"><ele>3211.0</ele></trkpt><trkpt lat="38.27544" lon="-119.63621"><ele>3211.0</ele></trkpt><trkpt lat="38.27544" lon="-119.63621"><ele>3211.0</ele></trkpt><trkpt lat="38.27577" lon="-119.63689"><ele>3211.0</ele></trkpt><trkpt lat="38.276" lon="-119.63765999999998"><ele>3212.0</ele></trkpt><trkpt lat="38.27605" lon="-119.63792999999998"><ele>3211.0</ele></trkpt><trkpt lat="38.27617" lon="-119.63835"><ele>3211.047691018888</ele></trkpt><trkpt lat="38.27622" lon="-119.63869"><ele>3210.1396426390857</ele></trkpt><trkpt lat="38.2769" lon="-119.64076"><ele>3210.507912075147</ele></trkpt><trkpt lat="38.27711" lon="-119.64111000000003"><ele>3212.6363723556346</ele></trkpt><trkpt lat="38.27711" lon="-119.64111000000003"><ele>3212.6363723556346</ele></trkpt><trkpt lat="38.27761" lon="-119.64188000000001"><ele>3216.5781952071457</ele></trkpt><trkpt lat="38.27785" lon="-119.64240000000001"><ele>3216.4399521080777</ele></trkpt><trkpt lat="38.27847" lon="-119.6431"><ele>3227.649999987582</ele></trkpt><trkpt lat="38.27857" lon="-119.64323000000002"><ele>3229.649236962199</ele></trkpt><trkpt lat="38.2786" lon="-119.64332999999999"><ele>3229.0832163882214</ele></trkpt><trkpt lat="38.27877" lon="-119.64350000000002"><ele>3231.651902904692</ele></trkpt><trkpt lat="38.27901" lon="-119.64362"><ele>3235.5228622715026</ele></trkpt><trkpt lat="38.2791" lon="-119.64364"><ele>3237.0</ele></trkpt><trkpt lat="38.27919" lon="-119.64357999999999"><ele>3239.4567763563246</ele></trkpt><trkpt lat="38.27941" lon="-119.64355999999998"><ele>3240.7710288638496</ele></trkpt><trkpt lat="38.27946" lon="-119.64351999999997"><ele>3241.485964337364</ele></trkpt><trkpt lat="38.27958" lon="-119.64332000000002"><ele>3242.0</ele></trkpt><trkpt lat="38.27965" lon="-119.64326"><ele>3243.3101439089514</ele></trkpt><trkpt lat="38.27978" lon="-119.64328999999998"><ele>3242.4866814372563</ele></trkpt><trkpt lat="38.28005" lon="-119.64359000000002"><ele>3246.923459556885</ele></trkpt><trkpt lat="38.28042" lon="-119.64389"><ele>3250.42535739718</ele></trkpt><trkpt lat="38.28058" lon="-119.64399000000003"><ele>3252.564810668584</ele></trkpt><trkpt lat="38.2809" lon="-119.64409"><ele>3256.2251484449953</ele></trkpt><trkpt lat="38.2812" lon="-119.64425"><ele>3260.6816888893954</ele></trkpt><trkpt lat="38.28155" lon="-119.64440000000002"><ele>3263.6721955570392</ele></trkpt><trkpt lat="38.28206" lon="-119.64474999999999"><ele>3268.9833777775057</ele></trkpt><trkpt lat="38.28261" lon="-119.64517999999998"><ele>3274.0228302213363</ele></trkpt><trkpt lat="38.28293" lon="-119.64531"><ele>3276.0812693336047</ele></trkpt><trkpt lat="38.28303" lon="-119.64530000000002"><ele>3276.781859742274</ele></trkpt><trkpt lat="38.28322" lon="-119.64513"><ele>3277.4941753759213</ele></trkpt><trkpt lat="38.2834" lon="-119.64508000000001"><ele>3280.1450536546313</ele></trkpt><trkpt lat="38.28356" lon="-119.64492000000001"><ele>3280.814883965779</ele></trkpt><trkpt lat="38.28378" lon="-119.64476000000002"><ele>3282.978570898718</ele></trkpt><trkpt lat="38.28406" lon="-119.6445"><ele>3286.3325333334506</ele></trkpt><trkpt lat="38.28456" lon="-119.64375000000001"><ele>3288.650713238865</ele></trkpt><trkpt lat="38.28499" lon="-119.64321000000001"><ele>3294.80059581995</ele></trkpt><trkpt lat="38.2851179307694" lon="-119.64299982802169"><ele>3295.3961076196283</ele></trkpt><trkpt lat="38.28513820584379" lon="-119.64296651966151"><ele>3295.520199158282</ele></trkpt><trkpt lat="38.28555" lon="-119.64229"><ele>3299.0</ele></trkpt><trkpt lat="38.28605" lon="-119.64157"><ele>3302.9430085375425</ele></trkpt><trkpt lat="38.28637" lon="-119.64121999999998"><ele>3304.86032262046</ele></trkpt><trkpt lat="38.2865" lon="-119.64111000000003"><ele>3305.64301222794</ele></trkpt><trkpt lat="38.2865" lon="-119.64111000000003"><ele>3305.64301222794</ele></trkpt><trkpt lat="38.28696" lon="-119.64075000000003"><ele>3308.435956421892</ele></trkpt><trkpt lat="38.28712" lon="-119.64069"><ele>3308.833598317603</ele></trkpt><trkpt lat="38.28724" lon="-119.64071000000001"><ele>3309.0</ele></trkpt><trkpt lat="38.28735" lon="-119.64080000000001"><ele>3309.0</ele></trkpt><trkpt lat="38.2874" lon="-119.64087"><ele>3309.01793411703</ele></trkpt><trkpt lat="38.28748" lon="-119.64111000000003"><ele>3307.5825239222977</ele></trkpt><trkpt lat="38.28748" lon="-119.64111000000003"><ele>3307.5825239222977</ele></trkpt><trkpt lat="38.28758" lon="-119.64148999999998"><ele>3308.479557744693</ele></trkpt><trkpt lat="38.28766" lon="-119.64168999999998"><ele>3307.253847054018</ele></trkpt><trkpt lat="38.28785" lon="-119.64199000000002"><ele>3304.392150823027</ele></trkpt><trkpt lat="38.28791" lon="-119.64202"><ele>3304.0</ele></trkpt><trkpt lat="38.28791" lon="-119.64202"><ele>3304.0</ele></trkpt><trkpt lat="38.28791" lon="-119.64202"><ele>3304.0</ele></trkpt><trkpt lat="38.28796" lon="-119.64195999999998"><ele>3303.9599537770264</ele></trkpt><trkpt lat="38.288" lon="-119.64175999999998"><ele>3300.6392782214098</ele></trkpt><trkpt lat="38.28812" lon="-119.64159999999998"><ele>3297.1167602140467</ele></trkpt><trkpt lat="38.28831" lon="-119.64120000000003"><ele>3291.541386667639</ele></trkpt><trkpt lat="38.28832" lon="-119.64111000000003"><ele>3290.1783578366085</ele></trkpt><trkpt lat="38.28832" lon="-119.64111000000003"><ele>3290.1783578366085</ele></trkpt><trkpt lat="38.28835" lon="-119.64087"><ele>3287.0</ele></trkpt><trkpt lat="38.28841" lon="-119.64083"><ele>3285.298136889003</ele></trkpt><trkpt lat="38.28848" lon="-119.64085"><ele>3284.2302044448443</ele></trkpt><trkpt lat="38.28858" lon="-119.64093000000003"><ele>3283.9584746682085</ele></trkpt><trkpt lat="38.28877" lon="-119.64103"><ele>3280.3862286238</ele></trkpt><trkpt lat="38.28885" lon="-119.64111000000003"><ele>3279.364489200525</ele></trkpt><trkpt lat="38.28885" lon="-119.64111000000003"><ele>3279.364489200525</ele></trkpt><trkpt lat="38.28894" lon="-119.64121"><ele>3278.004998703862</ele></trkpt><trkpt lat="38.28913" lon="-119.64134999999999"><ele>3274.208678525791</ele></trkpt><trkpt lat="38.28965" lon="-119.64163000000002"><ele>3268.0</ele></trkpt><trkpt lat="38.28975" lon="-119.64181000000002"><ele>3268.0</ele></trkpt><trkpt lat="38.28994" lon="-119.64201000000003"><ele>3269.0</ele></trkpt><trkpt lat="38.28994" lon="-119.64201000000003"><ele>3269.0</ele></trkpt><trkpt lat="38.29023" lon="-119.64233000000002"><ele>3270.0</ele></trkpt><trkpt lat="38.29033" lon="-119.64247999999998"><ele>3271.0</ele></trkpt><trkpt lat="38.29039" lon="-119.64261999999997"><ele>3271.0</ele></trkpt><trkpt lat="38.29046" lon="-119.64264000000003"><ele>3272.375617709889</ele></trkpt><trkpt lat="38.29069" lon="-119.64256"><ele>3271.9219804448076</ele></trkpt><trkpt lat="38.29096" lon="-119.64243999999997"><ele>3271.3295751092955</ele></trkpt><trkpt lat="38.29108" lon="-119.64233999999999"><ele>3270.261818756136</ele></trkpt><trkpt lat="38.29117" lon="-119.64211999999998"><ele>3267.0</ele></trkpt><trkpt lat="38.29134" lon="-119.64188999999999"><ele>3264.0</ele></trkpt><trkpt lat="38.29137" lon="-119.64175"><ele>3263.0</ele></trkpt><trkpt lat="38.29148" lon="-119.64168000000001"><ele>3262.0</ele></trkpt><trkpt lat="38.29194" lon="-119.64148"><ele>3259.7770273860533</ele></trkpt><trkpt lat="38.29219" lon="-119.64125000000001"><ele>3259.2616139196175</ele></trkpt><trkpt lat="38.29226" lon="-119.64111000000003"><ele>3259.645219724956</ele></trkpt><trkpt lat="38.29226" lon="-119.64111000000003"><ele>3259.645219724956</ele></trkpt><trkpt lat="38.29247" lon="-119.6406"><ele>3257.968876467853</ele></trkpt><trkpt lat="38.2926" lon="-119.63977"><ele>3257.645170971751</ele></trkpt><trkpt lat="38.29268751697221" lon="-119.63954457749583"><ele>3259.8417762592435</ele></trkpt><trkpt lat="38.29268751697221" lon="-119.63954457749583"><ele>3259.8417762592435</ele></trkpt><trkpt lat="38.29293" lon="-119.63891999999998"><ele>3266.24002860114</ele></trkpt><trkpt lat="38.29297" lon="-119.63848999999999"><ele>3267.151474818299</ele></trkpt><trkpt lat="38.29305" lon="-119.63827000000003"><ele>3270.3589432439767</ele></trkpt><trkpt lat="38.29329" lon="-119.63779"><ele>3278.240206991788</ele></trkpt><trkpt lat="38.29336" lon="-119.63756999999998"><ele>3279.772855574265</ele></trkpt><trkpt lat="38.29341" lon="-119.63749999999999"><ele>3278.1088888887316</ele></trkpt><trkpt lat="38.2935" lon="-119.63749999999999"><ele>3280.1947905439883</ele></trkpt><trkpt lat="38.29356" lon="-119.63743999999997"><ele>3280.3126862212084</ele></trkpt><trkpt lat="38.29368" lon="-119.63725"><ele>3281.709169444829</ele></trkpt><trkpt lat="38.2937151388534" lon="-119.6372192535033"><ele>3281.9507406729545</ele></trkpt><trkpt lat="38.29377423457137" lon="-119.63716754478742"><ele>3282.454986468247</ele></trkpt><trkpt lat="38.29368" lon="-119.63725"><ele>3281.709169444829</ele></trkpt><trkpt lat="38.29356" lon="-119.63743999999997"><ele>3280.3126862212084</ele></trkpt><trkpt lat="38.2935" lon="-119.63749999999999"><ele>3280.1947905439883</ele></trkpt><trkpt lat="38.29341" lon="-119.63749999999999"><ele>3278.1088888887316</ele></trkpt><trkpt lat="38.29336" lon="-119.63756999999998"><ele>3279.772855574265</ele></trkpt><trkpt lat="38.29329" lon="-119.63779"><ele>3278.240206991788</ele></trkpt><trkpt lat="38.29305" lon="-119.63827000000003"><ele>3270.3589432439767</ele></trkpt><trkpt lat="38.29297" lon="-119.63848999999999"><ele>3267.151474818299</ele></trkpt><trkpt lat="38.29293" lon="-119.63891999999998"><ele>3266.24002860114</ele></trkpt><trkpt lat="38.29268751697221" lon="-119.63954457749583"><ele>3259.8417762592435</ele></trkpt><trkpt lat="38.29268" lon="-119.63954000000001"><ele>3259.3954313043505</ele></trkpt><trkpt lat="38.29247" lon="-119.63959"><ele>3252.0</ele></trkpt><trkpt lat="38.2923" lon="-119.63938999999999"><ele>3243.8635881611594</ele></trkpt><trkpt lat="38.29224" lon="-119.63936000000001"><ele>3241.7911715563387</ele></trkpt><trkpt lat="38.29218" lon="-119.63925999999998"><ele>3238.0384140872625</ele></trkpt><trkpt lat="38.29205" lon="-119.63920000000002"><ele>3234.334631112404</ele></trkpt><trkpt lat="38.29202" lon="-119.63911000000002"><ele>3231.3173682867027</ele></trkpt><trkpt lat="38.29191" lon="-119.63905999999997"><ele>3228.9381861802694</ele></trkpt><trkpt lat="38.29183" lon="-119.63896"><ele>3225.1384615124352</ele></trkpt><trkpt lat="38.2917" lon="-119.63893999999999"><ele>3221.3781941633356</ele></trkpt><trkpt lat="38.29168" lon="-119.63887"><ele>3219.956297287184</ele></trkpt><trkpt lat="38.29156" lon="-119.63884000000002"><ele>3215.5574151119217</ele></trkpt><trkpt lat="38.29112" lon="-119.63884999999999"><ele>3205.771779377985</ele></trkpt><trkpt lat="38.29104" lon="-119.6388"><ele>3203.016141138971</ele></trkpt><trkpt lat="38.29089" lon="-119.63882999999998"><ele>3200.0</ele></trkpt><trkpt lat="38.29078" lon="-119.63877000000002"><ele>3196.7026803412627</ele></trkpt><trkpt lat="38.29067786123163" lon="-119.6387972370049"><ele>3193.7881370480363</ele></trkpt><trkpt lat="38.29066378008913" lon="-119.63880099198343"><ele>3193.416919848416</ele></trkpt><trkpt lat="38.29063" lon="-119.63881000000003"><ele>3192.1070050821427</ele></trkpt><trkpt lat="38.29054" lon="-119.63878"><ele>3188.8394800541787</ele></trkpt><trkpt lat="38.29052" lon="-119.63872000000003"><ele>3186.135333295587</ele></trkpt><trkpt lat="38.29045" lon="-119.63869999999997"><ele>3184.0168281891383</ele></trkpt><trkpt lat="38.29042" lon="-119.63873999999998"><ele>3184.815006022408</ele></trkpt><trkpt lat="38.29037" lon="-119.63872000000003"><ele>3182.225591881842</ele></trkpt><trkpt lat="38.29032" lon="-119.63864999999998"><ele>3179.781524364959</ele></trkpt><trkpt lat="38.29022" lon="-119.63862"><ele>3177.099725627822</ele></trkpt><trkpt lat="38.29017" lon="-119.63851999999997"><ele>3174.2309993535446</ele></trkpt><trkpt lat="38.29002" lon="-119.63846999999998"><ele>3172.0</ele></trkpt><trkpt lat="38.29002504186506" lon="-119.63833891150853"><ele>3172.0</ele></trkpt><trkpt lat="38.29002571411814" lon="-119.63832143292842"><ele>3171.3904379708692</ele></trkpt><trkpt lat="38.29002636100972" lon="-119.63830461374732"><ele>3171.0</ele></trkpt><trkpt lat="38.29002636100972" lon="-119.63830461374732"><ele>3171.0</ele></trkpt><trkpt lat="38.29003" lon="-119.63821000000002"><ele>3171.0</ele></trkpt><trkpt lat="38.28999" lon="-119.63815"><ele>3171.0</ele></trkpt><trkpt lat="38.29" lon="-119.63806"><ele>3171.0</ele></trkpt><trkpt lat="38.28994" lon="-119.63783000000001"><ele>3170.0</ele></trkpt><trkpt lat="38.28994" lon="-119.63783000000001"><ele>3170.0</ele></trkpt><trkpt lat="38.28983" lon="-119.63773000000003"><ele>3169.9705934778212</ele></trkpt><trkpt lat="38.28978" lon="-119.63760000000002"><ele>3169.0</ele></trkpt><trkpt lat="38.28977" lon="-119.63751000000002"><ele>3169.0</ele></trkpt><trkpt lat="38.28977" lon="-119.63751000000002"><ele>3169.0</ele></trkpt><trkpt lat="38.28967" lon="-119.63731999999999"><ele>3168.0</ele></trkpt><trkpt lat="38.28951" lon="-119.63711"><ele>3167.0</ele></trkpt><trkpt lat="38.28951" lon="-119.63711"><ele>3167.0</ele></trkpt><trkpt lat="38.28949" lon="-119.63698999999997"><ele>3165.988707025051</ele></trkpt><trkpt lat="38.28942" lon="-119.63695999999999"><ele>3167.0</ele></trkpt><trkpt lat="38.28938" lon="-119.63671999999997"><ele>3164.0</ele></trkpt><trkpt lat="38.28931" lon="-119.63657999999998"><ele>3162.7737735156743</ele></trkpt><trkpt lat="38.28919" lon="-119.63644999999997"><ele>3160.1753422203474</ele></trkpt><trkpt lat="38.28868" lon="-119.63611000000003"><ele>3155.3301937794313</ele></trkpt><trkpt lat="38.28814" lon="-119.63553999999999"><ele>3131.766268443782</ele></trkpt><trkpt lat="38.28767" lon="-119.63513999999998"><ele>3123.124917332083</ele></trkpt><trkpt lat="38.28737" lon="-119.63475"><ele>3121.0</ele></trkpt><trkpt lat="38.28737" lon="-119.63475"><ele>3121.0</ele></trkpt><trkpt lat="38.28737" lon="-119.63463000000002"><ele>3121.0</ele></trkpt><trkpt lat="38.28734" lon="-119.63440000000003"><ele>3121.0</ele></trkpt><trkpt lat="38.28735" lon="-119.63421"><ele>3120.0620877526385</ele></trkpt><trkpt lat="38.28741" lon="-119.63414"><ele>3119.0</ele></trkpt><trkpt lat="38.28761" lon="-119.63407000000001"><ele>3112.2593031111173</ele></trkpt><trkpt lat="38.28767" lon="-119.63391999999999"><ele>3105.3483143616468</ele></trkpt><trkpt lat="38.28748" lon="-119.63337999999999"><ele>3088.0371317473455</ele></trkpt><trkpt lat="38.287098937162895" lon="-119.63288373211913"><ele>3075.999647447958</ele></trkpt><trkpt lat="38.28709510193413" lon="-119.63287873724681"><ele>3076.1585013954373</ele></trkpt><trkpt lat="38.28705" lon="-119.63281999999998"><ele>3075.8919092595715</ele></trkpt><trkpt lat="38.28707" lon="-119.63265999999999"><ele>3070.3861085558556</ele></trkpt><trkpt lat="38.28716" lon="-119.63254"><ele>3065.956135111861</ele></trkpt><trkpt lat="38.2872" lon="-119.63240000000002"><ele>3061.9916431220463</ele></trkpt><trkpt lat="38.28716" lon="-119.63231999999999"><ele>3059.7033919999376</ele></trkpt><trkpt lat="38.28704" lon="-119.63222999999999"><ele>3056.0</ele></trkpt><trkpt lat="38.28702" lon="-119.63207999999997"><ele>3051.0</ele></trkpt><trkpt lat="38.28703" lon="-119.63193000000001"><ele>3047.5280746673234</ele></trkpt><trkpt lat="38.28696" lon="-119.63184000000001"><ele>3046.0</ele></trkpt><trkpt lat="38.28694" lon="-119.63170000000002"><ele>3044.0</ele></trkpt><trkpt lat="38.28684" lon="-119.63150999999999"><ele>3041.9709713240927</ele></trkpt><trkpt lat="38.28669" lon="-119.63108999999997"><ele>3037.1013440733645</ele></trkpt><trkpt lat="38.2866" lon="-119.63105000000002"><ele>3037.5171022228897</ele></trkpt><trkpt lat="38.28632" lon="-119.63099"><ele>3031.0</ele></trkpt><trkpt lat="38.28621" lon="-119.63092"><ele>3029.0</ele></trkpt><trkpt lat="38.28609" lon="-119.63067999999998"><ele>3026.0</ele></trkpt><trkpt lat="38.28597" lon="-119.63062000000002"><ele>3021.0069046686335</ele></trkpt><trkpt lat="38.28592" lon="-119.63033000000001"><ele>3007.962670222856</ele></trkpt><trkpt lat="38.28583" lon="-119.63013000000001"><ele>2994.6419946672395</ele></trkpt><trkpt lat="38.2857" lon="-119.62995000000001"><ele>2984.219728600976</ele></trkpt><trkpt lat="38.28553" lon="-119.62979999999999"><ele>2973.26287999982</ele></trkpt><trkpt lat="38.28531" lon="-119.62977999999998"><ele>2967.865945913218</ele></trkpt><trkpt lat="38.28477" lon="-119.62964999999997"><ele>2951.2723733321764</ele></trkpt><trkpt lat="38.28446" lon="-119.62949000000003"><ele>2939.8772623668783</ele></trkpt><trkpt lat="38.28413" lon="-119.62918000000002"><ele>2934.0955221960767</ele></trkpt><trkpt lat="38.2841" lon="-119.62909000000002"><ele>2934.0</ele></trkpt><trkpt lat="38.28402" lon="-119.62901999999997"><ele>2933.0</ele></trkpt><trkpt lat="38.284" lon="-119.62887999999998"><ele>2932.0</ele></trkpt><trkpt lat="38.28359" lon="-119.62743999999998"><ele>2924.0</ele></trkpt><trkpt lat="38.28359" lon="-119.62743999999998"><ele>2924.0</ele></trkpt><trkpt lat="38.28333" lon="-119.62676999999996"><ele>2922.0</ele></trkpt><trkpt lat="38.28319" lon="-119.62655000000001"><ele>2923.0</ele></trkpt><trkpt lat="38.28276" lon="-119.62632000000002"><ele>2924.0</ele></trkpt><trkpt lat="38.28276" lon="-119.62632000000002"><ele>2924.0</ele></trkpt><trkpt lat="38.28276" lon="-119.62632000000002"><ele>2924.0</ele></trkpt><trkpt lat="38.2827" lon="-119.62649999999996"><ele>2923.924933064585</ele></trkpt><trkpt lat="38.28256" lon="-119.62669"><ele>2923.0</ele></trkpt><trkpt lat="38.28233" lon="-119.62687"><ele>2924.0</ele></trkpt><trkpt lat="38.28213" lon="-119.62693999999999"><ele>2925.0</ele></trkpt><trkpt lat="38.28193" lon="-119.62693000000002"><ele>2922.1261178180575</ele></trkpt><trkpt lat="38.28193" lon="-119.62693000000002"><ele>2922.1261178180575</ele></trkpt><trkpt lat="38.28187" lon="-119.62691999999998"><ele>2922.0</ele></trkpt><trkpt lat="38.28187" lon="-119.62691999999998"><ele>2922.0</ele></trkpt><trkpt lat="38.28161" lon="-119.62675999999999"><ele>2925.0</ele></trkpt><trkpt lat="38.28161" lon="-119.62675999999999"><ele>2925.0</ele></trkpt><trkpt lat="38.28161" lon="-119.62675999999999"><ele>2925.0</ele></trkpt><trkpt lat="38.28146" lon="-119.6266"><ele>2925.0</ele></trkpt><trkpt lat="38.28118" lon="-119.62639999999999"><ele>2925.4007720313966</ele></trkpt><trkpt lat="38.28107" lon="-119.62617999999998"><ele>2925.0</ele></trkpt><trkpt lat="38.28097" lon="-119.62527"><ele>2929.0</ele></trkpt><trkpt lat="38.28092" lon="-119.62509"><ele>2931.8366531375796</ele></trkpt><trkpt lat="38.28093" lon="-119.62497000000002"><ele>2932.242966424674</ele></trkpt><trkpt lat="38.2809" lon="-119.62475999999998"><ele>2932.0091745934938</ele></trkpt><trkpt lat="38.28075" lon="-119.62441000000001"><ele>2933.929314741865</ele></trkpt><trkpt lat="38.28073" lon="-119.62425999999999"><ele>2935.116685140878</ele></trkpt><trkpt lat="38.28074" lon="-119.62412999999998"><ele>2936.5229999814183</ele></trkpt><trkpt lat="38.28073" lon="-119.62367"><ele>2942.483990229115</ele></trkpt><trkpt lat="38.28066" lon="-119.62350000000004"><ele>2947.0922068802793</ele></trkpt><trkpt lat="38.28064075480299" lon="-119.6233460384239"><ele>2950.2131334405112</ele></trkpt><trkpt lat="38.280643732470736" lon="-119.62336985975344"><ele>2949.545525095233</ele></trkpt><trkpt lat="38.28063" lon="-119.62326000000002"><ele>2953.028008634555</ele></trkpt><trkpt lat="38.28064" lon="-119.62315999999998"><ele>2954.4598478898406</ele></trkpt><trkpt lat="38.28059" lon="-119.62275999999997"><ele>2965.899889609698</ele></trkpt><trkpt lat="38.28056" lon="-119.62265000000002"><ele>2967.0</ele></trkpt><trkpt lat="38.28056" lon="-119.62265000000002"><ele>2967.0</ele></trkpt><trkpt lat="38.28056" lon="-119.62265000000002"><ele>2967.0</ele></trkpt><trkpt lat="38.28032" lon="-119.62247000000002"><ele>2960.844435207874</ele></trkpt><trkpt lat="38.27992" lon="-119.6223"><ele>2954.7375466660596</ele></trkpt><trkpt lat="38.27942" lon="-119.62218000000001"><ele>2950.145141334273</ele></trkpt><trkpt lat="38.27887" lon="-119.62197000000003"><ele>2947.3584320019</ele></trkpt><trkpt lat="38.27868" lon="-119.62179000000003"><ele>2942.9945808758957</ele></trkpt><trkpt lat="38.27844" lon="-119.62143000000003"><ele>2942.0131807530197</ele></trkpt><trkpt lat="38.2782" lon="-119.62117"><ele>2939.0</ele></trkpt><trkpt lat="38.27818293557096" lon="-119.62104031033937"><ele>2938.3294572550803</ele></trkpt><trkpt lat="38.27817" lon="-119.62103000000002"><ele>2939.0536901294477</ele></trkpt><trkpt lat="38.27816227018046" lon="-119.62101454036093"><ele>2939.0</ele></trkpt><trkpt lat="38.27817683847723" lon="-119.62099397242696"><ele>2938.6030912290094</ele></trkpt><trkpt lat="38.27815" lon="-119.62079"><ele>2937.28472404927</ele></trkpt><trkpt lat="38.27804" lon="-119.62044000000003"><ele>2936.0</ele></trkpt><trkpt lat="38.27803" lon="-119.62025"><ele>2936.0</ele></trkpt><trkpt lat="38.27779" lon="-119.61972000000003"><ele>2933.0</ele></trkpt><trkpt lat="38.2776211484935" lon="-119.61946888750316"><ele>2932.0</ele></trkpt><trkpt lat="38.2776173260837" lon="-119.6194632025094"><ele>2932.0</ele></trkpt><trkpt lat="38.2774" lon="-119.61914000000002"><ele>2931.5717797156735</ele></trkpt><trkpt lat="38.2774" lon="-119.61914000000002"><ele>2931.5717797156735</ele></trkpt><trkpt lat="38.27691" lon="-119.61840000000001"><ele>2927.0</ele></trkpt><trkpt lat="38.27668" lon="-119.61811"><ele>2921.7068656590836</ele></trkpt><trkpt lat="38.27668" lon="-119.61811"><ele>2921.7068656590836</ele></trkpt><trkpt lat="38.27661" lon="-119.61783000000003"><ele>2921.0</ele></trkpt><trkpt lat="38.27661" lon="-119.61783000000003"><ele>2921.0</ele></trkpt><trkpt lat="38.27661" lon="-119.61783000000003"><ele>2921.0</ele></trkpt><trkpt lat="38.2768" lon="-119.61773"><ele>2921.0</ele></trkpt><trkpt lat="38.27695" lon="-119.61768999999998"><ele>2922.4266473091975</ele></trkpt><trkpt lat="38.27709" lon="-119.61768999999998"><ele>2924.705445149581</ele></trkpt><trkpt lat="38.27735" lon="-119.61777000000001"><ele>2925.624245333951</ele></trkpt><trkpt lat="38.27763" lon="-119.61775999999998"><ele>2925.0</ele></trkpt><trkpt lat="38.27783" lon="-119.61770999999999"><ele>2923.0</ele></trkpt><trkpt lat="38.27811016140362" lon="-119.61753040935662"><ele>2920.0</ele></trkpt><trkpt lat="38.27811016140362" lon="-119.61753040935662"><ele>2920.0</ele></trkpt><trkpt lat="38.27822" lon="-119.61746"><ele>2919.0</ele></trkpt><trkpt lat="38.27875" lon="-119.61727000000002"><ele>2916.0</ele></trkpt><trkpt lat="38.27886" lon="-119.61716000000001"><ele>2915.0</ele></trkpt><trkpt lat="38.27917" lon="-119.61675000000002"><ele>2914.0</ele></trkpt><trkpt lat="38.27956" lon="-119.61639000000002"><ele>2910.0</ele></trkpt><trkpt lat="38.27964" lon="-119.61622999999997"><ele>2908.0</ele></trkpt><trkpt lat="38.27973" lon="-119.6157"><ele>2905.0</ele></trkpt><trkpt lat="38.27995" lon="-119.61484999999999"><ele>2894.736355227229</ele></trkpt><trkpt lat="38.2802" lon="-119.61441000000002"><ele>2888.0</ele></trkpt><trkpt lat="38.2809" lon="-119.61302"><ele>2865.0</ele></trkpt><trkpt lat="38.28119" lon="-119.61273"><ele>2859.0</ele></trkpt><trkpt lat="38.28157" lon="-119.61225999999999"><ele>2851.367627065218</ele></trkpt><trkpt lat="38.28188" lon="-119.61214000000001"><ele>2846.8423558175564</ele></trkpt><trkpt lat="38.28243" lon="-119.61205000000001"><ele>2842.0</ele></trkpt><trkpt lat="38.28285" lon="-119.61178000000001"><ele>2839.0</ele></trkpt><trkpt lat="38.28316" lon="-119.61169999999998"><ele>2835.2192058392534</ele></trkpt><trkpt lat="38.283883090327876" lon="-119.61139938941426"><ele>2822.9402021951905</ele></trkpt><trkpt lat="38.28389387797193" lon="-119.61139490499147"><ele>2822.6221182554427</ele></trkpt><trkpt lat="38.28405" lon="-119.61133000000001"><ele>2820.5058538555318</ele></trkpt><trkpt lat="38.28447" lon="-119.61138"><ele>2817.0727314203978</ele></trkpt><trkpt lat="38.28477" lon="-119.61135999999999"><ele>2814.0</ele></trkpt><trkpt lat="38.28502" lon="-119.61127999999997"><ele>2814.0</ele></trkpt><trkpt lat="38.28526" lon="-119.61095"><ele>2815.0</ele></trkpt><trkpt lat="38.28543" lon="-119.61083000000002"><ele>2815.0</ele></trkpt><trkpt lat="38.2858" lon="-119.61063999999999"><ele>2815.0</ele></trkpt><trkpt lat="38.28602" lon="-119.61041999999998"><ele>2815.0</ele></trkpt><trkpt lat="38.2861" lon="-119.61031000000003"><ele>2814.0</ele></trkpt><trkpt lat="38.28626" lon="-119.60978999999998"><ele>2811.0</ele></trkpt><trkpt lat="38.28635" lon="-119.60908999999998"><ele>2806.0</ele></trkpt><trkpt lat="38.2865" lon="-119.60888999999997"><ele>2804.0</ele></trkpt><trkpt lat="38.28708" lon="-119.60843"><ele>2796.0</ele></trkpt><trkpt lat="38.28778" lon="-119.60762"><ele>2786.0</ele></trkpt><trkpt lat="38.2881" lon="-119.60746"><ele>2781.469869385615</ele></trkpt><trkpt lat="38.28856" lon="-119.60692"><ele>2774.2361665964127</ele></trkpt><trkpt lat="38.28866" lon="-119.60685000000001"><ele>2772.0</ele></trkpt><trkpt lat="38.28887" lon="-119.60676999999998"><ele>2767.8299033027142</ele></trkpt><trkpt lat="38.28901" lon="-119.60665"><ele>2765.0</ele></trkpt><trkpt lat="38.28943" lon="-119.60622000000001"><ele>2756.72899111306</ele></trkpt><trkpt lat="38.2898" lon="-119.60572000000002"><ele>2747.0</ele></trkpt><trkpt lat="38.28994" lon="-119.60559"><ele>2744.996563025007</ele></trkpt><trkpt lat="38.28994" lon="-119.60559"><ele>2744.996563025007</ele></trkpt><trkpt lat="38.2901" lon="-119.60554000000002"><ele>2742.0</ele></trkpt><trkpt lat="38.29062" lon="-119.60550999999998"><ele>2733.0</ele></trkpt><trkpt lat="38.29074" lon="-119.60548"><ele>2730.8235652678068</ele></trkpt><trkpt lat="38.29084" lon="-119.60541"><ele>2728.94460703445</ele></trkpt><trkpt lat="38.29099" lon="-119.60518000000002"><ele>2725.041984593107</ele></trkpt><trkpt lat="38.29102" lon="-119.60494"><ele>2722.0</ele></trkpt><trkpt lat="38.29099" lon="-119.60462999999999"><ele>2719.0</ele></trkpt><trkpt lat="38.29072" lon="-119.60361999999998"><ele>2706.9873406575375</ele></trkpt><trkpt lat="38.29067" lon="-119.60329000000002"><ele>2703.0</ele></trkpt><trkpt lat="38.29067" lon="-119.60309999999998"><ele>2701.0</ele></trkpt><trkpt lat="38.29074" lon="-119.60246999999998"><ele>2695.0</ele></trkpt><trkpt lat="38.29085" lon="-119.60228999999998"><ele>2692.2654636502266</ele></trkpt><trkpt lat="38.29093" lon="-119.60223000000002"><ele>2691.0</ele></trkpt><trkpt lat="38.29111" lon="-119.60223000000002"><ele>2688.0</ele></trkpt><trkpt lat="38.29118" lon="-119.60228000000001"><ele>2687.0</ele></trkpt><trkpt lat="38.29125" lon="-119.60243000000003"><ele>2686.0</ele></trkpt><trkpt lat="38.29133" lon="-119.60252000000003"><ele>2684.0590704896044</ele></trkpt><trkpt lat="38.29143" lon="-119.60259000000002"><ele>2682.8588272022184</ele></trkpt><trkpt lat="38.29154" lon="-119.60262999999998"><ele>2682.0</ele></trkpt><trkpt lat="38.29166" lon="-119.60262999999998"><ele>2680.0</ele></trkpt><trkpt lat="38.29181" lon="-119.60255999999998"><ele>2678.0</ele></trkpt><trkpt lat="38.29199" lon="-119.60244"><ele>2675.0</ele></trkpt><trkpt lat="38.29216" lon="-119.60241000000002"><ele>2673.0</ele></trkpt><trkpt lat="38.2922" lon="-119.60243000000003"><ele>2672.0</ele></trkpt><trkpt lat="38.29239" lon="-119.60269"><ele>2669.0</ele></trkpt><trkpt lat="38.29246" lon="-119.60273000000001"><ele>2668.764302993147</ele></trkpt><trkpt lat="38.29303" lon="-119.60287"><ele>2659.0</ele></trkpt><trkpt lat="38.2934" lon="-119.60309000000001"><ele>2656.0</ele></trkpt><trkpt lat="38.29431" lon="-119.60415"><ele>2647.0</ele></trkpt><trkpt lat="38.2944" lon="-119.60420999999997"><ele>2645.1501108939583</ele></trkpt><trkpt lat="38.29456" lon="-119.60424999999998"><ele>2644.0</ele></trkpt><trkpt lat="38.29474" lon="-119.60422"><ele>2645.0</ele></trkpt><trkpt lat="38.29478" lon="-119.60419000000002"><ele>2646.0</ele></trkpt><trkpt lat="38.29491" lon="-119.60401999999999"><ele>2647.0</ele></trkpt><trkpt lat="38.29546" lon="-119.60316999999998"><ele>2641.0</ele></trkpt><trkpt lat="38.29569" lon="-119.60275999999999"><ele>2640.0</ele></trkpt><trkpt lat="38.29693" lon="-119.60158999999999"><ele>2639.0</ele></trkpt><trkpt lat="38.29722" lon="-119.60145999999997"><ele>2637.991076818704</ele></trkpt><trkpt lat="38.29773" lon="-119.60104999999999"><ele>2636.0</ele></trkpt><trkpt lat="38.29782" lon="-119.60095999999999"><ele>2635.0</ele></trkpt><trkpt lat="38.29812" lon="-119.60052000000002"><ele>2629.0</ele></trkpt><trkpt lat="38.29855" lon="-119.60014999999999"><ele>2625.472728888504</ele></trkpt><trkpt lat="38.29879" lon="-119.59987000000001"><ele>2624.0</ele></trkpt><trkpt lat="38.298828874555234" lon="-119.5998505627224"><ele>2624.0</ele></trkpt><trkpt lat="38.298835740086815" lon="-119.59984712997141"><ele>2624.0</ele></trkpt><trkpt lat="38.29893" lon="-119.59980000000002"><ele>2623.0</ele></trkpt><trkpt lat="38.29926" lon="-119.59983999999997"><ele>2626.0</ele></trkpt><trkpt lat="38.29933" lon="-119.59983"><ele>2625.280514484737</ele></trkpt><trkpt lat="38.29941" lon="-119.59977000000003"><ele>2622.992942518317</ele></trkpt><trkpt lat="38.29946" lon="-119.59969999999998"><ele>2622.0</ele></trkpt><trkpt lat="38.2995" lon="-119.59955000000002"><ele>2623.0</ele></trkpt><trkpt lat="38.29959" lon="-119.59944000000002"><ele>2622.0</ele></trkpt><trkpt lat="38.29978" lon="-119.59931"><ele>2621.9987229090134</ele></trkpt><trkpt lat="38.30019" lon="-119.59883000000002"><ele>2619.0</ele></trkpt><trkpt lat="38.30033" lon="-119.59875999999997"><ele>2618.0</ele></trkpt><trkpt lat="38.30035" lon="-119.59872999999999"><ele>2617.8950678850865</ele></trkpt><trkpt lat="38.30033" lon="-119.59851000000003"><ele>2618.0</ele></trkpt><trkpt lat="38.30048" lon="-119.59833000000003"><ele>2615.8518026950424</ele></trkpt><trkpt lat="38.30053" lon="-119.59812"><ele>2616.8678720002063</ele></trkpt><trkpt lat="38.30059" lon="-119.59805"><ele>2616.0</ele></trkpt><trkpt lat="38.30075" lon="-119.59796"><ele>2615.232609927987</ele></trkpt><trkpt lat="38.301" lon="-119.59788000000003"><ele>2614.0</ele></trkpt><trkpt lat="38.30106" lon="-119.5978"><ele>2614.000642407803</ele></trkpt><trkpt lat="38.30116" lon="-119.59762"><ele>2614.0472716186196</ele></trkpt><trkpt lat="38.30135" lon="-119.59744"><ele>2613.0</ele></trkpt><trkpt lat="38.30153" lon="-119.59717"><ele>2610.0</ele></trkpt><trkpt lat="38.30153" lon="-119.59717"><ele>2610.0</ele></trkpt><trkpt lat="38.30168" lon="-119.5969"><ele>2607.8351177095715</ele></trkpt><trkpt lat="38.30206" lon="-119.59671000000003"><ele>2607.0</ele></trkpt><trkpt lat="38.30218" lon="-119.59662000000003"><ele>2607.0</ele></trkpt><trkpt lat="38.3026" lon="-119.59620000000001"><ele>2604.0</ele></trkpt><trkpt lat="38.30262" lon="-119.59613999999999"><ele>2603.7331155439115</ele></trkpt><trkpt lat="38.30262" lon="-119.59577999999999"><ele>2601.0</ele></trkpt><trkpt lat="38.30268" lon="-119.59545000000003"><ele>2599.0</ele></trkpt><trkpt lat="38.30273" lon="-119.59498000000002"><ele>2596.1005439266864</ele></trkpt><trkpt lat="38.30277" lon="-119.59485999999998"><ele>2596.0</ele></trkpt><trkpt lat="38.30285" lon="-119.59471000000002"><ele>2596.299295975362</ele></trkpt><trkpt lat="38.30315" lon="-119.59451999999999"><ele>2598.0</ele></trkpt><trkpt lat="38.3038" lon="-119.59381000000002"><ele>2594.0</ele></trkpt><trkpt lat="38.30389" lon="-119.59375999999997"><ele>2593.0</ele></trkpt><trkpt lat="38.30409" lon="-119.59373"><ele>2590.0450424440205</ele></trkpt><trkpt lat="38.30441" lon="-119.59374000000003"><ele>2587.0</ele></trkpt><trkpt lat="38.30461" lon="-119.59337"><ele>2581.0</ele></trkpt><trkpt lat="38.30469" lon="-119.59327000000002"><ele>2580.0</ele></trkpt><trkpt lat="38.30483" lon="-119.59318999999999"><ele>2578.0</ele></trkpt><trkpt lat="38.30491" lon="-119.59309000000002"><ele>2576.4528817785904</ele></trkpt><trkpt lat="38.304920190540855" lon="-119.593078228649"><ele>2576.0</ele></trkpt><trkpt lat="38.30489016259555" lon="-119.59304219511466"><ele>2576.0</ele></trkpt></trkseg></trk></gpx>