<?xml version="1.0"?>
<gpx xmlns="http://www.topografix.com/GPX/1/1" xmlns:gpxx="http://www.garmin.com/xmlschemas/GpxExtensions/v3" creator="CALTOPO" version="1.1"><metadata><name><![CDATA[Ludlow-Five Lakes]]></name></metadata><wpt lat="39.0460073971149" lon="-120.16827439000377"><name>Rubicon OHV Trailhead</name></wpt><wpt lat="39.07691722513435" lon="-120.23508570478351"><name>Barker Pass Trailhead</name></wpt><wpt lat="39.17927068860265" lon="-120.22963391547646"><name>Five Lakes Trailhead</name></wpt><trk><name>Ludlow-Five Lakes</name><trkseg><trkpt lat="39.0459932419297" lon="-120.168285481836"><ele>2035.0</ele></trkpt><trkpt lat="39.04599000000001" lon="-120.16827999999998"><ele>2035.0</ele></trkpt><trkpt lat="39.04599" lon="-120.16827999999998"><ele>2035.0</ele></trkpt><trkpt lat="39.04599" lon="-120.16827999999998"><ele>2035.0</ele></trkpt><trkpt lat="39.045967830456405" lon="-120.16835981035695"><ele>2035.0</ele></trkpt><trkpt lat="39.04596731089799" lon="-120.168361680783"><ele>2035.0</ele></trkpt><trkpt lat="39.04594" lon="-120.16845999999998"><ele>2035.0</ele></trkpt><trkpt lat="39.04594" lon="-120.16845999999998"><ele>2035.0</ele></trkpt><trkpt lat="39.04588" lon="-120.1687"><ele>2036.1180769731905</ele></trkpt><trkpt lat="39.04583" lon="-120.16904999999997"><ele>2037.0192290678312</ele></trkpt><trkpt lat="39.04594" lon="-120.16993000000002"><ele>2040.0</ele></trkpt><trkpt lat="39.04591" lon="-120.17052000000001"><ele>2040.9436312895268</ele></trkpt><trkpt lat="39.04598" lon="-120.17111999999997"><ele>2045.1440741866827</ele></trkpt><trkpt lat="39.04597" lon="-120.17144000000002"><ele>2049.0</ele></trkpt><trkpt lat="39.04589" lon="-120.17162000000002"><ele>2051.2321345802948</ele></trkpt><trkpt lat="39.04548" lon="-120.17223000000001"><ele>2063.0469660611143</ele></trkpt><trkpt lat="39.04546" lon="-120.17232000000001"><ele>2063.9720610632958</ele></trkpt><trkpt lat="39.04548" lon="-120.17252000000002"><ele>2065.0</ele></trkpt><trkpt lat="39.04558281602674" lon="-120.17277703878943"><ele>2067.0</ele></trkpt><trkpt lat="39.04558281602674" lon="-120.17277703878943"><ele>2067.0</ele></trkpt><trkpt lat="39.04562" lon="-120.17286999999999"><ele>2068.0</ele></trkpt><trkpt lat="39.04564" lon="-120.17299000000003"><ele>2069.0</ele></trkpt><trkpt lat="39.04564" lon="-120.17326000000003"><ele>2070.0</ele></trkpt><trkpt lat="39.04542" lon="-120.17437000000001"><ele>2071.03477252936</ele></trkpt><trkpt lat="39.04533" lon="-120.17469"><ele>2072.0</ele></trkpt><trkpt lat="39.0452" lon="-120.17500999999999"><ele>2073.0</ele></trkpt><trkpt lat="39.04517" lon="-120.17515000000003"><ele>2073.5392038282007</ele></trkpt><trkpt lat="39.04519" lon="-120.17566"><ele>2077.0</ele></trkpt><trkpt lat="39.0451" lon="-120.17647"><ele>2085.3388090971857</ele></trkpt><trkpt lat="39.04506" lon="-120.17662000000001"><ele>2086.9952045300834</ele></trkpt><trkpt lat="39.04497" lon="-120.17676"><ele>2088.446389333345</ele></trkpt><trkpt lat="39.04479" lon="-120.17678000000001"><ele>2091.0</ele></trkpt><trkpt lat="39.04479" lon="-120.17678000000001"><ele>2091.0</ele></trkpt><trkpt lat="39.04433" lon="-120.17682000000002"><ele>2095.897945513971</ele></trkpt><trkpt lat="39.04418" lon="-120.17674999999997"><ele>2097.0</ele></trkpt><trkpt lat="39.04413" lon="-120.17676"><ele>2098.0</ele></trkpt><trkpt lat="39.0434" lon="-120.17723000000001"><ele>2104.564809993042</ele></trkpt><trkpt lat="39.04318" lon="-120.17758000000003"><ele>2106.0</ele></trkpt><trkpt lat="39.043" lon="-120.17773999999997"><ele>2106.4466021060944</ele></trkpt><trkpt lat="39.04295" lon="-120.17779999999999"><ele>2106.0</ele></trkpt><trkpt lat="39.04294" lon="-120.17788000000002"><ele>2106.0</ele></trkpt><trkpt lat="39.04294" lon="-120.17806000000002"><ele>2107.0</ele></trkpt><trkpt lat="39.04302" lon="-120.17838"><ele>2107.5289792325348</ele></trkpt><trkpt lat="39.04306" lon="-120.17878000000002"><ele>2109.0</ele></trkpt><trkpt lat="39.04318" lon="-120.17930999999999"><ele>2109.092667163415</ele></trkpt><trkpt lat="39.04323" lon="-120.17941000000002"><ele>2109.829725708049</ele></trkpt><trkpt lat="39.0437" lon="-120.17984999999999"><ele>2110.0</ele></trkpt><trkpt lat="39.04388" lon="-120.17995000000002"><ele>2109.888835554011</ele></trkpt><trkpt lat="39.04419" lon="-120.18002000000001"><ele>2110.0</ele></trkpt><trkpt lat="39.04427" lon="-120.18013000000002"><ele>2110.0</ele></trkpt><trkpt lat="39.0444" lon="-120.18049000000002"><ele>2112.0</ele></trkpt><trkpt lat="39.04464" lon="-120.18096000000003"><ele>2116.0</ele></trkpt><trkpt lat="39.04469" lon="-120.18151"><ele>2118.0</ele></trkpt><trkpt lat="39.04461" lon="-120.18227000000002"><ele>2121.0</ele></trkpt><trkpt lat="39.04453" lon="-120.18263999999999"><ele>2122.0</ele></trkpt><trkpt lat="39.04448" lon="-120.18275"><ele>2122.0</ele></trkpt><trkpt lat="39.04422" lon="-120.18315999999999"><ele>2124.0</ele></trkpt><trkpt lat="39.04413" lon="-120.18342000000001"><ele>2126.0</ele></trkpt><trkpt lat="39.04409" lon="-120.18357000000003"><ele>2127.8645758248454</ele></trkpt><trkpt lat="39.04407" lon="-120.18372999999997"><ele>2129.0</ele></trkpt><trkpt lat="39.04406" lon="-120.18394"><ele>2131.0</ele></trkpt><trkpt lat="39.04409" lon="-120.18475000000001"><ele>2137.2151040384624</ele></trkpt><trkpt lat="39.04402" lon="-120.18516"><ele>2141.0</ele></trkpt><trkpt lat="39.04395" lon="-120.18529000000001"><ele>2141.3239984320485</ele></trkpt><trkpt lat="39.04376" lon="-120.18533000000002"><ele>2142.0</ele></trkpt><trkpt lat="39.04364" lon="-120.18547000000001"><ele>2142.0</ele></trkpt><trkpt lat="39.04325" lon="-120.18619000000001"><ele>2147.0</ele></trkpt><trkpt lat="39.04312" lon="-120.18662"><ele>2149.5059136813306</ele></trkpt><trkpt lat="39.04305" lon="-120.18671999999998"><ele>2149.0</ele></trkpt><trkpt lat="39.04301" lon="-120.18675000000002"><ele>2149.0</ele></trkpt><trkpt lat="39.04268" lon="-120.18675999999999"><ele>2152.480167110916</ele></trkpt><trkpt lat="39.04253" lon="-120.1868"><ele>2152.4277059014394</ele></trkpt><trkpt lat="39.04235" lon="-120.18696"><ele>2151.261551506921</ele></trkpt><trkpt lat="39.0421264740703" lon="-120.18710050201298"><ele>2151.0</ele></trkpt><trkpt lat="39.042104452027445" lon="-120.187114344554"><ele>2151.0</ele></trkpt><trkpt lat="39.042" lon="-120.18718000000001"><ele>2151.0</ele></trkpt><trkpt lat="39.04193" lon="-120.18727000000001"><ele>2151.342125749693</ele></trkpt><trkpt lat="39.04189" lon="-120.18739"><ele>2152.0</ele></trkpt><trkpt lat="39.04182" lon="-120.18777999999998"><ele>2153.008196216215</ele></trkpt><trkpt lat="39.04174" lon="-120.18797"><ele>2154.905965894874</ele></trkpt><trkpt lat="39.04164" lon="-120.18803000000003"><ele>2155.758352926153</ele></trkpt><trkpt lat="39.04113" lon="-120.18813999999998"><ele>2158.0</ele></trkpt><trkpt lat="39.04101" lon="-120.18817999999999"><ele>2159.68338716006</ele></trkpt><trkpt lat="39.0408" lon="-120.18833000000001"><ele>2163.0</ele></trkpt><trkpt lat="39.04048" lon="-120.18837000000002"><ele>2167.5116053340025</ele></trkpt><trkpt lat="39.04027" lon="-120.18847"><ele>2169.0</ele></trkpt><trkpt lat="39.04005" lon="-120.18865"><ele>2170.701751661127</ele></trkpt><trkpt lat="39.03933" lon="-120.19010000000003"><ele>2171.0</ele></trkpt><trkpt lat="39.03928" lon="-120.19042999999999"><ele>2171.0</ele></trkpt><trkpt lat="39.03928" lon="-120.19042999999999"><ele>2171.0</ele></trkpt><trkpt lat="39.03926" lon="-120.19056999999998"><ele>2171.9205349031836</ele></trkpt><trkpt lat="39.03915" lon="-120.19088999999997"><ele>2172.3051237304358</ele></trkpt><trkpt lat="39.03904" lon="-120.19151"><ele>2173.0</ele></trkpt><trkpt lat="39.03894" lon="-120.19169"><ele>2173.0</ele></trkpt><trkpt lat="39.03869" lon="-120.19195000000002"><ele>2172.0</ele></trkpt><trkpt lat="39.03849" lon="-120.19229999999999"><ele>2171.0</ele></trkpt><trkpt lat="39.03845" lon="-120.19256000000001"><ele>2171.0</ele></trkpt><trkpt lat="39.03851" lon="-120.19290999999998"><ele>2170.8365955190993</ele></trkpt><trkpt lat="39.03849" lon="-120.19312000000002"><ele>2170.7545097142743</ele></trkpt><trkpt lat="39.03839" lon="-120.19337000000002"><ele>2171.0</ele></trkpt><trkpt lat="39.03837" lon="-120.19348000000002"><ele>2171.0</ele></trkpt><trkpt lat="39.03837" lon="-120.19373000000002"><ele>2171.520293401554</ele></trkpt><trkpt lat="39.03822" lon="-120.19448999999997"><ele>2173.867741058406</ele></trkpt><trkpt lat="39.038" lon="-120.19515000000001"><ele>2175.0</ele></trkpt><trkpt lat="39.038" lon="-120.19515000000001"><ele>2175.0</ele></trkpt><trkpt lat="39.03793" lon="-120.19538999999997"><ele>2175.0</ele></trkpt><trkpt lat="39.03793" lon="-120.19547"><ele>2175.0</ele></trkpt><trkpt lat="39.038" lon="-120.19571000000002"><ele>2176.0</ele></trkpt><trkpt lat="39.03799" lon="-120.19585000000001"><ele>2175.0</ele></trkpt><trkpt lat="39.03766" lon="-120.19691999999998"><ele>2174.0</ele></trkpt><trkpt lat="39.03744" lon="-120.19736999999998"><ele>2173.0</ele></trkpt><trkpt lat="39.03735" lon="-120.19765999999998"><ele>2173.0</ele></trkpt><trkpt lat="39.03735" lon="-120.19790999999998"><ele>2173.0</ele></trkpt><trkpt lat="39.03746" lon="-120.19840999999997"><ele>2173.920741947368</ele></trkpt><trkpt lat="39.03746" lon="-120.19853999999998"><ele>2173.0</ele></trkpt><trkpt lat="39.03741" lon="-120.19885"><ele>2173.0</ele></trkpt><trkpt lat="39.03702" lon="-120.19981000000001"><ele>2173.0</ele></trkpt><trkpt lat="39.03689" lon="-120.20051000000001"><ele>2172.199542338937</ele></trkpt><trkpt lat="39.03683" lon="-120.20065999999997"><ele>2172.3561372578106</ele></trkpt><trkpt lat="39.03675" lon="-120.20080000000002"><ele>2173.0</ele></trkpt><trkpt lat="39.03626" lon="-120.20148"><ele>2173.0</ele></trkpt><trkpt lat="39.03587" lon="-120.20218999999997"><ele>2173.0</ele></trkpt><trkpt lat="39.03547" lon="-120.20305000000002"><ele>2172.8330756354853</ele></trkpt><trkpt lat="39.03508" lon="-120.20409000000001"><ele>2173.0</ele></trkpt><trkpt lat="39.035" lon="-120.20456000000001"><ele>2173.0</ele></trkpt><trkpt lat="39.0349" lon="-120.20478000000003"><ele>2173.088947910357</ele></trkpt><trkpt lat="39.0349" lon="-120.20478000000003"><ele>2173.088947910357</ele></trkpt><trkpt lat="39.0349" lon="-120.20478000000003"><ele>2173.088947910357</ele></trkpt><trkpt lat="39.03488" lon="-120.20488999999998"><ele>2173.125836379826</ele></trkpt><trkpt lat="39.03486" lon="-120.20528000000002"><ele>2173.0</ele></trkpt><trkpt lat="39.0347" lon="-120.20613000000003"><ele>2171.4527659690857</ele></trkpt><trkpt lat="39.03465" lon="-120.20636000000002"><ele>2170.326564906165</ele></trkpt><trkpt lat="39.03446" lon="-120.20688000000001"><ele>2167.927200606093</ele></trkpt><trkpt lat="39.03443" lon="-120.20702"><ele>2167.127303779125</ele></trkpt><trkpt lat="39.03441" lon="-120.20787000000001"><ele>2169.927372990176</ele></trkpt><trkpt lat="39.03438" lon="-120.20801"><ele>2169.1274774391204</ele></trkpt><trkpt lat="39.03434" lon="-120.20816000000002"><ele>2169.5766019323346</ele></trkpt><trkpt lat="39.03418" lon="-120.20852000000002"><ele>2169.0730275577052</ele></trkpt><trkpt lat="39.03418" lon="-120.20871"><ele>2170.0</ele></trkpt><trkpt lat="39.03404" lon="-120.20907999999997"><ele>2168.0</ele></trkpt><trkpt lat="39.03406" lon="-120.20967000000002"><ele>2168.0</ele></trkpt><trkpt lat="39.03413" lon="-120.21012999999999"><ele>2167.0</ele></trkpt><trkpt lat="39.03427" lon="-120.21048000000002"><ele>2167.0</ele></trkpt><trkpt lat="39.03458" lon="-120.21093000000002"><ele>2169.7717450835944</ele></trkpt><trkpt lat="39.03467" lon="-120.21114"><ele>2169.0</ele></trkpt><trkpt lat="39.03474" lon="-120.21150999999998"><ele>2168.273725517094</ele></trkpt><trkpt lat="39.03478" lon="-120.21190000000001"><ele>2168.0</ele></trkpt><trkpt lat="39.03496" lon="-120.2124"><ele>2168.0</ele></trkpt><trkpt lat="39.03496" lon="-120.2124"><ele>2168.0</ele></trkpt><trkpt lat="39.03503" lon="-120.21253000000002"><ele>2167.0</ele></trkpt><trkpt lat="39.03516" lon="-120.21271999999999"><ele>2167.074989899993</ele></trkpt><trkpt lat="39.03561" lon="-120.21325999999999"><ele>2168.0</ele></trkpt><trkpt lat="39.03566" lon="-120.21337"><ele>2168.0</ele></trkpt><trkpt lat="39.03579" lon="-120.21397000000002"><ele>2168.0</ele></trkpt><trkpt lat="39.03599" lon="-120.21442000000002"><ele>2168.659920867005</ele></trkpt><trkpt lat="39.036004950253115" lon="-120.21458658853464"><ele>2169.0</ele></trkpt><trkpt lat="39.03600792133521" lon="-120.21461969487802"><ele>2169.0</ele></trkpt><trkpt lat="39.03606" lon="-120.21519999999998"><ele>2168.0</ele></trkpt><trkpt lat="39.03603" lon="-120.21573999999998"><ele>2167.994341325648</ele></trkpt><trkpt lat="39.03615" lon="-120.21614"><ele>2167.0</ele></trkpt><trkpt lat="39.03617" lon="-120.21656000000002"><ele>2167.522582694888</ele></trkpt><trkpt lat="39.03634" lon="-120.21733"><ele>2167.0</ele></trkpt><trkpt lat="39.03635" lon="-120.21762000000001"><ele>2167.0</ele></trkpt><trkpt lat="39.03629" lon="-120.21807000000001"><ele>2167.0</ele></trkpt><trkpt lat="39.03631" lon="-120.21832"><ele>2169.0</ele></trkpt><trkpt lat="39.03638" lon="-120.21865000000003"><ele>2171.0</ele></trkpt><trkpt lat="39.03646" lon="-120.21922999999998"><ele>2172.0</ele></trkpt><trkpt lat="39.03678" lon="-120.22041000000002"><ele>2170.0</ele></trkpt><trkpt lat="39.03679" lon="-120.22077999999999"><ele>2171.0</ele></trkpt><trkpt lat="39.03684" lon="-120.22113999999999"><ele>2172.0</ele></trkpt><trkpt lat="39.03683" lon="-120.22140000000002"><ele>2171.0</ele></trkpt><trkpt lat="39.03685" lon="-120.22149000000002"><ele>2172.0105023575165</ele></trkpt><trkpt lat="39.03697" lon="-120.22167999999999"><ele>2174.937822735056</ele></trkpt><trkpt lat="39.03711" lon="-120.22203000000002"><ele>2177.0</ele></trkpt><trkpt lat="39.03716" lon="-120.22219000000001"><ele>2177.0</ele></trkpt><trkpt lat="39.03717" lon="-120.22234000000003"><ele>2177.0</ele></trkpt><trkpt lat="39.03717" lon="-120.22234000000003"><ele>2177.0</ele></trkpt><trkpt lat="39.03715" lon="-120.22243000000003"><ele>2177.0</ele></trkpt><trkpt lat="39.03696" lon="-120.22282999999999"><ele>2173.0</ele></trkpt><trkpt lat="39.03694" lon="-120.22294999999997"><ele>2172.0</ele></trkpt><trkpt lat="39.03693" lon="-120.22325000000001"><ele>2169.0</ele></trkpt><trkpt lat="39.03691" lon="-120.22343000000001"><ele>2167.0</ele></trkpt><trkpt lat="39.03679" lon="-120.22372999999999"><ele>2166.0</ele></trkpt><trkpt lat="39.03621" lon="-120.22444000000002"><ele>2165.0</ele></trkpt><trkpt lat="39.03593" lon="-120.22487000000001"><ele>2163.123081050813</ele></trkpt><trkpt lat="39.03564" lon="-120.22507000000002"><ele>2162.6192173290706</ele></trkpt><trkpt lat="39.03554" lon="-120.2251"><ele>2162.0</ele></trkpt><trkpt lat="39.03518" lon="-120.2251"><ele>2163.2536711110733</ele></trkpt><trkpt lat="39.03509" lon="-120.22512999999998"><ele>2164.0</ele></trkpt><trkpt lat="39.03454" lon="-120.22554000000002"><ele>2163.0</ele></trkpt><trkpt lat="39.03454" lon="-120.22554000000002"><ele>2163.0</ele></trkpt><trkpt lat="39.03446" lon="-120.22563000000002"><ele>2162.8840499273037</ele></trkpt><trkpt lat="39.03442" lon="-120.22577000000001"><ele>2163.252033042057</ele></trkpt><trkpt lat="39.03439" lon="-120.22595999999999"><ele>2163.0</ele></trkpt><trkpt lat="39.03438" lon="-120.22638999999998"><ele>2163.499505882617</ele></trkpt><trkpt lat="39.03431" lon="-120.22669000000002"><ele>2162.0</ele></trkpt><trkpt lat="39.0343" lon="-120.22692"><ele>2161.3042204384587</ele></trkpt><trkpt lat="39.03433" lon="-120.22708999999998"><ele>2161.0</ele></trkpt><trkpt lat="39.03437" lon="-120.22715"><ele>2160.3735465779405</ele></trkpt><trkpt lat="39.03451" lon="-120.22721999999999"><ele>2159.1219465213135</ele></trkpt><trkpt lat="39.03457" lon="-120.22728000000001"><ele>2158.0</ele></trkpt><trkpt lat="39.03461" lon="-120.22739000000001"><ele>2157.0</ele></trkpt><trkpt lat="39.03461" lon="-120.22748999999999"><ele>2156.0</ele></trkpt><trkpt lat="39.03457" lon="-120.22757000000001"><ele>2155.5268288329244</ele></trkpt><trkpt lat="39.03429" lon="-120.22768000000002"><ele>2151.0</ele></trkpt><trkpt lat="39.03417" lon="-120.22787"><ele>2149.0</ele></trkpt><trkpt lat="39.03414" lon="-120.22802000000001"><ele>2149.0</ele></trkpt><trkpt lat="39.03415" lon="-120.22814"><ele>2148.0</ele></trkpt><trkpt lat="39.03431" lon="-120.22838999999999"><ele>2148.0</ele></trkpt><trkpt lat="39.03435" lon="-120.22854999999998"><ele>2147.0</ele></trkpt><trkpt lat="39.03434" lon="-120.22872000000001"><ele>2146.0</ele></trkpt><trkpt lat="39.03429" lon="-120.22886"><ele>2144.140900859214</ele></trkpt><trkpt lat="39.03412" lon="-120.22911999999997"><ele>2142.2117622972796</ele></trkpt><trkpt lat="39.03406" lon="-120.22926000000001"><ele>2142.0</ele></trkpt><trkpt lat="39.03411" lon="-120.22950000000003"><ele>2142.0</ele></trkpt><trkpt lat="39.0342" lon="-120.22960999999998"><ele>2142.0</ele></trkpt><trkpt lat="39.03432" lon="-120.22964000000002"><ele>2142.0</ele></trkpt><trkpt lat="39.03444" lon="-120.22960999999998"><ele>2142.0</ele></trkpt><trkpt lat="39.03452" lon="-120.22967"><ele>2142.4730034526438</ele></trkpt><trkpt lat="39.03455" lon="-120.22982999999999"><ele>2143.0</ele></trkpt><trkpt lat="39.03453" lon="-120.23007999999999"><ele>2143.0</ele></trkpt><trkpt lat="39.03446" lon="-120.23046"><ele>2141.882902670267</ele></trkpt><trkpt lat="39.03445779340203" lon="-120.23051295835148"><ele>2141.0</ele></trkpt><trkpt lat="39.034450433892644" lon="-120.23068958657689"><ele>2141.2639914601727</ele></trkpt><trkpt lat="39.03445" lon="-120.23070000000001"><ele>2141.3272349126637</ele></trkpt><trkpt lat="39.03434" lon="-120.231"><ele>2141.0</ele></trkpt><trkpt lat="39.03419" lon="-120.23158999999998"><ele>2141.0</ele></trkpt><trkpt lat="39.03403" lon="-120.23190999999997"><ele>2140.0</ele></trkpt><trkpt lat="39.03396" lon="-120.23199999999997"><ele>2140.0</ele></trkpt><trkpt lat="39.03375" lon="-120.23216000000002"><ele>2141.27351822285</ele></trkpt><trkpt lat="39.03342" lon="-120.23234000000002"><ele>2145.0</ele></trkpt><trkpt lat="39.03338" lon="-120.23250999999999"><ele>2146.0</ele></trkpt><trkpt lat="39.03344" lon="-120.23268999999999"><ele>2146.288377966247</ele></trkpt><trkpt lat="39.03345" lon="-120.23284000000001"><ele>2146.0</ele></trkpt><trkpt lat="39.03337" lon="-120.23306000000002"><ele>2144.0</ele></trkpt><trkpt lat="39.03337" lon="-120.23318999999998"><ele>2143.0</ele></trkpt><trkpt lat="39.03337" lon="-120.23318999999998"><ele>2143.0</ele></trkpt><trkpt lat="39.0337" lon="-120.23376999999999"><ele>2148.0</ele></trkpt><trkpt lat="39.03384" lon="-120.23379"><ele>2149.0</ele></trkpt><trkpt lat="39.03428" lon="-120.23365000000001"><ele>2150.0</ele></trkpt><trkpt lat="39.03462" lon="-120.23376000000002"><ele>2151.0</ele></trkpt><trkpt lat="39.03504" lon="-120.23365000000001"><ele>2153.0</ele></trkpt><trkpt lat="39.03535" lon="-120.23379999999997"><ele>2152.0</ele></trkpt><trkpt lat="39.03559" lon="-120.23404"><ele>2153.0811687561263</ele></trkpt><trkpt lat="39.03572" lon="-120.23437999999999"><ele>2154.5235572289675</ele></trkpt><trkpt lat="39.03572" lon="-120.23437999999999"><ele>2154.5235572289675</ele></trkpt><trkpt lat="39.03583" lon="-120.23458"><ele>2157.069610687904</ele></trkpt><trkpt lat="39.03588" lon="-120.23487"><ele>2157.1231910288334</ele></trkpt><trkpt lat="39.03599" lon="-120.23502000000002"><ele>2159.0</ele></trkpt><trkpt lat="39.0362" lon="-120.23514999999998"><ele>2160.0</ele></trkpt><trkpt lat="39.03625" lon="-120.23527000000001"><ele>2160.0</ele></trkpt><trkpt lat="39.03625" lon="-120.23541"><ele>2160.0</ele></trkpt><trkpt lat="39.0362" lon="-120.23552000000001"><ele>2160.0</ele></trkpt><trkpt lat="39.03622" lon="-120.23590000000002"><ele>2159.0</ele></trkpt><trkpt lat="39.03614" lon="-120.23608000000002"><ele>2157.722642313689</ele></trkpt><trkpt lat="39.03615" lon="-120.23622"><ele>2157.166720909215</ele></trkpt><trkpt lat="39.0364" lon="-120.23647"><ele>2157.0</ele></trkpt><trkpt lat="39.03649" lon="-120.23663999999997"><ele>2158.0</ele></trkpt><trkpt lat="39.03653" lon="-120.23685"><ele>2158.121926859021</ele></trkpt><trkpt lat="39.03661" lon="-120.23701"><ele>2157.976546603947</ele></trkpt><trkpt lat="39.0367" lon="-120.23707999999999"><ele>2159.0</ele></trkpt><trkpt lat="39.03704" lon="-120.23757999999998"><ele>2160.0</ele></trkpt><trkpt lat="39.03743" lon="-120.23786999999999"><ele>2161.0</ele></trkpt><trkpt lat="39.03756" lon="-120.23802"><ele>2159.970698145523</ele></trkpt><trkpt lat="39.03766" lon="-120.23809"><ele>2159.3391902674985</ele></trkpt><trkpt lat="39.03783" lon="-120.23813000000001"><ele>2160.0</ele></trkpt><trkpt lat="39.03787" lon="-120.23819000000003"><ele>2160.0</ele></trkpt><trkpt lat="39.03808" lon="-120.23883000000001"><ele>2156.0</ele></trkpt><trkpt lat="39.03834" lon="-120.23919000000001"><ele>2154.0</ele></trkpt><trkpt lat="39.03844" lon="-120.23957000000001"><ele>2152.0</ele></trkpt><trkpt lat="39.03864" lon="-120.23981000000003"><ele>2152.0</ele></trkpt><trkpt lat="39.03874" lon="-120.23990000000003"><ele>2152.0</ele></trkpt><trkpt lat="39.03878" lon="-120.24005"><ele>2151.0</ele></trkpt><trkpt lat="39.03913" lon="-120.24016"><ele>2150.8994595552795</ele></trkpt><trkpt lat="39.03922" lon="-120.24034"><ele>2149.0</ele></trkpt><trkpt lat="39.03943" lon="-120.24038000000002"><ele>2147.568685226464</ele></trkpt><trkpt lat="39.03956" lon="-120.24053000000004"><ele>2147.0</ele></trkpt><trkpt lat="39.03963438782186" lon="-120.24065848805594"><ele>2146.0</ele></trkpt><trkpt lat="39.03967845447474" lon="-120.24072939385542"><ele>2145.0</ele></trkpt><trkpt lat="39.03976" lon="-120.24081999999999"><ele>2144.0</ele></trkpt><trkpt lat="39.03991" lon="-120.24088"><ele>2145.0</ele></trkpt><trkpt lat="39.04011" lon="-120.24099999999999"><ele>2142.772067717612</ele></trkpt><trkpt lat="39.0403" lon="-120.24124999999998"><ele>2142.0</ele></trkpt><trkpt lat="39.0406" lon="-120.24169999999998"><ele>2140.041964797195</ele></trkpt><trkpt lat="39.04067" lon="-120.24175000000002"><ele>2140.9045013597924</ele></trkpt><trkpt lat="39.04105" lon="-120.24171000000001"><ele>2138.6642239992507</ele></trkpt><trkpt lat="39.04116" lon="-120.24182000000002"><ele>2138.496599860545</ele></trkpt><trkpt lat="39.04125" lon="-120.24201"><ele>2137.785694674565</ele></trkpt><trkpt lat="39.0414" lon="-120.24200000000002"><ele>2136.4247776528564</ele></trkpt><trkpt lat="39.04146" lon="-120.24202000000002"><ele>2137.0</ele></trkpt><trkpt lat="39.0419" lon="-120.24290000000002"><ele>2130.0670593973555</ele></trkpt><trkpt lat="39.04213" lon="-120.24317000000002"><ele>2130.6232924433425</ele></trkpt><trkpt lat="39.04221" lon="-120.24319000000003"><ele>2129.7140293473612</ele></trkpt><trkpt lat="39.04252" lon="-120.24313000000001"><ele>2127.4874275554903</ele></trkpt><trkpt lat="39.04266" lon="-120.24313000000001"><ele>2128.4874275554903</ele></trkpt><trkpt lat="39.04278" lon="-120.24320999999998"><ele>2127.790004820412</ele></trkpt><trkpt lat="39.04288" lon="-120.24335000000002"><ele>2127.030145122947</ele></trkpt><trkpt lat="39.04301" lon="-120.24347"><ele>2127.928940847516</ele></trkpt><trkpt lat="39.04331" lon="-120.24394000000001"><ele>2126.687078644739</ele></trkpt><trkpt lat="39.04344" lon="-120.24405000000002"><ele>2126.4474026340617</ele></trkpt><trkpt lat="39.04363" lon="-120.24405999999999"><ele>2128.0</ele></trkpt><trkpt lat="39.0437" lon="-120.2441"><ele>2128.520325136338</ele></trkpt><trkpt lat="39.04379" lon="-120.24430999999998"><ele>2126.3627574037896</ele></trkpt><trkpt lat="39.04412" lon="-120.24468999999999"><ele>2123.41958827829</ele></trkpt><trkpt lat="39.04442" lon="-120.24514999999997"><ele>2119.1865700208755</ele></trkpt><trkpt lat="39.04455" lon="-120.24527999999998"><ele>2120.0</ele></trkpt><trkpt lat="39.04458" lon="-120.24536"><ele>2119.0</ele></trkpt><trkpt lat="39.04479" lon="-120.24552"><ele>2118.764807611491</ele></trkpt><trkpt lat="39.04479" lon="-120.24552"><ele>2118.764807611491</ele></trkpt><trkpt lat="39.04511" lon="-120.24592999999999"><ele>2117.0</ele></trkpt><trkpt lat="39.04522" lon="-120.24603000000002"><ele>2116.694971804814</ele></trkpt><trkpt lat="39.04535" lon="-120.24603000000002"><ele>2118.0</ele></trkpt><trkpt lat="39.04548" lon="-120.24597"><ele>2117.0</ele></trkpt><trkpt lat="39.04563" lon="-120.24595"><ele>2117.0</ele></trkpt><trkpt lat="39.04596" lon="-120.24619000000001"><ele>2116.993334851125</ele></trkpt><trkpt lat="39.04632" lon="-120.2464"><ele>2117.0</ele></trkpt><trkpt lat="39.04641" lon="-120.24662000000001"><ele>2115.0</ele></trkpt><trkpt lat="39.04668" lon="-120.24673000000001"><ele>2115.0</ele></trkpt><trkpt lat="39.04687" lon="-120.24673000000001"><ele>2115.3218216144933</ele></trkpt><trkpt lat="39.04702" lon="-120.24667999999997"><ele>2115.0</ele></trkpt><trkpt lat="39.04714" lon="-120.24671000000001"><ele>2113.2479803506285</ele></trkpt><trkpt lat="39.0473" lon="-120.24657000000002"><ele>2113.0</ele></trkpt><trkpt lat="39.04747" lon="-120.24649999999997"><ele>2114.0</ele></trkpt><trkpt lat="39.04779" lon="-120.24619000000001"><ele>2114.0</ele></trkpt><trkpt lat="39.04839" lon="-120.24586999999997"><ele>2119.1891232869307</ele></trkpt><trkpt lat="39.0487" lon="-120.24518999999998"><ele>2123.0</ele></trkpt><trkpt lat="39.04881" lon="-120.24502999999999"><ele>2124.0</ele></trkpt><trkpt lat="39.049" lon="-120.24491999999998"><ele>2125.0</ele></trkpt><trkpt lat="39.04906" lon="-120.24477000000002"><ele>2126.0</ele></trkpt><trkpt lat="39.04922" lon="-120.24446"><ele>2124.0</ele></trkpt><trkpt lat="39.04933" lon="-120.24437"><ele>2126.0</ele></trkpt><trkpt lat="39.04941" lon="-120.24437999999998"><ele>2127.0</ele></trkpt><trkpt lat="39.04961" lon="-120.24448999999998"><ele>2129.9727465957403</ele></trkpt><trkpt lat="39.0498" lon="-120.24464999999998"><ele>2131.2435710576274</ele></trkpt><trkpt lat="39.04989" lon="-120.24468999999999"><ele>2132.0</ele></trkpt><trkpt lat="39.05004" lon="-120.24468999999999"><ele>2133.0</ele></trkpt><trkpt lat="39.05034" lon="-120.24460999999997"><ele>2135.1132438466266</ele></trkpt><trkpt lat="39.05118" lon="-120.24450000000002"><ele>2140.0</ele></trkpt><trkpt lat="39.05144" lon="-120.24441999999999"><ele>2141.8684169903286</ele></trkpt><trkpt lat="39.05159" lon="-120.24441999999999"><ele>2144.0</ele></trkpt><trkpt lat="39.05173" lon="-120.24450000000002"><ele>2145.7107255848614</ele></trkpt><trkpt lat="39.05214" lon="-120.24493000000001"><ele>2149.4806877753144</ele></trkpt><trkpt lat="39.05232" lon="-120.24508000000003"><ele>2151.0</ele></trkpt><trkpt lat="39.05262" lon="-120.24547999999999"><ele>2152.0</ele></trkpt><trkpt lat="39.05268" lon="-120.24559999999997"><ele>2151.205733753741</ele></trkpt><trkpt lat="39.05287" lon="-120.24579"><ele>2154.204777429863</ele></trkpt><trkpt lat="39.05333" lon="-120.24599"><ele>2157.043126779351</ele></trkpt><trkpt lat="39.05352" lon="-120.24612000000002"><ele>2159.0883122629907</ele></trkpt><trkpt lat="39.05374" lon="-120.24622"><ele>2161.0</ele></trkpt><trkpt lat="39.05381091982986" lon="-120.24632401801591"><ele>2161.0</ele></trkpt><trkpt lat="39.05381091982986" lon="-120.24632401801591"><ele>2161.0</ele></trkpt><trkpt lat="39.05389" lon="-120.24644"><ele>2161.0</ele></trkpt><trkpt lat="39.05415" lon="-120.24661000000003"><ele>2163.0</ele></trkpt><trkpt lat="39.05439" lon="-120.24682999999999"><ele>2165.0</ele></trkpt><trkpt lat="39.05459" lon="-120.24694999999997"><ele>2166.830298051238</ele></trkpt><trkpt lat="39.0549" lon="-120.24727999999999"><ele>2170.0</ele></trkpt><trkpt lat="39.0552" lon="-120.24768"><ele>2171.6868813021733</ele></trkpt><trkpt lat="39.05535" lon="-120.24783000000002"><ele>2174.0</ele></trkpt><trkpt lat="39.05574" lon="-120.24842999999998"><ele>2174.921684697028</ele></trkpt><trkpt lat="39.05598" lon="-120.24874"><ele>2179.2501238025725</ele></trkpt><trkpt lat="39.05628" lon="-120.24934999999999"><ele>2182.869035969954</ele></trkpt><trkpt lat="39.0564" lon="-120.24955"><ele>2183.616104660784</ele></trkpt><trkpt lat="39.05646" lon="-120.24959999999999"><ele>2183.9635733338073</ele></trkpt><trkpt lat="39.05686" lon="-120.24975"><ele>2187.0618133210482</ele></trkpt><trkpt lat="39.05714" lon="-120.24995999999999"><ele>2188.8925389961973</ele></trkpt><trkpt lat="39.05729" lon="-120.25002999999998"><ele>2189.9241208899766</ele></trkpt><trkpt lat="39.05775" lon="-120.24995000000001"><ele>2192.652391110547</ele></trkpt><trkpt lat="39.05816" lon="-120.24964"><ele>2195.9238802653485</ele></trkpt><trkpt lat="39.05828" lon="-120.24961000000002"><ele>2196.641512384321</ele></trkpt><trkpt lat="39.05841" lon="-120.24964999999997"><ele>2197.0</ele></trkpt><trkpt lat="39.05862" lon="-120.24984"><ele>2195.9319252149057</ele></trkpt><trkpt lat="39.05897" lon="-120.24986000000001"><ele>2197.591277681215</ele></trkpt><trkpt lat="39.05923" lon="-120.24995999999999"><ele>2198.0</ele></trkpt><trkpt lat="39.05955" lon="-120.25000999999997"><ele>2200.0</ele></trkpt><trkpt lat="39.05991" lon="-120.25"><ele>2203.0</ele></trkpt><trkpt lat="39.06015" lon="-120.25011999999998"><ele>2203.729816889856</ele></trkpt><trkpt lat="39.06025" lon="-120.25011999999998"><ele>2204.870662873913</ele></trkpt><trkpt lat="39.06047" lon="-120.25004000000001"><ele>2206.0</ele></trkpt><trkpt lat="39.06092" lon="-120.25002999999998"><ele>2207.0</ele></trkpt><trkpt lat="39.06115" lon="-120.24991999999997"><ele>2207.0</ele></trkpt><trkpt lat="39.06149" lon="-120.24988000000002"><ele>2207.914627554361</ele></trkpt><trkpt lat="39.06169712342334" lon="-120.24970246563714"><ele>2209.1174527083112</ele></trkpt><trkpt lat="39.061700000000016" lon="-120.24970000000002"><ele>2209.1367614407823</ele></trkpt><trkpt lat="39.0617" lon="-120.24970000000002"><ele>2209.1367614407823</ele></trkpt><trkpt lat="39.06185" lon="-120.24950999999999"><ele>2211.070735410061</ele></trkpt><trkpt lat="39.06185" lon="-120.24950999999999"><ele>2211.070735410061</ele></trkpt><trkpt lat="39.06193" lon="-120.24939999999998"><ele>2212.2842488898896</ele></trkpt><trkpt lat="39.06204" lon="-120.24932000000001"><ele>2213.012519109994</ele></trkpt><trkpt lat="39.06262" lon="-120.24919999999997"><ele>2214.0</ele></trkpt><trkpt lat="39.06289" lon="-120.24901999999997"><ele>2211.9937067025244</ele></trkpt><trkpt lat="39.06322" lon="-120.24889999999999"><ele>2215.908882765463</ele></trkpt><trkpt lat="39.06332" lon="-120.24878999999999"><ele>2217.7123093339615</ele></trkpt><trkpt lat="39.06342" lon="-120.24860000000001"><ele>2220.0</ele></trkpt><trkpt lat="39.06341" lon="-120.24851000000001"><ele>2221.9560828656217</ele></trkpt><trkpt lat="39.06326" lon="-120.24835000000002"><ele>2223.2177955545485</ele></trkpt><trkpt lat="39.06324" lon="-120.24826000000002"><ele>2224.0</ele></trkpt><trkpt lat="39.06323" lon="-120.24792000000002"><ele>2226.0</ele></trkpt><trkpt lat="39.06326" lon="-120.24778000000003"><ele>2227.0</ele></trkpt><trkpt lat="39.0633" lon="-120.24772000000002"><ele>2227.8234144068965</ele></trkpt><trkpt lat="39.06368" lon="-120.24760000000003"><ele>2232.0</ele></trkpt><trkpt lat="39.06388" lon="-120.2475"><ele>2233.0</ele></trkpt><trkpt lat="39.06391" lon="-120.24743999999998"><ele>2234.0</ele></trkpt><trkpt lat="39.06391" lon="-120.24738000000002"><ele>2235.423071998637</ele></trkpt><trkpt lat="39.06386" lon="-120.24733000000003"><ele>2237.0</ele></trkpt><trkpt lat="39.06366" lon="-120.24725000000001"><ele>2237.4815111109056</ele></trkpt><trkpt lat="39.06363" lon="-120.24715000000003"><ele>2239.141848887317</ele></trkpt><trkpt lat="39.06372" lon="-120.24707000000001"><ele>2240.0</ele></trkpt><trkpt lat="39.06393" lon="-120.24700999999999"><ele>2239.0</ele></trkpt><trkpt lat="39.06422" lon="-120.24670000000003"><ele>2243.0225177237335</ele></trkpt><trkpt lat="39.0643" lon="-120.24653999999998"><ele>2246.0</ele></trkpt><trkpt lat="39.0643" lon="-120.24624"><ele>2249.0</ele></trkpt><trkpt lat="39.06435" lon="-120.24610000000001"><ele>2250.0</ele></trkpt><trkpt lat="39.06445" lon="-120.24599999999998"><ele>2252.0</ele></trkpt><trkpt lat="39.06459" lon="-120.24568999999997"><ele>2253.0</ele></trkpt><trkpt lat="39.06459" lon="-120.24568999999997"><ele>2253.0</ele></trkpt><trkpt lat="39.06469" lon="-120.24544000000003"><ele>2253.9980461049286</ele></trkpt><trkpt lat="39.06481" lon="-120.24522000000002"><ele>2253.0</ele></trkpt><trkpt lat="39.06503" lon="-120.24504999999999"><ele>2250.0051922045436</ele></trkpt><trkpt lat="39.06514" lon="-120.24472000000003"><ele>2250.0</ele></trkpt><trkpt lat="39.06518" lon="-120.24442999999997"><ele>2250.5212755547</ele></trkpt><trkpt lat="39.06514" lon="-120.24392"><ele>2249.0</ele></trkpt><trkpt lat="39.06527" lon="-120.24347"><ele>2245.175203355029</ele></trkpt><trkpt lat="39.06536" lon="-120.24333999999999"><ele>2245.0</ele></trkpt><trkpt lat="39.06572" lon="-120.24324999999999"><ele>2245.147570530535</ele></trkpt><trkpt lat="39.06594" lon="-120.24306999999999"><ele>2244.971179824419</ele></trkpt><trkpt lat="39.06612" lon="-120.24304999999998"><ele>2243.0335534241513</ele></trkpt><trkpt lat="39.06654" lon="-120.24266"><ele>2238.9668855163095</ele></trkpt><trkpt lat="39.06679" lon="-120.24252000000001"><ele>2239.0</ele></trkpt><trkpt lat="39.06728" lon="-120.24162999999999"><ele>2244.0</ele></trkpt><trkpt lat="39.0674" lon="-120.24151"><ele>2244.9898043936587</ele></trkpt><trkpt lat="39.06769" lon="-120.24139000000002"><ele>2247.9651932837523</ele></trkpt><trkpt lat="39.06796" lon="-120.24115"><ele>2249.0</ele></trkpt><trkpt lat="39.06835" lon="-120.24058000000002"><ele>2255.528967286731</ele></trkpt><trkpt lat="39.06856" lon="-120.24032"><ele>2257.4429191108793</ele></trkpt><trkpt lat="39.06913" lon="-120.23996999999997"><ele>2262.0</ele></trkpt><trkpt lat="39.06939" lon="-120.23973000000001"><ele>2263.99231823534</ele></trkpt><trkpt lat="39.06944657816872" lon="-120.23964324680799"><ele>2264.990555110713</ele></trkpt><trkpt lat="39.069460708196644" lon="-120.23962158082605"><ele>2264.996895502152</ele></trkpt><trkpt lat="39.06954" lon="-120.23950000000002"><ele>2265.65768888779</ele></trkpt><trkpt lat="39.06986" lon="-120.23918000000003"><ele>2269.377745199008</ele></trkpt><trkpt lat="39.07021" lon="-120.23891000000003"><ele>2270.0</ele></trkpt><trkpt lat="39.07044" lon="-120.23861999999997"><ele>2272.9490448717706</ele></trkpt><trkpt lat="39.0709" lon="-120.23762999999997"><ele>2278.233636330813</ele></trkpt><trkpt lat="39.0709" lon="-120.23756000000003"><ele>2280.015943758254</ele></trkpt><trkpt lat="39.07098" lon="-120.23739"><ele>2279.5593855255283</ele></trkpt><trkpt lat="39.07115" lon="-120.23734000000002"><ele>2281.0</ele></trkpt><trkpt lat="39.07129" lon="-120.23698999999999"><ele>2282.520166930097</ele></trkpt><trkpt lat="39.07143" lon="-120.23613"><ele>2288.8321100381154</ele></trkpt><trkpt lat="39.07156" lon="-120.23583000000002"><ele>2288.0</ele></trkpt><trkpt lat="39.07197" lon="-120.23559999999998"><ele>2291.4108622227795</ele></trkpt><trkpt lat="39.0721" lon="-120.23563000000001"><ele>2291.0127608883195</ele></trkpt><trkpt lat="39.07241" lon="-120.23558000000003"><ele>2294.3429297758266</ele></trkpt><trkpt lat="39.07266" lon="-120.23540000000003"><ele>2296.0</ele></trkpt><trkpt lat="39.0728" lon="-120.23504000000003"><ele>2298.597068366824</ele></trkpt><trkpt lat="39.07281" lon="-120.23437999999999"><ele>2301.1547127170356</ele></trkpt><trkpt lat="39.07281" lon="-120.23437999999999"><ele>2301.1547127170356</ele></trkpt><trkpt lat="39.0729" lon="-120.23408999999998"><ele>2301.17685684748</ele></trkpt><trkpt lat="39.07303" lon="-120.23403000000002"><ele>2303.3624816715474</ele></trkpt><trkpt lat="39.07316" lon="-120.23408"><ele>2304.2479964438826</ele></trkpt><trkpt lat="39.07346" lon="-120.23397999999997"><ele>2307.908334223088</ele></trkpt><trkpt lat="39.07376" lon="-120.23397999999997"><ele>2306.908334223088</ele></trkpt><trkpt lat="39.07477" lon="-120.23367999999999"><ele>2318.8893475555815</ele></trkpt><trkpt lat="39.07503" lon="-120.23363999999998"><ele>2320.0</ele></trkpt><trkpt lat="39.07572" lon="-120.23379"><ele>2324.7888076645463</ele></trkpt><trkpt lat="39.07589" lon="-120.23387000000002"><ele>2326.338169473667</ele></trkpt><trkpt lat="39.07598" lon="-120.23397"><ele>2326.8230952316476</ele></trkpt><trkpt lat="39.07623" lon="-120.23437999999999"><ele>2330.0</ele></trkpt><trkpt lat="39.07623" lon="-120.23437999999999"><ele>2330.0</ele></trkpt><trkpt lat="39.07649" lon="-120.23496"><ele>2335.0</ele></trkpt><trkpt lat="39.07657" lon="-120.23503"><ele>2335.0</ele></trkpt><trkpt lat="39.07657" lon="-120.23503"><ele>2335.0</ele></trkpt><trkpt lat="39.07676" lon="-120.23514999999998"><ele>2336.7173461545144</ele></trkpt><trkpt lat="39.07687" lon="-120.23516000000001"><ele>2337.0</ele></trkpt><trkpt lat="39.076926487628754" lon="-120.23512405146789"><ele>2337.0</ele></trkpt><trkpt lat="39.076926487628754" lon="-120.23512405146789"><ele>2337.0</ele></trkpt><trkpt lat="39.07698" lon="-120.23509000000001"><ele>2338.0</ele></trkpt><trkpt lat="39.0772" lon="-120.23514"><ele>2340.0</ele></trkpt><trkpt lat="39.07731" lon="-120.23523999999998"><ele>2341.0</ele></trkpt><trkpt lat="39.07734" lon="-120.23541"><ele>2342.0</ele></trkpt><trkpt lat="39.07744" lon="-120.23559"><ele>2344.364661341533</ele></trkpt><trkpt lat="39.07747" lon="-120.23570999999998"><ele>2345.0</ele></trkpt><trkpt lat="39.07729" lon="-120.23604999999998"><ele>2348.201671697624</ele></trkpt><trkpt lat="39.07723" lon="-120.23647"><ele>2352.1015935498035</ele></trkpt><trkpt lat="39.0769" lon="-120.23699999999997"><ele>2354.7895966652522</ele></trkpt><trkpt lat="39.07669" lon="-120.23753999999997"><ele>2359.9997958616423</ele></trkpt><trkpt lat="39.07669" lon="-120.23770999999999"><ele>2361.3136380014203</ele></trkpt><trkpt lat="39.0768" lon="-120.23856"><ele>2366.0</ele></trkpt><trkpt lat="39.07688" lon="-120.23874999999998"><ele>2367.0</ele></trkpt><trkpt lat="39.07741385798668" lon="-120.23956239258843"><ele>2373.9488154922583</ele></trkpt><trkpt lat="39.07745900906793" lon="-120.23963110006252"><ele>2374.776629011994</ele></trkpt><trkpt lat="39.07757" lon="-120.2398"><ele>2375.8456474295817</ele></trkpt><trkpt lat="39.07764" lon="-120.24000000000001"><ele>2377.132182402095</ele></trkpt><trkpt lat="39.07794" lon="-120.2405"><ele>2382.360609147955</ele></trkpt><trkpt lat="39.07796" lon="-120.24061"><ele>2383.6121117425237</ele></trkpt><trkpt lat="39.07794" lon="-120.24083999999999"><ele>2385.172156339977</ele></trkpt><trkpt lat="39.07779" lon="-120.24128000000002"><ele>2385.376299371943</ele></trkpt><trkpt lat="39.0778" lon="-120.24166000000002"><ele>2387.976633420214</ele></trkpt><trkpt lat="39.07787" lon="-120.24189000000001"><ele>2389.4052619938693</ele></trkpt><trkpt lat="39.07789" lon="-120.24201"><ele>2391.1202670644707</ele></trkpt><trkpt lat="39.07788" lon="-120.24214"><ele>2392.8621184504045</ele></trkpt><trkpt lat="39.07783" lon="-120.24223"><ele>2393.777636071667</ele></trkpt><trkpt lat="39.07783" lon="-120.24232"><ele>2393.777636071667</ele></trkpt><trkpt lat="39.07789" lon="-120.24247000000003"><ele>2394.0932620819044</ele></trkpt><trkpt lat="39.07875" lon="-120.24342000000001"><ele>2409.0</ele></trkpt><trkpt lat="39.07891" lon="-120.24351999999999"><ele>2411.7346406606057</ele></trkpt><trkpt lat="39.07891" lon="-120.24351999999999"><ele>2411.7346406606057</ele></trkpt><trkpt lat="39.07905" lon="-120.24362000000002"><ele>2412.0</ele></trkpt><trkpt lat="39.07918" lon="-120.24360999999999"><ele>2414.1178062227555</ele></trkpt><trkpt lat="39.07951" lon="-120.24351000000001"><ele>2419.6350066661835</ele></trkpt><trkpt lat="39.07956" lon="-120.24365999999998"><ele>2421.0</ele></trkpt><trkpt lat="39.07966" lon="-120.24405999999999"><ele>2424.0</ele></trkpt><trkpt lat="39.07973" lon="-120.24421999999998"><ele>2426.58124691785</ele></trkpt><trkpt lat="39.07986" lon="-120.24441000000002"><ele>2427.941834775008</ele></trkpt><trkpt lat="39.08011" lon="-120.24463000000003"><ele>2430.856364794872</ele></trkpt><trkpt lat="39.08049" lon="-120.24481000000003"><ele>2436.5723519461826</ele></trkpt><trkpt lat="39.08074" lon="-120.24499000000003"><ele>2439.805144887883</ele></trkpt><trkpt lat="39.08138" lon="-120.24532999999997"><ele>2446.865619187127</ele></trkpt><trkpt lat="39.08165" lon="-120.24540000000002"><ele>2449.0</ele></trkpt><trkpt lat="39.08189" lon="-120.24536"><ele>2452.0</ele></trkpt><trkpt lat="39.08198" lon="-120.24536"><ele>2453.0</ele></trkpt><trkpt lat="39.08209" lon="-120.24540000000002"><ele>2453.0</ele></trkpt><trkpt lat="39.08216" lon="-120.24550999999997"><ele>2453.8459444771274</ele></trkpt><trkpt lat="39.08221" lon="-120.24572999999998"><ele>2454.0</ele></trkpt><trkpt lat="39.08223" lon="-120.24607000000003"><ele>2457.0</ele></trkpt><trkpt lat="39.08209" lon="-120.24651"><ele>2461.0168835754894</ele></trkpt><trkpt lat="39.08208" lon="-120.24658999999997"><ele>2461.9274171069264</ele></trkpt><trkpt lat="39.08219" lon="-120.24662999999998"><ele>2464.3318644242936</ele></trkpt><trkpt lat="39.0824" lon="-120.2466"><ele>2468.0</ele></trkpt><trkpt lat="39.08256" lon="-120.24652000000003"><ele>2468.8721462700505</ele></trkpt><trkpt lat="39.08286" lon="-120.24658"><ele>2473.0</ele></trkpt><trkpt lat="39.08306" lon="-120.24653"><ele>2472.964056889061</ele></trkpt><trkpt lat="39.08312" lon="-120.24655999999999"><ele>2473.2294597340997</ele></trkpt><trkpt lat="39.08335" lon="-120.24689000000001"><ele>2475.954681866765</ele></trkpt><trkpt lat="39.08341" lon="-120.24707000000001"><ele>2478.3524334141985</ele></trkpt><trkpt lat="39.08353" lon="-120.2473"><ele>2479.015245684992</ele></trkpt><trkpt lat="39.08357" lon="-120.24743000000001"><ele>2479.5591639027693</ele></trkpt><trkpt lat="39.08358" lon="-120.24765000000002"><ele>2481.002565297698</ele></trkpt><trkpt lat="39.08352" lon="-120.24779999999998"><ele>2483.6183472741395</ele></trkpt><trkpt lat="39.08355" lon="-120.24790999999999"><ele>2483.8171985987574</ele></trkpt><trkpt lat="39.08369" lon="-120.24808000000002"><ele>2484.1992924450897</ele></trkpt><trkpt lat="39.08407" lon="-120.24806999999998"><ele>2489.295381129525</ele></trkpt><trkpt lat="39.08442" lon="-120.24801000000002"><ele>2492.9003247893825</ele></trkpt><trkpt lat="39.08447" lon="-120.24790999999999"><ele>2493.4183993469924</ele></trkpt><trkpt lat="39.08453" lon="-120.24784"><ele>2493.034927312783</ele></trkpt><trkpt lat="39.08465" lon="-120.24781999999999"><ele>2495.08241422195</ele></trkpt><trkpt lat="39.08478" lon="-120.24784999999997"><ele>2497.4805155540816</ele></trkpt><trkpt lat="39.08483" lon="-120.24779000000001"><ele>2497.0</ele></trkpt><trkpt lat="39.08499" lon="-120.24778000000003"><ele>2497.7176725743348</ele></trkpt><trkpt lat="39.08515" lon="-120.24763000000002"><ele>2498.227772445418</ele></trkpt><trkpt lat="39.08515" lon="-120.24756000000002"><ele>2498.245173877105</ele></trkpt><trkpt lat="39.08518" lon="-120.24748"><ele>2499.27262931943</ele></trkpt><trkpt lat="39.08539" lon="-120.24727999999999"><ele>2501.0</ele></trkpt><trkpt lat="39.08582" lon="-120.24724000000003"><ele>2506.0524551128037</ele></trkpt><trkpt lat="39.08609" lon="-120.24714"><ele>2507.807200161311</ele></trkpt><trkpt lat="39.08646" lon="-120.24685999999997"><ele>2507.343171554152</ele></trkpt><trkpt lat="39.08663" lon="-120.24667999999997"><ele>2511.0593719035387</ele></trkpt><trkpt lat="39.08677" lon="-120.24646999999999"><ele>2511.1032488667815</ele></trkpt><trkpt lat="39.08687" lon="-120.24625000000003"><ele>2508.915111112874</ele></trkpt><trkpt lat="39.08691" lon="-120.24621000000002"><ele>2507.971542954197</ele></trkpt><trkpt lat="39.08706" lon="-120.24617"><ele>2509.1868408895098</ele></trkpt><trkpt lat="39.08715" lon="-120.24610000000001"><ele>2511.250808067154</ele></trkpt><trkpt lat="39.08773" lon="-120.24531000000002"><ele>2515.258275121916</ele></trkpt><trkpt lat="39.08786" lon="-120.24518999999998"><ele>2517.5155306663364</ele></trkpt><trkpt lat="39.08799530659465" lon="-120.24511482966966"><ele>2519.0123393642716</ele></trkpt><trkpt lat="39.08800449412345" lon="-120.24510972560961"><ele>2518.916895272758</ele></trkpt><trkpt lat="39.08822" lon="-120.24499000000003"><ele>2521.765807726886</ele></trkpt><trkpt lat="39.08849" lon="-120.24473999999998"><ele>2522.9007759967544</ele></trkpt><trkpt lat="39.0885961386426" lon="-120.24459737619895"><ele>2518.844766627997</ele></trkpt><trkpt lat="39.0885961386426" lon="-120.24459737619895"><ele>2518.844766627997</ele></trkpt><trkpt lat="39.08881" lon="-120.24430999999998"><ele>2514.499397617299</ele></trkpt><trkpt lat="39.08895" lon="-120.24401999999998"><ele>2513.5979584120214</ele></trkpt><trkpt lat="39.08923" lon="-120.24378000000002"><ele>2508.827710036264</ele></trkpt><trkpt lat="39.0894" lon="-120.24349000000001"><ele>2508.877873863196</ele></trkpt><trkpt lat="39.08943" lon="-120.24351000000001"><ele>2506.555413127877</ele></trkpt><trkpt lat="39.08919" lon="-120.24401"><ele>2502.6640933975577</ele></trkpt><trkpt lat="39.08913" lon="-120.24430000000001"><ele>2499.7597800155518</ele></trkpt><trkpt lat="39.08908" lon="-120.24473999999998"><ele>2497.0</ele></trkpt><trkpt lat="39.08908" lon="-120.24491"><ele>2495.792374432087</ele></trkpt><trkpt lat="39.08911" lon="-120.24498"><ele>2495.0</ele></trkpt><trkpt lat="39.08915" lon="-120.245"><ele>2495.0</ele></trkpt><trkpt lat="39.08942" lon="-120.24490000000003"><ele>2491.377702156082</ele></trkpt><trkpt lat="39.08945" lon="-120.24495000000002"><ele>2489.5764028169215</ele></trkpt><trkpt lat="39.08943" lon="-120.24509999999998"><ele>2488.304858687176</ele></trkpt><trkpt lat="39.08938" lon="-120.24527"><ele>2486.7794334124774</ele></trkpt><trkpt lat="39.08933" lon="-120.24559999999997"><ele>2484.7815955728292</ele></trkpt><trkpt lat="39.08938" lon="-120.24617999999998"><ele>2482.508872329048</ele></trkpt><trkpt lat="39.0895" lon="-120.24631999999997"><ele>2480.751583106816</ele></trkpt><trkpt lat="39.08986" lon="-120.24649"><ele>2478.1413533613086</ele></trkpt><trkpt lat="39.08999" lon="-120.24646000000001"><ele>2476.7018204447813</ele></trkpt><trkpt lat="39.09022" lon="-120.24653999999998"><ele>2475.4300906658173</ele></trkpt><trkpt lat="39.09042" lon="-120.24666000000002"><ele>2475.0224960013293</ele></trkpt><trkpt lat="39.09105" lon="-120.24664999999999"><ele>2471.5564622222446</ele></trkpt><trkpt lat="39.09116" lon="-120.24655000000001"><ele>2469.9064004354204</ele></trkpt><trkpt lat="39.09128" lon="-120.24649"><ele>2470.0999217778444</ele></trkpt><trkpt lat="39.09144" lon="-120.24634000000003"><ele>2470.0</ele></trkpt><trkpt lat="39.09167" lon="-120.24622"><ele>2472.0</ele></trkpt><trkpt lat="39.09168" lon="-120.24613"><ele>2472.1040166567964</ele></trkpt><trkpt lat="39.09173" lon="-120.24604"><ele>2473.0</ele></trkpt><trkpt lat="39.09198" lon="-120.24574000000001"><ele>2473.483320139814</ele></trkpt><trkpt lat="39.09204" lon="-120.24565000000001"><ele>2472.997122289295</ele></trkpt><trkpt lat="39.09216" lon="-120.24527"><ele>2469.0351393951996</ele></trkpt><trkpt lat="39.09224" lon="-120.24511999999999"><ele>2467.0</ele></trkpt><trkpt lat="39.09238" lon="-120.24498"><ele>2465.7288213334978</ele></trkpt><trkpt lat="39.09251" lon="-120.24450999999999"><ele>2459.853223396413</ele></trkpt><trkpt lat="39.09271" lon="-120.24428999999998"><ele>2457.5724906660616</ele></trkpt><trkpt lat="39.09268" lon="-120.24424999999997"><ele>2456.0</ele></trkpt><trkpt lat="39.09252" lon="-120.24433999999997"><ele>2454.97669805622</ele></trkpt><trkpt lat="39.0924" lon="-120.24437"><ele>2454.300760889426</ele></trkpt><trkpt lat="39.09213" lon="-120.24457999999998"><ele>2451.400251643371</ele></trkpt><trkpt lat="39.09189" lon="-120.24468999999999"><ele>2448.199266776009</ele></trkpt><trkpt lat="39.09168" lon="-120.24495999999999"><ele>2447.2568149381127</ele></trkpt><trkpt lat="39.09161" lon="-120.24495999999999"><ele>2445.7967537776567</ele></trkpt><trkpt lat="39.09147" lon="-120.24502000000001"><ele>2443.59295644518</ele></trkpt><trkpt lat="39.09127" lon="-120.24520999999999"><ele>2441.836410029233</ele></trkpt><trkpt lat="39.09123" lon="-120.24518999999998"><ele>2441.0</ele></trkpt><trkpt lat="39.09128" lon="-120.24508000000003"><ele>2440.575041465804</ele></trkpt><trkpt lat="39.0913" lon="-120.24490000000003"><ele>2438.505476181461</ele></trkpt><trkpt lat="39.09136" lon="-120.24473"><ele>2437.0084136260875</ele></trkpt><trkpt lat="39.09148" lon="-120.24462"><ele>2435.951605333481</ele></trkpt><trkpt lat="39.09171" lon="-120.24446999999998"><ele>2434.118872205367</ele></trkpt><trkpt lat="39.09198" lon="-120.24405000000002"><ele>2430.387680001091</ele></trkpt><trkpt lat="39.09215" lon="-120.24385000000001"><ele>2429.5742510465243</ele></trkpt><trkpt lat="39.09215" lon="-120.24369999999999"><ele>2428.0</ele></trkpt><trkpt lat="39.09207" lon="-120.24344000000002"><ele>2426.0</ele></trkpt><trkpt lat="39.09193" lon="-120.24320999999998"><ele>2424.0</ele></trkpt><trkpt lat="39.09195" lon="-120.24315000000001"><ele>2423.741517539329</ele></trkpt><trkpt lat="39.09206" lon="-120.24306000000001"><ele>2423.3899086625315</ele></trkpt><trkpt lat="39.09217" lon="-120.24292000000003"><ele>2422.2663319939234</ele></trkpt><trkpt lat="39.09228" lon="-120.24288000000001"><ele>2420.8133862547415</ele></trkpt><trkpt lat="39.09242" lon="-120.24290000000002"><ele>2419.5875911135226</ele></trkpt><trkpt lat="39.09256" lon="-120.24286999999998"><ele>2417.39569422137</ele></trkpt><trkpt lat="39.09264" lon="-120.24292000000003"><ele>2416.0245830748486</ele></trkpt><trkpt lat="39.09278" lon="-120.24315999999999"><ele>2417.5380872087553</ele></trkpt><trkpt lat="39.09301" lon="-120.24333000000001"><ele>2415.8332480010577</ele></trkpt><trkpt lat="39.09312" lon="-120.24333999999999"><ele>2416.2992817773484</ele></trkpt><trkpt lat="39.09401" lon="-120.24292000000003"><ele>2407.4517262252048</ele></trkpt><trkpt lat="39.09397" lon="-120.24286000000001"><ele>2402.929660445079</ele></trkpt><trkpt lat="39.09363" lon="-120.24288999999999"><ele>2399.327761777211</ele></trkpt><trkpt lat="39.09361" lon="-120.24284999999998"><ele>2397.4636266659945</ele></trkpt><trkpt lat="39.09442" lon="-120.2425"><ele>2392.0018771518953</ele></trkpt><trkpt lat="39.09493" lon="-120.24214"><ele>2384.5530104912914</ele></trkpt><trkpt lat="39.09536" lon="-120.24198999999999"><ele>2380.384721776936</ele></trkpt><trkpt lat="39.09551" lon="-120.24191000000002"><ele>2378.6146773351356</ele></trkpt><trkpt lat="39.09564" lon="-120.24184000000002"><ele>2377.394215112552</ele></trkpt><trkpt lat="39.09578" lon="-120.24167999999997"><ele>2374.937674665358</ele></trkpt><trkpt lat="39.09593" lon="-120.2416"><ele>2373.1093536289563</ele></trkpt><trkpt lat="39.09596" lon="-120.2416"><ele>2373.2094044452533</ele></trkpt><trkpt lat="39.09596" lon="-120.2416"><ele>2373.2094044452533</ele></trkpt><trkpt lat="39.09613" lon="-120.24160999999998"><ele>2371.827333820377</ele></trkpt><trkpt lat="39.09634" lon="-120.24174"><ele>2372.733877332881</ele></trkpt><trkpt lat="39.09666" lon="-120.24175000000002"><ele>2372.271498036651</ele></trkpt><trkpt lat="39.09677" lon="-120.24169"><ele>2371.792697628369</ele></trkpt><trkpt lat="39.09713" lon="-120.24166000000002"><ele>2375.5870426469482</ele></trkpt><trkpt lat="39.09751" lon="-120.24151999999998"><ele>2374.4811342209578</ele></trkpt><trkpt lat="39.09762" lon="-120.24153000000001"><ele>2374.9471680009738</ele></trkpt><trkpt lat="39.09776" lon="-120.24162999999999"><ele>2377.356594629574</ele></trkpt><trkpt lat="39.09781" lon="-120.24162999999999"><ele>2378.2524427088365</ele></trkpt><trkpt lat="39.09788" lon="-120.24153999999999"><ele>2377.41320177773</ele></trkpt><trkpt lat="39.09794" lon="-120.24155999999999"><ele>2376.8545814792724</ele></trkpt><trkpt lat="39.09806" lon="-120.24167999999997"><ele>2377.536184063279</ele></trkpt><trkpt lat="39.09814" lon="-120.24162000000001"><ele>2378.0</ele></trkpt><trkpt lat="39.09826" lon="-120.24162999999999"><ele>2378.7795458108008</ele></trkpt><trkpt lat="39.09839" lon="-120.24151999999998"><ele>2379.4811342209578</ele></trkpt><trkpt lat="39.09845" lon="-120.24139000000002"><ele>2378.270692409016</ele></trkpt><trkpt lat="39.09847" lon="-120.24128000000002"><ele>2378.0490172207355</ele></trkpt><trkpt lat="39.09847" lon="-120.24113999999997"><ele>2377.0490172207355</ele></trkpt><trkpt lat="39.09856" lon="-120.24074999999999"><ele>2375.4536110963672</ele></trkpt><trkpt lat="39.09856" lon="-120.24059"><ele>2373.4536110963672</ele></trkpt><trkpt lat="39.09864" lon="-120.24038999999999"><ele>2371.8658793161444</ele></trkpt><trkpt lat="39.09866" lon="-120.24005"><ele>2370.0</ele></trkpt><trkpt lat="39.09862" lon="-120.23982999999998"><ele>2370.0</ele></trkpt><trkpt lat="39.09862" lon="-120.23969999999997"><ele>2369.0</ele></trkpt><trkpt lat="39.09868" lon="-120.23954000000003"><ele>2368.729990943047</ele></trkpt><trkpt lat="39.09885" lon="-120.23945000000003"><ele>2370.0</ele></trkpt><trkpt lat="39.09889" lon="-120.23937000000001"><ele>2370.0</ele></trkpt><trkpt lat="39.09897" lon="-120.23879999999997"><ele>2367.0746260508895</ele></trkpt><trkpt lat="39.09903" lon="-120.23858999999999"><ele>2367.6777134183794</ele></trkpt><trkpt lat="39.09911" lon="-120.23840999999999"><ele>2367.764042711493</ele></trkpt><trkpt lat="39.09924" lon="-120.23825999999997"><ele>2367.2369002719756</ele></trkpt><trkpt lat="39.09932" lon="-120.23825"><ele>2368.1807678136975</ele></trkpt><trkpt lat="39.09952" lon="-120.23806000000002"><ele>2368.3124340227732</ele></trkpt><trkpt lat="39.09974" lon="-120.238"><ele>2369.1375046774074</ele></trkpt><trkpt lat="39.10013" lon="-120.23755"><ele>2366.465724444948</ele></trkpt><trkpt lat="39.100627121397416" lon="-120.23669384648224"><ele>2369.821357217046</ele></trkpt><trkpt lat="39.100645132547115" lon="-120.23666282743648"><ele>2370.080717030347</ele></trkpt><trkpt lat="39.10067" lon="-120.23662000000002"><ele>2370.020343031442</ele></trkpt><trkpt lat="39.10119" lon="-120.23624000000001"><ele>2378.8062004251406</ele></trkpt><trkpt lat="39.10127" lon="-120.23612000000003"><ele>2379.1951693184674</ele></trkpt><trkpt lat="39.10138" lon="-120.23590000000002"><ele>2379.371198451612</ele></trkpt><trkpt lat="39.10151" lon="-120.23576000000003"><ele>2380.073450921079</ele></trkpt><trkpt lat="39.10161" lon="-120.23568999999998"><ele>2380.61337104626</ele></trkpt><trkpt lat="39.10175" lon="-120.23552999999998"><ele>2384.0208945013583</ele></trkpt><trkpt lat="39.1019" lon="-120.2353"><ele>2385.0289738681167</ele></trkpt><trkpt lat="39.10199" lon="-120.23509999999999"><ele>2386.030406121252</ele></trkpt><trkpt lat="39.10217" lon="-120.23480999999998"><ele>2390.016034365166</ele></trkpt><trkpt lat="39.10231" lon="-120.23464999999999"><ele>2393.6511552687734</ele></trkpt><trkpt lat="39.10246" lon="-120.23437999999999"><ele>2395.392323085107</ele></trkpt><trkpt lat="39.10246" lon="-120.23437999999999"><ele>2395.392323085107</ele></trkpt><trkpt lat="39.10268" lon="-120.23396000000002"><ele>2397.76313211345</ele></trkpt><trkpt lat="39.10277" lon="-120.23374999999999"><ele>2398.102996452163</ele></trkpt><trkpt lat="39.10282" lon="-120.23369000000002"><ele>2398.8556328425184</ele></trkpt><trkpt lat="39.10266" lon="-120.23437999999999"><ele>2406.1614747000476</ele></trkpt><trkpt lat="39.10266" lon="-120.23437999999999"><ele>2406.1614747000476</ele></trkpt><trkpt lat="39.10259" lon="-120.23469999999998"><ele>2410.4663858357817</ele></trkpt><trkpt lat="39.10247" lon="-120.23498999999998"><ele>2411.379071615172</ele></trkpt><trkpt lat="39.10241" lon="-120.23523"><ele>2414.002475090325</ele></trkpt><trkpt lat="39.10268" lon="-120.23489000000001"><ele>2420.3720351126976</ele></trkpt><trkpt lat="39.10303" lon="-120.23437999999999"><ele>2425.890454515815</ele></trkpt><trkpt lat="39.10303" lon="-120.23437999999999"><ele>2425.890454515815</ele></trkpt><trkpt lat="39.10345" lon="-120.23365000000001"><ele>2431.7452004264915</ele></trkpt><trkpt lat="39.10349" lon="-120.23365999999999"><ele>2434.0921129384483</ele></trkpt><trkpt lat="39.10327" lon="-120.23437999999999"><ele>2437.2225823430394</ele></trkpt><trkpt lat="39.10327" lon="-120.23437999999999"><ele>2437.2225823430394</ele></trkpt><trkpt lat="39.1031" lon="-120.23480999999998"><ele>2439.8667681668885</ele></trkpt><trkpt lat="39.1027" lon="-120.23568999999998"><ele>2444.056711425013</ele></trkpt><trkpt lat="39.1025" lon="-120.23642000000001"><ele>2449.0614830125123</ele></trkpt><trkpt lat="39.10243" lon="-120.23662000000002"><ele>2449.982257589232</ele></trkpt><trkpt lat="39.10232" lon="-120.23680999999999"><ele>2451.2309229564853</ele></trkpt><trkpt lat="39.10226" lon="-120.23705000000001"><ele>2453.7061104762706</ele></trkpt><trkpt lat="39.10214" lon="-120.23738000000003"><ele>2455.9850909486413</ele></trkpt><trkpt lat="39.10215" lon="-120.23743000000002"><ele>2457.9158011861145</ele></trkpt><trkpt lat="39.1022" lon="-120.23737"><ele>2459.0451901070774</ele></trkpt><trkpt lat="39.10252" lon="-120.23683"><ele>2461.173864377197</ele></trkpt><trkpt lat="39.10283" lon="-120.23624999999998"><ele>2464.8651936881656</ele></trkpt><trkpt lat="39.10292" lon="-120.23602"><ele>2464.446978328284</ele></trkpt><trkpt lat="39.10301" lon="-120.23590000000002"><ele>2465.8664704122943</ele></trkpt><trkpt lat="39.10307" lon="-120.23574000000002"><ele>2464.6656639347575</ele></trkpt><trkpt lat="39.1037" lon="-120.23482000000001"><ele>2472.462955412384</ele></trkpt><trkpt lat="39.10368" lon="-120.23496999999998"><ele>2475.926312316209</ele></trkpt><trkpt lat="39.10315" lon="-120.23635000000002"><ele>2486.586150706523</ele></trkpt><trkpt lat="39.10301" lon="-120.23705000000001"><ele>2491.8533924645744</ele></trkpt><trkpt lat="39.10291" lon="-120.23723000000001"><ele>2492.2365175317973</ele></trkpt><trkpt lat="39.10277" lon="-120.23777000000001"><ele>2498.198449488571</ele></trkpt><trkpt lat="39.10248" lon="-120.23840000000001"><ele>2504.0676231791263</ele></trkpt><trkpt lat="39.10249" lon="-120.23843999999997"><ele>2505.942730665207</ele></trkpt><trkpt lat="39.10293" lon="-120.23804000000001"><ele>2514.884969882667</ele></trkpt><trkpt lat="39.10328" lon="-120.23752999999999"><ele>2518.9553259076433</ele></trkpt><trkpt lat="39.10351" lon="-120.23696999999999"><ele>2520.8695640629157</ele></trkpt><trkpt lat="39.10372" lon="-120.23660000000001"><ele>2523.5210462645628</ele></trkpt><trkpt lat="39.10395" lon="-120.23630000000003"><ele>2528.1712008959116</ele></trkpt><trkpt lat="39.10403" lon="-120.23615000000001"><ele>2528.1667650043964</ele></trkpt><trkpt lat="39.10427" lon="-120.23549000000003"><ele>2526.988150604911</ele></trkpt><trkpt lat="39.10453" lon="-120.23507000000001"><ele>2527.863093948923</ele></trkpt><trkpt lat="39.10462" lon="-120.23495000000003"><ele>2528.6757470881566</ele></trkpt><trkpt lat="39.1047" lon="-120.23489999999998"><ele>2529.15008040471</ele></trkpt><trkpt lat="39.10476" lon="-120.23491000000001"><ele>2528.5537965530216</ele></trkpt><trkpt lat="39.10479" lon="-120.23496999999998"><ele>2528.6406311984174</ele></trkpt><trkpt lat="39.10486" lon="-120.2353"><ele>2534.8157965913415</ele></trkpt><trkpt lat="39.10504" lon="-120.23565000000002"><ele>2539.316804368049</ele></trkpt><trkpt lat="39.10532" lon="-120.23602"><ele>2540.0945454151406</ele></trkpt><trkpt lat="39.10558" lon="-120.23630000000003"><ele>2542.97382875651</ele></trkpt><trkpt lat="39.10567" lon="-120.23644999999999"><ele>2544.0</ele></trkpt><trkpt lat="39.10575" lon="-120.23678000000001"><ele>2542.3171296669816</ele></trkpt><trkpt lat="39.10582" lon="-120.23680999999999"><ele>2542.0</ele></trkpt><trkpt lat="39.10627" lon="-120.23690999999997"><ele>2546.639562665485</ele></trkpt><trkpt lat="39.10642" lon="-120.23698000000002"><ele>2547.4676518297774</ele></trkpt><trkpt lat="39.10656" lon="-120.23708999999997"><ele>2548.0</ele></trkpt><trkpt lat="39.10693" lon="-120.2371"><ele>2549.0</ele></trkpt><trkpt lat="39.10754" lon="-120.23685"><ele>2552.84336000029</ele></trkpt><trkpt lat="39.10756841567189" lon="-120.23684431686564"><ele>2553.0</ele></trkpt><trkpt lat="39.10758321150118" lon="-120.23684135770941"><ele>2553.0</ele></trkpt><trkpt lat="39.10774" lon="-120.23680999999999"><ele>2553.994981391521</ele></trkpt><trkpt lat="39.10805" lon="-120.23665"><ele>2554.5226844446734</ele></trkpt><trkpt lat="39.1082" lon="-120.23660999999998"><ele>2555.0</ele></trkpt><trkpt lat="39.10859" lon="-120.23676999999998"><ele>2558.0</ele></trkpt><trkpt lat="39.10869" lon="-120.23674"><ele>2559.0</ele></trkpt><trkpt lat="39.10903" lon="-120.23684000000003"><ele>2560.1464056530385</ele></trkpt><trkpt lat="39.10903" lon="-120.23684000000003"><ele>2560.1464056530385</ele></trkpt><trkpt lat="39.10936" lon="-120.23696000000001"><ele>2559.030268444214</ele></trkpt><trkpt lat="39.1104" lon="-120.23714999999999"><ele>2554.602755506522</ele></trkpt><trkpt lat="39.11107" lon="-120.23734000000002"><ele>2551.2437237545373</ele></trkpt><trkpt lat="39.11127" lon="-120.23737"><ele>2551.7121567150534</ele></trkpt><trkpt lat="39.11189" lon="-120.23768000000001"><ele>2549.0</ele></trkpt><trkpt lat="39.11211" lon="-120.23788000000002"><ele>2547.1551608876325</ele></trkpt><trkpt lat="39.1123" lon="-120.23810000000003"><ele>2543.902417775709</ele></trkpt><trkpt lat="39.11272" lon="-120.23838999999998"><ele>2542.9156688477033</ele></trkpt><trkpt lat="39.11301" lon="-120.23864000000003"><ele>2540.7365937763825</ele></trkpt><trkpt lat="39.11301" lon="-120.23864000000003"><ele>2540.7365937763825</ele></trkpt><trkpt lat="39.11376" lon="-120.23928000000001"><ele>2533.910431999713</ele></trkpt><trkpt lat="39.11433" lon="-120.23969999999997"><ele>2532.3370133345015</ele></trkpt><trkpt lat="39.1144" lon="-120.23969"><ele>2533.803047111258</ele></trkpt><trkpt lat="39.11451" lon="-120.23972000000003"><ele>2534.1525540366724</ele></trkpt><trkpt lat="39.11504" lon="-120.24002999999999"><ele>2532.0</ele></trkpt><trkpt lat="39.11614" lon="-120.24101999999999"><ele>2535.1038289023563</ele></trkpt><trkpt lat="39.116977229139856" lon="-120.24132170419455"><ele>2543.760120111052</ele></trkpt><trkpt lat="39.11701619573842" lon="-120.24133574568816"><ele>2544.0</ele></trkpt><trkpt lat="39.11725" lon="-120.24142"><ele>2544.0</ele></trkpt><trkpt lat="39.11752" lon="-120.24148000000002"><ele>2546.3830008879304</ele></trkpt><trkpt lat="39.11812" lon="-120.24183"><ele>2548.0</ele></trkpt><trkpt lat="39.11836" lon="-120.24205999999998"><ele>2548.0</ele></trkpt><trkpt lat="39.11857" lon="-120.24239"><ele>2545.513782965314</ele></trkpt><trkpt lat="39.11859" lon="-120.24256000000003"><ele>2547.0</ele></trkpt><trkpt lat="39.11866" lon="-120.24268999999998"><ele>2548.0</ele></trkpt><trkpt lat="39.1191" lon="-120.24313000000001"><ele>2550.917450271547</ele></trkpt><trkpt lat="39.11925" lon="-120.24344000000002"><ele>2549.133227447979</ele></trkpt><trkpt lat="39.11942" lon="-120.24403000000001"><ele>2544.0</ele></trkpt><trkpt lat="39.11955" lon="-120.24414000000002"><ele>2543.0</ele></trkpt><trkpt lat="39.1198" lon="-120.24421999999998"><ele>2540.7303170431037</ele></trkpt><trkpt lat="39.11991" lon="-120.24437"><ele>2538.620554925652</ele></trkpt><trkpt lat="39.12001" lon="-120.24446"><ele>2536.5049351104535</ele></trkpt><trkpt lat="39.12041" lon="-120.24475999999999"><ele>2536.405058120039</ele></trkpt><trkpt lat="39.12053" lon="-120.24489"><ele>2536.52462737768</ele></trkpt><trkpt lat="39.12056" lon="-120.24505999999997"><ele>2536.7835919074714</ele></trkpt><trkpt lat="39.12065" lon="-120.24522000000002"><ele>2537.0163995562084</ele></trkpt><trkpt lat="39.12085" lon="-120.24553000000003"><ele>2537.2038782835007</ele></trkpt><trkpt lat="39.12094" lon="-120.24562000000003"><ele>2537.4450168875046</ele></trkpt><trkpt lat="39.12132" lon="-120.24590999999998"><ele>2541.366945825517</ele></trkpt><trkpt lat="39.12144" lon="-120.24595"><ele>2543.0</ele></trkpt><trkpt lat="39.12163" lon="-120.24592000000001"><ele>2542.0</ele></trkpt><trkpt lat="39.12175" lon="-120.24598000000003"><ele>2540.667800887022</ele></trkpt><trkpt lat="39.12196" lon="-120.24621000000002"><ele>2536.949023999274</ele></trkpt><trkpt lat="39.12225" lon="-120.24631999999997"><ele>2536.768947839691</ele></trkpt><trkpt lat="39.12241" lon="-120.24631999999997"><ele>2535.0</ele></trkpt><trkpt lat="39.12288" lon="-120.24649"><ele>2530.0</ele></trkpt><trkpt lat="39.12301" lon="-120.24658999999997"><ele>2530.9674860069645</ele></trkpt><trkpt lat="39.12319" lon="-120.24689000000001"><ele>2533.0</ele></trkpt><trkpt lat="39.12344" lon="-120.24700000000001"><ele>2534.816264867067</ele></trkpt><trkpt lat="39.12381" lon="-120.24721999999997"><ele>2540.8814231621977</ele></trkpt><trkpt lat="39.12384" lon="-120.24721"><ele>2541.817219136283</ele></trkpt><trkpt lat="39.12369" lon="-120.24691000000001"><ele>2543.3266595546156</ele></trkpt><trkpt lat="39.12369" lon="-120.24684000000002"><ele>2544.0</ele></trkpt><trkpt lat="39.12373" lon="-120.24684000000002"><ele>2545.0</ele></trkpt><trkpt lat="39.12383" lon="-120.24691999999999"><ele>2547.216492915526</ele></trkpt><trkpt lat="39.12395" lon="-120.24716999999998"><ele>2547.5457927349653</ele></trkpt><trkpt lat="39.12409" lon="-120.24727999999999"><ele>2546.9325411945556</ele></trkpt><trkpt lat="39.12426" lon="-120.24736999999999"><ele>2546.936903180089</ele></trkpt><trkpt lat="39.12438" lon="-120.24754000000001"><ele>2545.247974961021</ele></trkpt><trkpt lat="39.12444" lon="-120.24769000000003"><ele>2544.8609484247863</ele></trkpt><trkpt lat="39.12444" lon="-120.24775999999997"><ele>2544.0</ele></trkpt><trkpt lat="39.12449" lon="-120.24778000000003"><ele>2544.0</ele></trkpt><trkpt lat="39.12503" lon="-120.24772000000002"><ele>2536.5779235544614</ele></trkpt><trkpt lat="39.12524" lon="-120.24775"><ele>2533.1798222223297</ele></trkpt><trkpt lat="39.12559" lon="-120.24787000000003"><ele>2530.0</ele></trkpt><trkpt lat="39.12581" lon="-120.24779000000001"><ele>2528.522365071345</ele></trkpt><trkpt lat="39.12592" lon="-120.24779000000001"><ele>2524.9141862080432</ele></trkpt><trkpt lat="39.12592" lon="-120.24775999999997"><ele>2524.229873318225</ele></trkpt><trkpt lat="39.12572" lon="-120.24763000000002"><ele>2523.4167645604875</ele></trkpt><trkpt lat="39.12563" lon="-120.24739999999997"><ele>2520.3315665823766</ele></trkpt><trkpt lat="39.12575" lon="-120.24673000000001"><ele>2513.4425090290606</ele></trkpt><trkpt lat="39.12577" lon="-120.24669"><ele>2512.82042642124</ele></trkpt><trkpt lat="39.12577" lon="-120.24689999999998"><ele>2511.241023754701</ele></trkpt><trkpt lat="39.12581" lon="-120.24715000000003"><ele>2511.719175412064</ele></trkpt><trkpt lat="39.12584" lon="-120.24715000000003"><ele>2510.035822607577</ele></trkpt><trkpt lat="39.12588" lon="-120.24707999999998"><ele>2507.6328486464918</ele></trkpt><trkpt lat="39.12589" lon="-120.24688000000003"><ele>2506.7335974227135</ele></trkpt><trkpt lat="39.12594" lon="-120.24667999999997"><ele>2505.0283851418644</ele></trkpt><trkpt lat="39.12607" lon="-120.24651"><ele>2504.2117075073725</ele></trkpt><trkpt lat="39.12722" lon="-120.24576000000002"><ele>2505.0</ele></trkpt><trkpt lat="39.12753" lon="-120.24577999999997"><ele>2504.0</ele></trkpt><trkpt lat="39.12815" lon="-120.24565000000001"><ele>2503.2964713237625</ele></trkpt><trkpt lat="39.1292" lon="-120.24522999999999"><ele>2499.620334222447</ele></trkpt><trkpt lat="39.12936" lon="-120.24520999999999"><ele>2498.0</ele></trkpt><trkpt lat="39.12949" lon="-120.24505999999997"><ele>2499.542908445932</ele></trkpt><trkpt lat="39.12962" lon="-120.24498"><ele>2498.962651007595</ele></trkpt><trkpt lat="39.12993" lon="-120.24495000000002"><ele>2497.0</ele></trkpt><trkpt lat="39.13006" lon="-120.24490000000003"><ele>2498.0</ele></trkpt><trkpt lat="39.13006" lon="-120.24490000000003"><ele>2498.0</ele></trkpt><trkpt lat="39.13108" lon="-120.24457000000001"><ele>2510.0</ele></trkpt><trkpt lat="39.13123" lon="-120.24455"><ele>2510.846420152772</ele></trkpt><trkpt lat="39.13154" lon="-120.24464"><ele>2512.116327110678</ele></trkpt><trkpt lat="39.13174" lon="-120.24481000000003"><ele>2512.0</ele></trkpt><trkpt lat="39.13193" lon="-120.24493000000001"><ele>2511.601347554475</ele></trkpt><trkpt lat="39.1321" lon="-120.24495000000002"><ele>2510.6230716565624</ele></trkpt><trkpt lat="39.13237" lon="-120.24491"><ele>2508.408486621419</ele></trkpt><trkpt lat="39.13252" lon="-120.24484999999999"><ele>2508.2374086078344</ele></trkpt><trkpt lat="39.13272" lon="-120.24445000000003"><ele>2510.962382388865</ele></trkpt><trkpt lat="39.13287" lon="-120.24428999999998"><ele>2513.7234276420427</ele></trkpt><trkpt lat="39.13304" lon="-120.24419999999998"><ele>2516.6218133345246</ele></trkpt><trkpt lat="39.13328" lon="-120.24414999999999"><ele>2519.9519822224975</ele></trkpt><trkpt lat="39.13373" lon="-120.24401"><ele>2524.453661872074</ele></trkpt><trkpt lat="39.13389" lon="-120.24403999999998"><ele>2526.078353778925</ele></trkpt><trkpt lat="39.13413" lon="-120.24414999999999"><ele>2524.961682232097</ele></trkpt><trkpt lat="39.13476" lon="-120.24466000000001"><ele>2527.0454132584855</ele></trkpt><trkpt lat="39.13506" lon="-120.24482999999998"><ele>2527.261685334146</ele></trkpt><trkpt lat="39.1352" lon="-120.24486999999999"><ele>2528.397550222464</ele></trkpt><trkpt lat="39.13584" lon="-120.24473999999998"><ele>2532.4559893342666</ele></trkpt><trkpt lat="39.13609" lon="-120.24475999999999"><ele>2533.5239217784256</ele></trkpt><trkpt lat="39.13644" lon="-120.24487999999997"><ele>2532.9315164457075</ele></trkpt><trkpt lat="39.13695" lon="-120.24513999999999"><ele>2532.8146382225677</ele></trkpt><trkpt lat="39.13737" lon="-120.24545999999998"><ele>2527.8698515954666</ele></trkpt><trkpt lat="39.13798" lon="-120.24585000000002"><ele>2521.726239998825</ele></trkpt><trkpt lat="39.13823" lon="-120.24589000000003"><ele>2521.0</ele></trkpt><trkpt lat="39.13852" lon="-120.24601000000001"><ele>2519.2696995548904</ele></trkpt><trkpt lat="39.13869" lon="-120.24599999999998"><ele>2520.0</ele></trkpt><trkpt lat="39.13899" lon="-120.24594000000002"><ele>2520.0</ele></trkpt><trkpt lat="39.13926" lon="-120.24592000000001"><ele>2519.5359964454547</ele></trkpt><trkpt lat="39.13986" lon="-120.24613"><ele>2521.0</ele></trkpt><trkpt lat="39.13998" lon="-120.24622999999997"><ele>2523.0</ele></trkpt><trkpt lat="39.14023" lon="-120.24667"><ele>2526.267058475066</ele></trkpt><trkpt lat="39.14045" lon="-120.24689000000001"><ele>2527.808168612736</ele></trkpt><trkpt lat="39.14073" lon="-120.24706000000003"><ele>2528.336152886972</ele></trkpt><trkpt lat="39.14087" lon="-120.24706000000003"><ele>2529.336152886972</ele></trkpt><trkpt lat="39.14212" lon="-120.24644"><ele>2536.0201131739377</ele></trkpt><trkpt lat="39.14233" lon="-120.24649"><ele>2537.635365443718</ele></trkpt><trkpt lat="39.14284" lon="-120.24684000000002"><ele>2536.7332330123636</ele></trkpt><trkpt lat="39.14299" lon="-120.24689999999998"><ele>2536.868242361794</ele></trkpt><trkpt lat="39.14437" lon="-120.24693000000002"><ele>2539.5689590697893</ele></trkpt><trkpt lat="39.14502143122026" lon="-120.24722930623636"><ele>2536.4459103955887</ele></trkpt><trkpt lat="39.14505955607432" lon="-120.24724682294766"><ele>2536.6295724813826</ele></trkpt><trkpt lat="39.14511" lon="-120.24727000000001"><ele>2535.5494435550645</ele></trkpt><trkpt lat="39.14533" lon="-120.24730999999997"><ele>2534.685308445245</ele></trkpt><trkpt lat="39.1456" lon="-120.24730999999997"><ele>2535.685308445245</ele></trkpt><trkpt lat="39.14592" lon="-120.24718000000001"><ele>2540.743747555185</ele></trkpt><trkpt lat="39.14633" lon="-120.24724000000003"><ele>2544.9475448871963</ele></trkpt><trkpt lat="39.14646" lon="-120.24729000000002"><ele>2546.57080271769</ele></trkpt><trkpt lat="39.14692" lon="-120.24765000000002"><ele>2550.3608161266893</ele></trkpt><trkpt lat="39.1471" lon="-120.24770999999998"><ele>2553.0148262617804</ele></trkpt><trkpt lat="39.1471" lon="-120.24770999999998"><ele>2553.0148262617804</ele></trkpt><trkpt lat="39.14781" lon="-120.24793999999997"><ele>2557.3251804457977</ele></trkpt><trkpt lat="39.1481" lon="-120.24808999999999"><ele>2559.334673778154</ele></trkpt><trkpt lat="39.14848" lon="-120.24817999999999"><ele>2562.03729824918</ele></trkpt><trkpt lat="39.14866" lon="-120.2484"><ele>2562.970212088898</ele></trkpt><trkpt lat="39.14873" lon="-120.24856"><ele>2563.595589865094</ele></trkpt><trkpt lat="39.14895" lon="-120.24892"><ele>2564.1636951868422</ele></trkpt><trkpt lat="39.14906" lon="-120.24900000000002"><ele>2563.9255999987945</ele></trkpt><trkpt lat="39.14929" lon="-120.24901"><ele>2565.459566222038</ele></trkpt><trkpt lat="39.14937" lon="-120.24907999999999"><ele>2565.798852961667</ele></trkpt><trkpt lat="39.14948" lon="-120.24925000000002"><ele>2565.359793111682</ele></trkpt><trkpt lat="39.14946" lon="-120.24936000000002"><ele>2564.0</ele></trkpt><trkpt lat="39.14948" lon="-120.24939"><ele>2562.750282666646</ele></trkpt><trkpt lat="39.14975" lon="-120.24936000000002"><ele>2559.1483839987777</ele></trkpt><trkpt lat="39.15007" lon="-120.24943999999999"><ele>2555.497540681184</ele></trkpt><trkpt lat="39.15071" lon="-120.24923999999999"><ele>2554.276616197679</ele></trkpt><trkpt lat="39.15121" lon="-120.24918000000002"><ele>2552.5369919985533</ele></trkpt><trkpt lat="39.15166" lon="-120.24909000000002"><ele>2549.731295998674</ele></trkpt><trkpt lat="39.15182" lon="-120.2491"><ele>2548.2652622219175</ele></trkpt><trkpt lat="39.15208" lon="-120.24905999999999"><ele>2547.4703301751233</ele></trkpt><trkpt lat="39.15221" lon="-120.24898000000002"><ele>2547.4366915095598</ele></trkpt><trkpt lat="39.15236" lon="-120.24883"><ele>2548.4787848409687</ele></trkpt><trkpt lat="39.15251" lon="-120.24876999999998"><ele>2547.354365024171</ele></trkpt><trkpt lat="39.15276" lon="-120.24878000000001"><ele>2545.178343110252</ele></trkpt><trkpt lat="39.152764310005885" lon="-120.24878107884666"><ele>2545.1280652126297</ele></trkpt><trkpt lat="39.152764310005885" lon="-120.24878107884666"><ele>2545.1280652126297</ele></trkpt><trkpt lat="39.15292" lon="-120.24882000000002"><ele>2544.028261628535</ele></trkpt><trkpt lat="39.15313" lon="-120.24905999999999"><ele>2540.1293973340653</ele></trkpt><trkpt lat="39.15325" lon="-120.2491"><ele>2540.0</ele></trkpt><trkpt lat="39.15356" lon="-120.24928"><ele>2539.0</ele></trkpt><trkpt lat="39.15356" lon="-120.24928"><ele>2539.0</ele></trkpt><trkpt lat="39.15356" lon="-120.24928"><ele>2539.0</ele></trkpt><trkpt lat="39.15386" lon="-120.24970000000002"><ele>2538.581919722259</ele></trkpt><trkpt lat="39.15404" lon="-120.24986000000001"><ele>2538.3383544993167</ele></trkpt><trkpt lat="39.15417" lon="-120.25002"><ele>2539.5196962319196</ele></trkpt><trkpt lat="39.15431" lon="-120.25031999999999"><ele>2540.0</ele></trkpt><trkpt lat="39.15471" lon="-120.25076999999999"><ele>2543.812017919231</ele></trkpt><trkpt lat="39.15487" lon="-120.25089000000003"><ele>2545.237999312949</ele></trkpt><trkpt lat="39.15502" lon="-120.25092999999998"><ele>2547.290851190177</ele></trkpt><trkpt lat="39.15591" lon="-120.25083999999998"><ele>2551.960504004266</ele></trkpt><trkpt lat="39.15613" lon="-120.25087000000002"><ele>2552.777283554431</ele></trkpt><trkpt lat="39.15625005846149" lon="-120.25090908880145"><ele>2551.965497435499</ele></trkpt><trkpt lat="39.156278987935906" lon="-120.25091850760322"><ele>2552.4966968745566</ele></trkpt><trkpt lat="39.15656" lon="-120.25101000000001"><ele>2551.214964325923</ele></trkpt><trkpt lat="39.15696" lon="-120.25108"><ele>2549.990574222058</ele></trkpt><trkpt lat="39.15709" lon="-120.25108"><ele>2548.990574222058</ele></trkpt><trkpt lat="39.15724" lon="-120.25101999999998"><ele>2549.786776890047</ele></trkpt><trkpt lat="39.15755" lon="-120.25101999999998"><ele>2549.8614610791446</ele></trkpt><trkpt lat="39.15796" lon="-120.25103000000001"><ele>2549.0</ele></trkpt><trkpt lat="39.15855" lon="-120.25114000000002"><ele>2546.194371554535</ele></trkpt><trkpt lat="39.15898" lon="-120.25137000000001"><ele>2548.0</ele></trkpt><trkpt lat="39.15928" lon="-120.25146000000001"><ele>2549.091970793398</ele></trkpt><trkpt lat="39.1595" lon="-120.25171999999998"><ele>2550.1644124453887</ele></trkpt><trkpt lat="39.16005" lon="-120.25214"><ele>2551.3583949794047</ele></trkpt><trkpt lat="39.16118" lon="-120.25310999999999"><ele>2557.707580688515</ele></trkpt><trkpt lat="39.16138" lon="-120.25337000000002"><ele>2555.1464858905783</ele></trkpt><trkpt lat="39.16168" lon="-120.25358"><ele>2551.4821297777817</ele></trkpt><trkpt lat="39.16218" lon="-120.25360999999998"><ele>2544.0311835852863</ele></trkpt><trkpt lat="39.16267" lon="-120.25346000000002"><ele>2536.925390589112</ele></trkpt><trkpt lat="39.16305" lon="-120.25356"><ele>2532.414197333157</ele></trkpt><trkpt lat="39.16366" lon="-120.25395000000003"><ele>2525.2388799982145</ele></trkpt><trkpt lat="39.16414" lon="-120.25441999999998"><ele>2516.3352924454957</ele></trkpt><trkpt lat="39.16414" lon="-120.25441999999998"><ele>2516.3352924454957</ele></trkpt><trkpt lat="39.16446" lon="-120.25473"><ele>2510.888245333452</ele></trkpt><trkpt lat="39.16491" lon="-120.25503000000003"><ele>2500.907231998164</ele></trkpt><trkpt lat="39.16523" lon="-120.25502"><ele>2497.4019733066575</ele></trkpt><trkpt lat="39.16556" lon="-120.25485000000003"><ele>2492.505971718114</ele></trkpt><trkpt lat="39.16602" lon="-120.25454000000002"><ele>2483.416202595459</ele></trkpt><trkpt lat="39.16603" lon="-120.25459000000001"><ele>2481.371881954372</ele></trkpt><trkpt lat="39.16594" lon="-120.25477999999998"><ele>2479.205895703591</ele></trkpt><trkpt lat="39.16567" lon="-120.25515999999999"><ele>2474.848792889621</ele></trkpt><trkpt lat="39.16558" lon="-120.25522999999998"><ele>2475.5898502318882</ele></trkpt><trkpt lat="39.1655" lon="-120.25536999999997"><ele>2473.1127825215062</ele></trkpt><trkpt lat="39.16554" lon="-120.25536999999997"><ele>2471.474379939493</ele></trkpt><trkpt lat="39.16594" lon="-120.25509999999997"><ele>2466.644995556213</ele></trkpt><trkpt lat="39.16623" lon="-120.25497999999999"><ele>2461.222543860487</ele></trkpt><trkpt lat="39.16623" lon="-120.25502"><ele>2459.9607777018455</ele></trkpt><trkpt lat="39.16562" lon="-120.25584000000003"><ele>2449.762131678406</ele></trkpt><trkpt lat="39.16548" lon="-120.25594999999998"><ele>2448.032124445308</ele></trkpt><trkpt lat="39.16539" lon="-120.25599"><ele>2448.0719868662673</ele></trkpt><trkpt lat="39.16538" lon="-120.25602000000003"><ele>2446.546587630246</ele></trkpt><trkpt lat="39.16564" lon="-120.25599999999997"><ele>2442.701955556404</ele></trkpt><trkpt lat="39.1658" lon="-120.25587000000002"><ele>2442.5445237657987</ele></trkpt><trkpt lat="39.16588" lon="-120.25584000000003"><ele>2440.979341600109</ele></trkpt><trkpt lat="39.16626" lon="-120.25572999999997"><ele>2436.2848675567657</ele></trkpt><trkpt lat="39.16711" lon="-120.25522999999998"><ele>2423.5865564453416</ele></trkpt><trkpt lat="39.1674" lon="-120.25499000000002"><ele>2421.4701639461928</ele></trkpt><trkpt lat="39.16804322995074" lon="-120.25452348157421"><ele>2411.973155084611</ele></trkpt><trkpt lat="39.16808225995483" lon="-120.25449517489983"><ele>2411.9325539327783</ele></trkpt><trkpt lat="39.16831" lon="-120.25432999999998"><ele>2408.5295964451507</ele></trkpt><trkpt lat="39.16874" lon="-120.25407000000001"><ele>2402.646474665962</ele></trkpt><trkpt lat="39.16933" lon="-120.25351"><ele>2396.4436327507146</ele></trkpt><trkpt lat="39.16945" lon="-120.25342999999998"><ele>2396.1808332632695</ele></trkpt><trkpt lat="39.16956" lon="-120.2534"><ele>2393.970312080852</ele></trkpt><trkpt lat="39.16958" lon="-120.25344000000001"><ele>2392.5709463031844</ele></trkpt><trkpt lat="39.16949" lon="-120.25356999999997"><ele>2389.9263056358323</ele></trkpt><trkpt lat="39.16925" lon="-120.25378"><ele>2392.566355794668</ele></trkpt><trkpt lat="39.16914" lon="-120.25400000000002"><ele>2388.015584297131</ele></trkpt><trkpt lat="39.16918" lon="-120.25404000000003"><ele>2385.6299615687553</ele></trkpt><trkpt lat="39.16957" lon="-120.25378"><ele>2380.3033456504536</ele></trkpt><trkpt lat="39.16983" lon="-120.25356999999997"><ele>2377.5121491392256</ele></trkpt><trkpt lat="39.17038" lon="-120.25326000000001"><ele>2371.1891000609194</ele></trkpt><trkpt lat="39.17077" lon="-120.25287000000003"><ele>2366.0</ele></trkpt><trkpt lat="39.17082" lon="-120.25287000000003"><ele>2365.5829644230084</ele></trkpt><trkpt lat="39.17072" lon="-120.25313"><ele>2360.0402269307524</ele></trkpt><trkpt lat="39.17067" lon="-120.25335999999999"><ele>2359.0337001332095</ele></trkpt><trkpt lat="39.17045" lon="-120.25365999999997"><ele>2358.204003263706</ele></trkpt><trkpt lat="39.17036" lon="-120.25383999999997"><ele>2355.79734144922</ele></trkpt><trkpt lat="39.17018" lon="-120.2541"><ele>2353.2483733338304</ele></trkpt><trkpt lat="39.17021" lon="-120.25413000000003"><ele>2351.95471749022</ele></trkpt><trkpt lat="39.17052" lon="-120.25409000000002"><ele>2346.044822043146</ele></trkpt><trkpt lat="39.17065" lon="-120.25401999999997"><ele>2343.242315487804</ele></trkpt><trkpt lat="39.17083" lon="-120.25398000000001"><ele>2341.3597103848183</ele></trkpt><trkpt lat="39.17099" lon="-120.25385"><ele>2340.72816837601</ele></trkpt><trkpt lat="39.17116" lon="-120.2536"><ele>2338.0</ele></trkpt><trkpt lat="39.17131" lon="-120.25347999999997"><ele>2338.0817213249097</ele></trkpt><trkpt lat="39.17138" lon="-120.25347"><ele>2337.751668698159</ele></trkpt><trkpt lat="39.17155" lon="-120.25338999999997"><ele>2337.3367715571076</ele></trkpt><trkpt lat="39.1715913917258" lon="-120.25340182620738"><ele>2337.0</ele></trkpt><trkpt lat="39.1721292803777" lon="-120.25333296528021"><ele>2334.9947821483947</ele></trkpt><trkpt lat="39.172486934113145" lon="-120.25334369411627"><ele>2332.9109793090347</ele></trkpt><trkpt lat="39.17286953842091" lon="-120.25333296528021"><ele>2334.9947821483947</ele></trkpt><trkpt lat="39.17306083979416" lon="-120.25329004993597"><ele>2336.9947821483947</ele></trkpt><trkpt lat="39.173102426980364" lon="-120.2532042192475"><ele>2336.8237974178046</ele></trkpt><trkpt lat="39.17312737928026" lon="-120.25305401554266"><ele>2334.005217852071</ele></trkpt><trkpt lat="39.17312737928026" lon="-120.2528823541657"><ele>2327.32901526941</ele></trkpt><trkpt lat="39.17314401414196" lon="-120.25257121791998"><ele>2315.323797415942</ele></trkpt><trkpt lat="39.173252140646994" lon="-120.25236737003485"><ele>2308.0</ele></trkpt><trkpt lat="39.173360266985775" lon="-120.25226008167425"><ele>2305.323797415942</ele></trkpt><trkpt lat="39.17356820178532" lon="-120.25209914913336"><ele>2300.8237974196672</ele></trkpt><trkpt lat="39.173792770678254" lon="-120.25186311474005"><ele>2299.0</ele></trkpt><trkpt lat="39.17395911754395" lon="-120.25175582637945"><ele>2296.0</ele></trkpt><trkpt lat="39.17422527171053" lon="-120.25151979198614"><ele>2296.1635882348373</ele></trkpt><trkpt lat="39.17445815577988" lon="-120.25127302875677"><ele>2294.0</ele></trkpt><trkpt lat="39.17454132847489" lon="-120.25109063854376"><ele>2293.0</ele></trkpt><trkpt lat="39.1746660873329" lon="-120.25106918087164"><ele>2292.0</ele></trkpt><trkpt lat="39.17472430805754" lon="-120.25106918087164"><ele>2292.3416296158266</ele></trkpt><trkpt lat="39.17477421149745" lon="-120.25114428272406"><ele>2294.3237974196672</ele></trkpt><trkpt lat="39.1748989699423" lon="-120.25124084224859"><ele>2293.9128181078286</ele></trkpt><trkpt lat="39.17502372816575" lon="-120.25133740177313"><ele>2293.0</ele></trkpt><trkpt lat="39.17516512055142" lon="-120.25144469013372"><ele>2294.0</ele></trkpt><trkpt lat="39.17533146417052" lon="-120.25149833431402"><ele>2294.0</ele></trkpt><trkpt lat="39.17533374848334" lon="-120.2515015018925"><ele>2294.0</ele></trkpt><trkpt lat="39.17536" lon="-120.25146999999998"><ele>2294.164731701442</ele></trkpt><trkpt lat="39.17555039845013" lon="-120.25135440175313"><ele>2295.337806291878</ele></trkpt><trkpt lat="39.17555039845013" lon="-120.25135440175313"><ele>2295.337806291878</ele></trkpt><trkpt lat="39.17564" lon="-120.25130000000001"><ele>2296.0</ele></trkpt><trkpt lat="39.17569" lon="-120.25115"><ele>2296.0</ele></trkpt><trkpt lat="39.17616" lon="-120.25110999999998"><ele>2296.0</ele></trkpt><trkpt lat="39.17624" lon="-120.25112999999999"><ele>2297.8643759408847</ele></trkpt><trkpt lat="39.17628" lon="-120.25096000000002"><ele>2297.0</ele></trkpt><trkpt lat="39.1769212565808" lon="-120.2506951331514"><ele>2296.0</ele></trkpt><trkpt lat="39.1769212565808" lon="-120.2506951331514"><ele>2296.0</ele></trkpt><trkpt lat="39.1772" lon="-120.25058000000001"><ele>2298.0</ele></trkpt><trkpt lat="39.17732" lon="-120.25063999999998"><ele>2297.641896776803</ele></trkpt><trkpt lat="39.1776" lon="-120.25098000000003"><ele>2298.0</ele></trkpt><trkpt lat="39.17779" lon="-120.2509"><ele>2298.0</ele></trkpt><trkpt lat="39.17792" lon="-120.25062000000003"><ele>2298.0</ele></trkpt><trkpt lat="39.17816300413593" lon="-120.2499951322219"><ele>2297.1813471695755</ele></trkpt><trkpt lat="39.17817606225459" lon="-120.2499615543145"><ele>2297.1658830516553</ele></trkpt><trkpt lat="39.1782" lon="-120.24990000000003"><ele>2297.0</ele></trkpt><trkpt lat="39.17837" lon="-120.24966999999998"><ele>2298.0</ele></trkpt><trkpt lat="39.17863" lon="-120.24954000000002"><ele>2301.0</ele></trkpt><trkpt lat="39.17863" lon="-120.24954000000002"><ele>2301.0</ele></trkpt><trkpt lat="39.17867" lon="-120.24936000000002"><ele>2299.8823708686978</ele></trkpt><trkpt lat="39.17874" lon="-120.24923000000001"><ele>2299.071968408399</ele></trkpt><trkpt lat="39.17885" lon="-120.24912999999998"><ele>2299.0</ele></trkpt><trkpt lat="39.17902" lon="-120.24889999999999"><ele>2299.955603665877</ele></trkpt><trkpt lat="39.17913" lon="-120.24869999999999"><ele>2300.050186717764</ele></trkpt><trkpt lat="39.17964" lon="-120.24810000000002"><ele>2297.198638411239</ele></trkpt><trkpt lat="39.17987" lon="-120.24766"><ele>2296.635722656099</ele></trkpt><trkpt lat="39.18012" lon="-120.24732"><ele>2296.0564704611897</ele></trkpt><trkpt lat="39.18024" lon="-120.24711000000002"><ele>2293.9940160014667</ele></trkpt><trkpt lat="39.18037" lon="-120.24667999999997"><ele>2289.127902265638</ele></trkpt><trkpt lat="39.18036" lon="-120.24652000000003"><ele>2284.2417704856834</ele></trkpt><trkpt lat="39.18029" lon="-120.24667999999997"><ele>2284.2315634470433</ele></trkpt><trkpt lat="39.18029" lon="-120.2466"><ele>2282.276999892667</ele></trkpt><trkpt lat="39.1804" lon="-120.24595999999997"><ele>2274.3562358476524</ele></trkpt><trkpt lat="39.18038" lon="-120.24572999999998"><ele>2273.687878422439</ele></trkpt><trkpt lat="39.18038" lon="-120.24536"><ele>2271.1259833117947</ele></trkpt><trkpt lat="39.18033" lon="-120.24507"><ele>2269.681833939627</ele></trkpt><trkpt lat="39.18022" lon="-120.24490000000003"><ele>2267.0</ele></trkpt><trkpt lat="39.18021" lon="-120.24468999999999"><ele>2266.253494124394</ele></trkpt><trkpt lat="39.18008" lon="-120.24453"><ele>2261.894342260901</ele></trkpt><trkpt lat="39.18" lon="-120.24446999999998"><ele>2259.8481406215087</ele></trkpt><trkpt lat="39.17995" lon="-120.24435"><ele>2260.363716484233</ele></trkpt><trkpt lat="39.17995" lon="-120.24428"><ele>2261.671931479126</ele></trkpt><trkpt lat="39.17963" lon="-120.24392"><ele>2257.268194780685</ele></trkpt><trkpt lat="39.17962" lon="-120.24391000000003"><ele>2256.996233018115</ele></trkpt><trkpt lat="39.17961" lon="-120.24400000000003"><ele>2253.395030448213</ele></trkpt><trkpt lat="39.17957" lon="-120.24400000000003"><ele>2251.9327099206857</ele></trkpt><trkpt lat="39.17952" lon="-120.24379999999996"><ele>2251.9725774231656</ele></trkpt><trkpt lat="39.17933" lon="-120.24347999999998"><ele>2244.6603362037904</ele></trkpt><trkpt lat="39.17926" lon="-120.24327"><ele>2243.3290259017285</ele></trkpt><trkpt lat="39.17923" lon="-120.24308000000002"><ele>2243.098792452365</ele></trkpt><trkpt lat="39.17915" lon="-120.24295000000001"><ele>2241.739804757759</ele></trkpt><trkpt lat="39.17894" lon="-120.24273"><ele>2238.2434318559244</ele></trkpt><trkpt lat="39.17876" lon="-120.24265000000003"><ele>2232.857048887294</ele></trkpt><trkpt lat="39.17864792811997" lon="-120.2425507363348"><ele>2232.268308160309</ele></trkpt><trkpt lat="39.17865762635095" lon="-120.24255932603688"><ele>2232.2212358210236</ele></trkpt><trkpt lat="39.17841" lon="-120.24234000000001"><ele>2228.4790066725855</ele></trkpt><trkpt lat="39.17824" lon="-120.24223999999998"><ele>2225.964433778543</ele></trkpt><trkpt lat="39.17813" lon="-120.24214"><ele>2223.781614510829</ele></trkpt><trkpt lat="39.1781" lon="-120.24209000000002"><ele>2224.0</ele></trkpt><trkpt lat="39.17808" lon="-120.24194"><ele>2224.4120449647307</ele></trkpt><trkpt lat="39.17787" lon="-120.24155999999999"><ele>2216.0</ele></trkpt><trkpt lat="39.17781" lon="-120.24149999999997"><ele>2215.4502559681005</ele></trkpt><trkpt lat="39.1778" lon="-120.24146999999999"><ele>2215.0</ele></trkpt><trkpt lat="39.17784" lon="-120.24135999999999"><ele>2213.0</ele></trkpt><trkpt lat="39.1777" lon="-120.24119999999999"><ele>2212.2460194040445</ele></trkpt><trkpt lat="39.17736" lon="-120.24110000000002"><ele>2209.0</ele></trkpt><trkpt lat="39.17717" lon="-120.24115"><ele>2206.942044246476</ele></trkpt><trkpt lat="39.17696" lon="-120.24097999999998"><ele>2201.315310221631</ele></trkpt><trkpt lat="39.17698" lon="-120.24090000000001"><ele>2200.305316316895</ele></trkpt><trkpt lat="39.17721" lon="-120.24095999999997"><ele>2201.4503996004983</ele></trkpt><trkpt lat="39.17744" lon="-120.24083999999999"><ele>2201.7402995105895</ele></trkpt><trkpt lat="39.17794" lon="-120.24071000000004"><ele>2195.003368183033</ele></trkpt><trkpt lat="39.17805" lon="-120.24077999999997"><ele>2193.9978993482805</ele></trkpt><trkpt lat="39.17835" lon="-120.24063000000001"><ele>2193.645659843477</ele></trkpt><trkpt lat="39.17862" lon="-120.24053000000004"><ele>2188.3012975814127</ele></trkpt><trkpt lat="39.17871" lon="-120.24044000000004"><ele>2186.830346554794</ele></trkpt><trkpt lat="39.17892" lon="-120.24014"><ele>2185.7585687280807</ele></trkpt><trkpt lat="39.17906" lon="-120.24002000000002"><ele>2185.9050884512253</ele></trkpt><trkpt lat="39.17911" lon="-120.23987"><ele>2184.196169382342</ele></trkpt><trkpt lat="39.17909" lon="-120.23975999999999"><ele>2181.060895276226</ele></trkpt><trkpt lat="39.17927" lon="-120.23937999999998"><ele>2177.7155556043026</ele></trkpt><trkpt lat="39.17931" lon="-120.23933"><ele>2178.1506826759633</ele></trkpt><trkpt lat="39.17946" lon="-120.23930000000001"><ele>2177.0432711122558</ele></trkpt><trkpt lat="39.1795" lon="-120.23927000000003"><ele>2177.4874839470704</ele></trkpt><trkpt lat="39.17952" lon="-120.23917"><ele>2175.947407628875</ele></trkpt><trkpt lat="39.17943" lon="-120.23858999999999"><ele>2170.5733988452703</ele></trkpt><trkpt lat="39.17937" lon="-120.23771999999997"><ele>2163.0</ele></trkpt><trkpt lat="39.17935" lon="-120.23770999999999"><ele>2162.7637936938554</ele></trkpt><trkpt lat="39.17931" lon="-120.23779000000002"><ele>2161.5925308303595</ele></trkpt><trkpt lat="39.17922" lon="-120.23822000000001"><ele>2156.948196992278</ele></trkpt><trkpt lat="39.17909" lon="-120.23858999999999"><ele>2152.132614744827</ele></trkpt><trkpt lat="39.17906" lon="-120.23849000000001"><ele>2151.329020895064</ele></trkpt><trkpt lat="39.17904" lon="-120.23813000000001"><ele>2148.1266254205257</ele></trkpt><trkpt lat="39.179" lon="-120.23802"><ele>2145.8245649901974</ele></trkpt><trkpt lat="39.17897" lon="-120.23801000000003"><ele>2145.0</ele></trkpt><trkpt lat="39.17895" lon="-120.23806000000002"><ele>2144.498034045104</ele></trkpt><trkpt lat="39.17876" lon="-120.23851000000002"><ele>2139.2931247148663</ele></trkpt><trkpt lat="39.17873" lon="-120.23852"><ele>2138.0</ele></trkpt><trkpt lat="39.17866" lon="-120.23816"><ele>2133.281176423654</ele></trkpt><trkpt lat="39.17863" lon="-120.2378"><ele>2130.0</ele></trkpt><trkpt lat="39.17853" lon="-120.23741999999999"><ele>2125.0</ele></trkpt><trkpt lat="39.17855" lon="-120.23725999999999"><ele>2125.0</ele></trkpt><trkpt lat="39.17849" lon="-120.23711000000003"><ele>2125.0</ele></trkpt><trkpt lat="39.17841" lon="-120.23678999999998"><ele>2121.0</ele></trkpt><trkpt lat="39.17831" lon="-120.23663999999997"><ele>2117.2825118404717</ele></trkpt><trkpt lat="39.17787" lon="-120.23626999999999"><ele>2111.826815187961</ele></trkpt><trkpt lat="39.17779" lon="-120.23613"><ele>2111.0</ele></trkpt><trkpt lat="39.1777" lon="-120.23565000000002"><ele>2110.5669079124928</ele></trkpt><trkpt lat="39.17767" lon="-120.23525000000001"><ele>2108.7633497193456</ele></trkpt><trkpt lat="39.17775" lon="-120.23437999999999"><ele>2094.5728399418294</ele></trkpt><trkpt lat="39.17775" lon="-120.23437999999999"><ele>2094.5728399418294</ele></trkpt><trkpt lat="39.17778" lon="-120.23399"><ele>2089.5863184022182</ele></trkpt><trkpt lat="39.17795" lon="-120.23331999999999"><ele>2078.1989246636645</ele></trkpt><trkpt lat="39.17803" lon="-120.23316"><ele>2075.8768960004672</ele></trkpt><trkpt lat="39.17812" lon="-120.23309999999998"><ele>2074.080693332944</ele></trkpt><trkpt lat="39.17825" lon="-120.23291999999998"><ele>2070.692085332703</ele></trkpt><trkpt lat="39.17837" lon="-120.23280999999997"><ele>2067.4789189916255</ele></trkpt><trkpt lat="39.17845" lon="-120.23264"><ele>2065.6431395555846</ele></trkpt><trkpt lat="39.17858" lon="-120.23246"><ele>2060.60611232784</ele></trkpt><trkpt lat="39.17849" lon="-120.23241000000002"><ele>2058.1319161864662</ele></trkpt><trkpt lat="39.17842" lon="-120.23241000000002"><ele>2056.9888461722353</ele></trkpt><trkpt lat="39.17821" lon="-120.23248999999998"><ele>2053.652632887941</ele></trkpt><trkpt lat="39.1781" lon="-120.23243000000002"><ele>2051.8564302236773</ele></trkpt><trkpt lat="39.17801" lon="-120.23241999999999"><ele>2049.469928384425</ele></trkpt><trkpt lat="39.17799" lon="-120.23239999999998"><ele>2048.459056597121</ele></trkpt><trkpt lat="39.17799" lon="-120.23235"><ele>2047.1295034517534</ele></trkpt><trkpt lat="39.17804" lon="-120.23221999999998"><ele>2045.0765006531517</ele></trkpt><trkpt lat="39.17819" lon="-120.23208"><ele>2041.5703819990158</ele></trkpt><trkpt lat="39.17823" lon="-120.23185000000001"><ele>2037.3552968013844</ele></trkpt><trkpt lat="39.17829" lon="-120.23178999999999"><ele>2036.059415681691</ele></trkpt><trkpt lat="39.17845" lon="-120.23178000000001"><ele>2034.8501459009462</ele></trkpt><trkpt lat="39.17852" lon="-120.23171000000002"><ele>2033.3019982236437</ele></trkpt><trkpt lat="39.17853" lon="-120.23167000000001"><ele>2031.9035195410252</ele></trkpt><trkpt lat="39.17851" lon="-120.23162000000002"><ele>2031.0</ele></trkpt><trkpt lat="39.17833" lon="-120.23154999999997"><ele>2028.0</ele></trkpt><trkpt lat="39.1783" lon="-120.23149999999998"><ele>2026.8246476995296</ele></trkpt><trkpt lat="39.17831" lon="-120.23147"><ele>2026.1171875558794</ele></trkpt><trkpt lat="39.1784904679261" lon="-120.23123539169603"><ele>2021.2563159750673</ele></trkpt><trkpt lat="39.17849034284149" lon="-120.23123555433887"><ele>2021.257139005501</ele></trkpt><trkpt lat="39.17851" lon="-120.23121000000003"><ele>2021.0003093350679</ele></trkpt><trkpt lat="39.17873" lon="-120.23109999999997"><ele>2016.9356501927039</ele></trkpt><trkpt lat="39.179" lon="-120.23070999999999"><ele>2010.7824535362759</ele></trkpt><trkpt lat="39.17936" lon="-120.22987"><ele>1998.3649940378964</ele></trkpt><trkpt lat="39.17934" lon="-120.22976"><ele>1996.425411555916</ele></trkpt><trkpt lat="39.17928990880905" lon="-120.22968128527134"><ele>1994.1143969863633</ele></trkpt><trkpt lat="39.17929342466986" lon="-120.2296868101833"><ele>1994.3717405153586</ele></trkpt><trkpt lat="39.17927" lon="-120.22964999999999"><ele>1994.0</ele></trkpt><trkpt lat="39.17926461696883" lon="-120.22964434174804"><ele>1994.0</ele></trkpt></trkseg></trk></gpx>