<?xml version="1.0"?>
<gpx xmlns="http://www.topografix.com/GPX/1/1" xmlns:gpxx="http://www.garmin.com/xmlschemas/GpxExtensions/v3" creator="CALTOPO" version="1.1"><metadata><name><![CDATA[Langley Actual: 8.22.26-8.23.26]]></name></metadata><wpt lat="36.49635607347349" lon="-118.2189291197152"><name>Camp 1</name></wpt><wpt lat="36.4530756148434" lon="-118.16983965632383"><name>Cottonwood Lakes Trailhead</name></wpt><trk><name>actual</name><trkseg><trkpt lat="36.45309433289458" lon="-118.16988771114045"><ele>3059.0</ele></trkpt><trkpt lat="36.45309992183727" lon="-118.16988733854419"><ele>3059.0</ele></trkpt><trkpt lat="36.4531" lon="-118.16989"><ele>3059.0</ele></trkpt><trkpt lat="36.45325" lon="-118.17022"><ele>3059.0</ele></trkpt><trkpt lat="36.45334263006941" lon="-118.17031684052711"><ele>3060.0</ele></trkpt><trkpt lat="36.45334500761778" lon="-118.17031932606582"><ele>3060.0</ele></trkpt><trkpt lat="36.45347" lon="-118.17045"><ele>3061.0</ele></trkpt><trkpt lat="36.45341" lon="-118.17102"><ele>3065.581392707303</ele></trkpt><trkpt lat="36.45344" lon="-118.17141"><ele>3069.566416963863</ele></trkpt><trkpt lat="36.45342" lon="-118.17206"><ele>3073.105311735401</ele></trkpt><trkpt lat="36.45347" lon="-118.17255"><ele>3075.0</ele></trkpt><trkpt lat="36.45343" lon="-118.17363"><ele>3077.0</ele></trkpt><trkpt lat="36.45357" lon="-118.17407"><ele>3078.8517828322947</ele></trkpt><trkpt lat="36.4535" lon="-118.17445"><ele>3080.0</ele></trkpt><trkpt lat="36.45343" lon="-118.17463"><ele>3080.8507755442033</ele></trkpt><trkpt lat="36.4534" lon="-118.1749"><ele>3081.001976911045</ele></trkpt><trkpt lat="36.4534" lon="-118.1749"><ele>3081.001976911045</ele></trkpt><trkpt lat="36.4534" lon="-118.1749"><ele>3081.001976911045</ele></trkpt><trkpt lat="36.45342" lon="-118.17509"><ele>3080.88519031378</ele></trkpt><trkpt lat="36.45337" lon="-118.17532"><ele>3082.0</ele></trkpt><trkpt lat="36.45346" lon="-118.17588"><ele>3083.0</ele></trkpt><trkpt lat="36.4538" lon="-118.17653"><ele>3087.0</ele></trkpt><trkpt lat="36.45425" lon="-118.17758"><ele>3091.3218425900873</ele></trkpt><trkpt lat="36.45433" lon="-118.17766"><ele>3092.3245332146053</ele></trkpt><trkpt lat="36.4545" lon="-118.17794"><ele>3089.0</ele></trkpt><trkpt lat="36.4547" lon="-118.17802"><ele>3088.8089236286437</ele></trkpt><trkpt lat="36.45497" lon="-118.17804"><ele>3087.0</ele></trkpt><trkpt lat="36.45504" lon="-118.17808"><ele>3087.0</ele></trkpt><trkpt lat="36.45545" lon="-118.17787"><ele>3087.0</ele></trkpt><trkpt lat="36.45584" lon="-118.1779"><ele>3081.0</ele></trkpt><trkpt lat="36.45622" lon="-118.17778"><ele>3078.0</ele></trkpt><trkpt lat="36.45636" lon="-118.17764"><ele>3077.0</ele></trkpt><trkpt lat="36.45664" lon="-118.17776"><ele>3076.0</ele></trkpt><trkpt lat="36.45664" lon="-118.17776"><ele>3076.0</ele></trkpt><trkpt lat="36.45695" lon="-118.17786"><ele>3075.292814185971</ele></trkpt><trkpt lat="36.45721" lon="-118.17779"><ele>3072.1673148558225</ele></trkpt><trkpt lat="36.45774" lon="-118.17786"><ele>3069.9545493330806</ele></trkpt><trkpt lat="36.45804" lon="-118.17796"><ele>3071.0</ele></trkpt><trkpt lat="36.45831" lon="-118.17786"><ele>3071.0</ele></trkpt><trkpt lat="36.45864" lon="-118.17818"><ele>3073.0</ele></trkpt><trkpt lat="36.45889" lon="-118.17836"><ele>3073.0</ele></trkpt><trkpt lat="36.45897" lon="-118.17861"><ele>3075.0</ele></trkpt><trkpt lat="36.45925" lon="-118.17884"><ele>3075.0</ele></trkpt><trkpt lat="36.45965" lon="-118.17889"><ele>3073.8214392530986</ele></trkpt><trkpt lat="36.460073090016444" lon="-118.17940616956412"><ele>3070.3433970175683</ele></trkpt><trkpt lat="36.46015" lon="-118.1795"><ele>3066.88685683161</ele></trkpt><trkpt lat="36.46016" lon="-118.17985"><ele>3066.3074076510966</ele></trkpt><trkpt lat="36.46021" lon="-118.18001"><ele>3065.4101606365293</ele></trkpt><trkpt lat="36.46024" lon="-118.18019"><ele>3066.8491709963146</ele></trkpt><trkpt lat="36.46041" lon="-118.18026"><ele>3066.9647057926863</ele></trkpt><trkpt lat="36.46062" lon="-118.18049"><ele>3068.5214328896254</ele></trkpt><trkpt lat="36.46128" lon="-118.18095"><ele>3067.975745809934</ele></trkpt><trkpt lat="36.4618" lon="-118.18165"><ele>3070.0</ele></trkpt><trkpt lat="36.46226" lon="-118.18199"><ele>3067.0</ele></trkpt><trkpt lat="36.46275" lon="-118.18274"><ele>3065.0</ele></trkpt><trkpt lat="36.46302" lon="-118.18296"><ele>3064.6317759994417</ele></trkpt><trkpt lat="36.46313" lon="-118.18298"><ele>3064.0</ele></trkpt><trkpt lat="36.46348" lon="-118.18297"><ele>3064.097809777595</ele></trkpt><trkpt lat="36.4636" lon="-118.18282"><ele>3063.002955607798</ele></trkpt><trkpt lat="36.46394" lon="-118.18261"><ele>3061.0</ele></trkpt><trkpt lat="36.4641" lon="-118.18245"><ele>3058.864053333644</ele></trkpt><trkpt lat="36.46463" lon="-118.18214"><ele>3058.0</ele></trkpt><trkpt lat="36.46483" lon="-118.18195"><ele>3057.0</ele></trkpt><trkpt lat="36.46499402161376" lon="-118.1818231153554"><ele>3057.524694679758</ele></trkpt><trkpt lat="36.46499608674996" lon="-118.18182151809874"><ele>3057.5332969014717</ele></trkpt><trkpt lat="36.46536" lon="-118.18154"><ele>3058.0</ele></trkpt><trkpt lat="36.46559" lon="-118.18146"><ele>3059.0</ele></trkpt><trkpt lat="36.46592" lon="-118.18141"><ele>3060.3965404443443</ele></trkpt><trkpt lat="36.46601" lon="-118.18131"><ele>3060.0</ele></trkpt><trkpt lat="36.46599" lon="-118.18114"><ele>3060.0</ele></trkpt><trkpt lat="36.46614" lon="-118.18074"><ele>3060.17927337522</ele></trkpt><trkpt lat="36.46614" lon="-118.18045"><ele>3061.0</ele></trkpt><trkpt lat="36.46614" lon="-118.18045"><ele>3061.0</ele></trkpt><trkpt lat="36.46614" lon="-118.18008"><ele>3063.0</ele></trkpt><trkpt lat="36.46618" lon="-118.17995"><ele>3063.0</ele></trkpt><trkpt lat="36.46629" lon="-118.17983"><ele>3064.0</ele></trkpt><trkpt lat="36.46717" lon="-118.17978"><ele>3060.433034666814</ele></trkpt><trkpt lat="36.4674" lon="-118.1797"><ele>3060.0</ele></trkpt><trkpt lat="36.46752" lon="-118.17961"><ele>3060.602228311014</ele></trkpt><trkpt lat="36.46764" lon="-118.17956"><ele>3060.1547778505524</ele></trkpt><trkpt lat="36.46783" lon="-118.17959"><ele>3058.5783928898163</ele></trkpt><trkpt lat="36.46792" lon="-118.17953"><ele>3058.0</ele></trkpt><trkpt lat="36.46805" lon="-118.17941"><ele>3059.0</ele></trkpt><trkpt lat="36.46846" lon="-118.17937"><ele>3057.5541298202384</ele></trkpt><trkpt lat="36.46858" lon="-118.17934"><ele>3057.0</ele></trkpt><trkpt lat="36.46895" lon="-118.17901"><ele>3056.0</ele></trkpt><trkpt lat="36.46932" lon="-118.17892"><ele>3053.6774336890785</ele></trkpt><trkpt lat="36.46943" lon="-118.17882"><ele>3055.267664986348</ele></trkpt><trkpt lat="36.46954" lon="-118.17878"><ele>3054.580820834264</ele></trkpt><trkpt lat="36.47003" lon="-118.17893"><ele>3053.0</ele></trkpt><trkpt lat="36.47026" lon="-118.17892"><ele>3054.345071590286</ele></trkpt><trkpt lat="36.47074" lon="-118.17878"><ele>3056.0</ele></trkpt><trkpt lat="36.47118" lon="-118.1786"><ele>3056.0</ele></trkpt><trkpt lat="36.47155" lon="-118.1785"><ele>3057.0</ele></trkpt><trkpt lat="36.4718" lon="-118.17853"><ele>3058.1788124446757</ele></trkpt><trkpt lat="36.47209" lon="-118.17842"><ele>3059.079630921686</ele></trkpt><trkpt lat="36.47228058256394" lon="-118.17838489268559"><ele>3060.0</ele></trkpt><trkpt lat="36.47228058256394" lon="-118.17838489268559"><ele>3060.0</ele></trkpt><trkpt lat="36.47247" lon="-118.17835"><ele>3062.0</ele></trkpt><trkpt lat="36.47277" lon="-118.17832"><ele>3063.6580447735328</ele></trkpt><trkpt lat="36.47313" lon="-118.17845"><ele>3067.6159794533037</ele></trkpt><trkpt lat="36.47356" lon="-118.17846"><ele>3070.935066604734</ele></trkpt><trkpt lat="36.4737" lon="-118.1785"><ele>3072.0</ele></trkpt><trkpt lat="36.47382" lon="-118.17848"><ele>3073.892530160227</ele></trkpt><trkpt lat="36.47414" lon="-118.17855"><ele>3077.110880000051</ele></trkpt><trkpt lat="36.47431" lon="-118.17867"><ele>3080.0</ele></trkpt><trkpt lat="36.47431" lon="-118.17867"><ele>3080.0</ele></trkpt><trkpt lat="36.47457" lon="-118.17869"><ele>3082.4806540520754</ele></trkpt><trkpt lat="36.47488" lon="-118.1785"><ele>3083.0</ele></trkpt><trkpt lat="36.47502" lon="-118.17832"><ele>3082.0</ele></trkpt><trkpt lat="36.4753" lon="-118.17808"><ele>3082.0</ele></trkpt><trkpt lat="36.47541" lon="-118.17804"><ele>3082.0</ele></trkpt><trkpt lat="36.47557" lon="-118.17791"><ele>3082.0</ele></trkpt><trkpt lat="36.4757" lon="-118.17789"><ele>3082.0</ele></trkpt><trkpt lat="36.47576" lon="-118.17783"><ele>3083.0</ele></trkpt><trkpt lat="36.47581" lon="-118.17769"><ele>3084.9879182011036</ele></trkpt><trkpt lat="36.47619" lon="-118.1776"><ele>3086.0</ele></trkpt><trkpt lat="36.47634" lon="-118.1776"><ele>3087.0</ele></trkpt><trkpt lat="36.47647" lon="-118.17767"><ele>3087.0</ele></trkpt><trkpt lat="36.47679" lon="-118.17806"><ele>3089.0</ele></trkpt><trkpt lat="36.47705" lon="-118.17822"><ele>3090.0</ele></trkpt><trkpt lat="36.47829" lon="-118.17827"><ele>3091.0</ele></trkpt><trkpt lat="36.4788" lon="-118.17837"><ele>3092.0</ele></trkpt><trkpt lat="36.47915" lon="-118.17835"><ele>3092.0</ele></trkpt><trkpt lat="36.4794" lon="-118.17828"><ele>3092.0</ele></trkpt><trkpt lat="36.47981" lon="-118.17829"><ele>3091.0</ele></trkpt><trkpt lat="36.48001" lon="-118.17834"><ele>3092.0</ele></trkpt><trkpt lat="36.48032" lon="-118.17849"><ele>3093.0</ele></trkpt><trkpt lat="36.48078" lon="-118.17856"><ele>3094.0</ele></trkpt><trkpt lat="36.481" lon="-118.17862"><ele>3095.0</ele></trkpt><trkpt lat="36.48129" lon="-118.17864"><ele>3096.0</ele></trkpt><trkpt lat="36.48149" lon="-118.17877"><ele>3097.363623111509</ele></trkpt><trkpt lat="36.48185" lon="-118.17871"><ele>3098.867536228713</ele></trkpt><trkpt lat="36.48228" lon="-118.17886"><ele>3103.213607773867</ele></trkpt><trkpt lat="36.48245" lon="-118.17883"><ele>3104.075213910794</ele></trkpt><trkpt lat="36.4831" lon="-118.17841"><ele>3108.646704437543</ele></trkpt><trkpt lat="36.48323" lon="-118.17839"><ele>3111.0</ele></trkpt><trkpt lat="36.48328005515034" lon="-118.1784198574581"><ele>3112.0</ele></trkpt><trkpt lat="36.48328005515034" lon="-118.1784198574581"><ele>3112.0</ele></trkpt><trkpt lat="36.4838" lon="-118.17873"><ele>3119.0</ele></trkpt><trkpt lat="36.4842" lon="-118.17882"><ele>3120.72302797855</ele></trkpt><trkpt lat="36.48449" lon="-118.17902"><ele>3121.0</ele></trkpt><trkpt lat="36.48462" lon="-118.17923"><ele>3122.199497016345</ele></trkpt><trkpt lat="36.48477" lon="-118.17932"><ele>3123.0562496830803</ele></trkpt><trkpt lat="36.48488" lon="-118.17951"><ele>3125.850122666452</ele></trkpt><trkpt lat="36.48501" lon="-118.17951"><ele>3126.0</ele></trkpt><trkpt lat="36.48521" lon="-118.17967"><ele>3126.1372101027328</ele></trkpt><trkpt lat="36.48544" lon="-118.1797"><ele>3127.0</ele></trkpt><trkpt lat="36.48576" lon="-118.17992"><ele>3128.6438747913894</ele></trkpt><trkpt lat="36.48609" lon="-118.18"><ele>3127.0</ele></trkpt><trkpt lat="36.48623" lon="-118.18009"><ele>3127.0</ele></trkpt><trkpt lat="36.48636" lon="-118.18026"><ele>3127.717474919634</ele></trkpt><trkpt lat="36.48656" lon="-118.18036"><ele>3127.0</ele></trkpt><trkpt lat="36.48689" lon="-118.18047"><ele>3128.0</ele></trkpt><trkpt lat="36.48689" lon="-118.18047"><ele>3128.0</ele></trkpt><trkpt lat="36.48689" lon="-118.18047"><ele>3128.0</ele></trkpt><trkpt lat="36.48703" lon="-118.18065"><ele>3129.0</ele></trkpt><trkpt lat="36.48719" lon="-118.18066"><ele>3131.0</ele></trkpt><trkpt lat="36.4873" lon="-118.18079"><ele>3132.0</ele></trkpt><trkpt lat="36.48763" lon="-118.18102"><ele>3136.721658270806</ele></trkpt><trkpt lat="36.48774" lon="-118.18117"><ele>3137.0771430392942</ele></trkpt><trkpt lat="36.4879" lon="-118.18131"><ele>3138.0</ele></trkpt><trkpt lat="36.48807" lon="-118.18156"><ele>3139.0</ele></trkpt><trkpt lat="36.48824" lon="-118.18205"><ele>3142.0807297620922</ele></trkpt><trkpt lat="36.48836" lon="-118.18219"><ele>3144.0</ele></trkpt><trkpt lat="36.48848" lon="-118.18225"><ele>3145.9925719201565</ele></trkpt><trkpt lat="36.48868" lon="-118.18226"><ele>3148.0</ele></trkpt><trkpt lat="36.48883" lon="-118.18221"><ele>3151.280752329156</ele></trkpt><trkpt lat="36.48896" lon="-118.18237"><ele>3154.0</ele></trkpt><trkpt lat="36.48956" lon="-118.18344"><ele>3165.0</ele></trkpt><trkpt lat="36.48975" lon="-118.1839"><ele>3169.2678132304954</ele></trkpt><trkpt lat="36.48968" lon="-118.18401"><ele>3169.0</ele></trkpt><trkpt lat="36.4897" lon="-118.18415"><ele>3170.711769338697</ele></trkpt><trkpt lat="36.48977" lon="-118.18432"><ele>3172.0</ele></trkpt><trkpt lat="36.48986" lon="-118.18491"><ele>3174.9865007977933</ele></trkpt><trkpt lat="36.48982" lon="-118.18523"><ele>3174.0</ele></trkpt><trkpt lat="36.48976" lon="-118.1854"><ele>3175.065291611873</ele></trkpt><trkpt lat="36.48971" lon="-118.18591"><ele>3176.0</ele></trkpt><trkpt lat="36.48974" lon="-118.18607"><ele>3176.5814269124517</ele></trkpt><trkpt lat="36.4898" lon="-118.18618"><ele>3178.5084742549807</ele></trkpt><trkpt lat="36.48978" lon="-118.18671"><ele>3181.6058625168553</ele></trkpt><trkpt lat="36.48984" lon="-118.1869"><ele>3183.0</ele></trkpt><trkpt lat="36.48986" lon="-118.18706"><ele>3184.9960261708534</ele></trkpt><trkpt lat="36.48983" lon="-118.18726"><ele>3185.2672786101375</ele></trkpt><trkpt lat="36.48989" lon="-118.18743"><ele>3187.0</ele></trkpt><trkpt lat="36.48989" lon="-118.18743"><ele>3187.0</ele></trkpt><trkpt lat="36.48989" lon="-118.18743"><ele>3187.0</ele></trkpt><trkpt lat="36.49013" lon="-118.18763"><ele>3191.0</ele></trkpt><trkpt lat="36.49019" lon="-118.18774"><ele>3192.0</ele></trkpt><trkpt lat="36.4903" lon="-118.18826"><ele>3196.309871635537</ele></trkpt><trkpt lat="36.49027" lon="-118.18836"><ele>3197.0</ele></trkpt><trkpt lat="36.49033" lon="-118.18865"><ele>3199.231135249138</ele></trkpt><trkpt lat="36.49033" lon="-118.18883"><ele>3199.231135249138</ele></trkpt><trkpt lat="36.49041" lon="-118.18924"><ele>3203.0</ele></trkpt><trkpt lat="36.49031" lon="-118.18988"><ele>3204.0</ele></trkpt><trkpt lat="36.49038" lon="-118.19049"><ele>3205.0</ele></trkpt><trkpt lat="36.49039" lon="-118.19092"><ele>3205.0</ele></trkpt><trkpt lat="36.49039" lon="-118.19092"><ele>3205.0</ele></trkpt><trkpt lat="36.49053" lon="-118.19162"><ele>3209.0</ele></trkpt><trkpt lat="36.49067" lon="-118.19204"><ele>3214.0</ele></trkpt><trkpt lat="36.49074" lon="-118.19218"><ele>3215.0</ele></trkpt><trkpt lat="36.49077" lon="-118.19256"><ele>3218.0178349524904</ele></trkpt><trkpt lat="36.49096" lon="-118.19297"><ele>3224.75079818815</ele></trkpt><trkpt lat="36.49098" lon="-118.19318"><ele>3226.83579473854</ele></trkpt><trkpt lat="36.49107" lon="-118.19325"><ele>3229.1272777318954</ele></trkpt><trkpt lat="36.49112" lon="-118.19375"><ele>3233.4955190246483</ele></trkpt><trkpt lat="36.4914" lon="-118.19434"><ele>3242.0</ele></trkpt><trkpt lat="36.49137" lon="-118.19464"><ele>3243.0</ele></trkpt><trkpt lat="36.4914" lon="-118.1949"><ele>3246.0</ele></trkpt><trkpt lat="36.49134" lon="-118.19516"><ele>3248.0</ele></trkpt><trkpt lat="36.49112" lon="-118.19535"><ele>3250.0</ele></trkpt><trkpt lat="36.49126" lon="-118.19581"><ele>3257.0</ele></trkpt><trkpt lat="36.49127" lon="-118.19613"><ele>3261.0</ele></trkpt><trkpt lat="36.49134" lon="-118.19627"><ele>3263.982899152285</ele></trkpt><trkpt lat="36.49134" lon="-118.1964"><ele>3265.995833188107</ele></trkpt><trkpt lat="36.49139" lon="-118.19653"><ele>3268.689879235203</ele></trkpt><trkpt lat="36.49137" lon="-118.19686"><ele>3271.5177225153893</ele></trkpt><trkpt lat="36.49141" lon="-118.19725"><ele>3276.4968905997894</ele></trkpt><trkpt lat="36.49139" lon="-118.1974"><ele>3277.3957924829133</ele></trkpt><trkpt lat="36.49145" lon="-118.19762"><ele>3281.0</ele></trkpt><trkpt lat="36.49148" lon="-118.19786"><ele>3282.896573717777</ele></trkpt><trkpt lat="36.49142" lon="-118.1982"><ele>3283.9224940702265</ele></trkpt><trkpt lat="36.49156" lon="-118.19841"><ele>3288.0</ele></trkpt><trkpt lat="36.49168" lon="-118.1988"><ele>3293.4879195541143</ele></trkpt><trkpt lat="36.49166" lon="-118.199"><ele>3295.0</ele></trkpt><trkpt lat="36.49174" lon="-118.19936"><ele>3299.8956760162328</ele></trkpt><trkpt lat="36.49186" lon="-118.19944"><ele>3304.0</ele></trkpt><trkpt lat="36.49197" lon="-118.19975"><ele>3311.0306251304182</ele></trkpt><trkpt lat="36.49197" lon="-118.19975"><ele>3311.0306251304182</ele></trkpt><trkpt lat="36.49208" lon="-118.19978"><ele>3316.338087046252</ele></trkpt><trkpt lat="36.49215" lon="-118.20008"><ele>3321.861688814443</ele></trkpt><trkpt lat="36.49215" lon="-118.20035"><ele>3325.04730243034</ele></trkpt><trkpt lat="36.4923" lon="-118.2008"><ele>3335.0</ele></trkpt><trkpt lat="36.49235" lon="-118.20123"><ele>3340.3269782178104</ele></trkpt><trkpt lat="36.49256" lon="-118.20154"><ele>3346.5004836693406</ele></trkpt><trkpt lat="36.49262" lon="-118.20176"><ele>3348.0</ele></trkpt><trkpt lat="36.49276" lon="-118.20194"><ele>3351.0</ele></trkpt><trkpt lat="36.49297" lon="-118.20244"><ele>3357.0</ele></trkpt><trkpt lat="36.49297" lon="-118.20244"><ele>3357.0</ele></trkpt><trkpt lat="36.49297" lon="-118.20244"><ele>3357.0</ele></trkpt><trkpt lat="36.49286" lon="-118.20283"><ele>3358.0</ele></trkpt><trkpt lat="36.49263" lon="-118.2033"><ele>3361.0</ele></trkpt><trkpt lat="36.49255" lon="-118.20357"><ele>3362.0100904420387</ele></trkpt><trkpt lat="36.49237" lon="-118.20402"><ele>3365.0</ele></trkpt><trkpt lat="36.4924" lon="-118.20484"><ele>3364.0</ele></trkpt><trkpt lat="36.49252" lon="-118.2053"><ele>3363.2487644446082</ele></trkpt><trkpt lat="36.49246" lon="-118.2059"><ele>3363.0</ele></trkpt><trkpt lat="36.49228" lon="-118.20657"><ele>3364.0</ele></trkpt><trkpt lat="36.49223" lon="-118.20687"><ele>3364.0</ele></trkpt><trkpt lat="36.49217" lon="-118.2077"><ele>3365.9569578327723</ele></trkpt><trkpt lat="36.49217" lon="-118.2077"><ele>3365.9569578327723</ele></trkpt><trkpt lat="36.49217" lon="-118.2077"><ele>3365.9569578327723</ele></trkpt><trkpt lat="36.49221951603516" lon="-118.20778046355713"><ele>3366.0</ele></trkpt><trkpt lat="36.49221951603516" lon="-118.20778046355713"><ele>3366.0</ele></trkpt><trkpt lat="36.49241" lon="-118.20809"><ele>3367.805119264871</ele></trkpt><trkpt lat="36.49245" lon="-118.20822"><ele>3368.0</ele></trkpt><trkpt lat="36.49238" lon="-118.20845"><ele>3368.0</ele></trkpt><trkpt lat="36.4924" lon="-118.20925"><ele>3371.0</ele></trkpt><trkpt lat="36.49235" lon="-118.20986"><ele>3375.0</ele></trkpt><trkpt lat="36.49216" lon="-118.21024"><ele>3378.0</ele></trkpt><trkpt lat="36.49222" lon="-118.21051"><ele>3379.0</ele></trkpt><trkpt lat="36.49238" lon="-118.21069"><ele>3380.0</ele></trkpt><trkpt lat="36.49245" lon="-118.21105"><ele>3381.0</ele></trkpt><trkpt lat="36.49258" lon="-118.21131"><ele>3381.0</ele></trkpt><trkpt lat="36.49283" lon="-118.21151"><ele>3382.0</ele></trkpt><trkpt lat="36.49332" lon="-118.21179"><ele>3384.0</ele></trkpt><trkpt lat="36.49361" lon="-118.21224"><ele>3385.0</ele></trkpt><trkpt lat="36.49361" lon="-118.21224"><ele>3385.0</ele></trkpt><trkpt lat="36.49361" lon="-118.21224"><ele>3385.0</ele></trkpt><trkpt lat="36.4936" lon="-118.21237"><ele>3385.0</ele></trkpt><trkpt lat="36.49342" lon="-118.21267"><ele>3385.0</ele></trkpt><trkpt lat="36.49339" lon="-118.21286"><ele>3385.0</ele></trkpt><trkpt lat="36.49341" lon="-118.21289"><ele>3385.0</ele></trkpt><trkpt lat="36.49341" lon="-118.21289"><ele>3385.0</ele></trkpt><trkpt lat="36.49361" lon="-118.21339"><ele>3385.0</ele></trkpt><trkpt lat="36.49383" lon="-118.21352"><ele>3385.0</ele></trkpt><trkpt lat="36.49426" lon="-118.21387"><ele>3385.04213931907</ele></trkpt><trkpt lat="36.49444" lon="-118.2143"><ele>3386.0</ele></trkpt><trkpt lat="36.49477" lon="-118.21531"><ele>3386.0</ele></trkpt><trkpt lat="36.49504" lon="-118.21569"><ele>3386.0</ele></trkpt><trkpt lat="36.49526" lon="-118.21592"><ele>3386.0</ele></trkpt><trkpt lat="36.4958" lon="-118.2163"><ele>3386.0</ele></trkpt><trkpt lat="36.495865616650455" lon="-118.2164567508872"><ele>3386.0</ele></trkpt><trkpt lat="36.4958761566343" lon="-118.2164819294041"><ele>3386.0</ele></trkpt><trkpt lat="36.49616" lon="-118.21716"><ele>3388.0</ele></trkpt><trkpt lat="36.49635" lon="-118.21739"><ele>3388.0</ele></trkpt><trkpt lat="36.49654" lon="-118.21784"><ele>3388.0</ele></trkpt><trkpt lat="36.49683" lon="-118.21807"><ele>3388.0</ele></trkpt><trkpt lat="36.49725" lon="-118.21835"><ele>3390.0</ele></trkpt><trkpt lat="36.49734" lon="-118.21857"><ele>3391.0</ele></trkpt><trkpt lat="36.49749" lon="-118.21879"><ele>3391.302638174419</ele></trkpt><trkpt lat="36.49766" lon="-118.21924"><ele>3393.0</ele></trkpt><trkpt lat="36.49794" lon="-118.21939"><ele>3392.0</ele></trkpt><trkpt lat="36.4982" lon="-118.21949"><ele>3391.0</ele></trkpt><trkpt lat="36.49831" lon="-118.21974"><ele>3388.0</ele></trkpt><trkpt lat="36.49847" lon="-118.21983"><ele>3387.1016853330657</ele></trkpt><trkpt lat="36.49849" lon="-118.21992"><ele>3385.0</ele></trkpt><trkpt lat="36.49847" lon="-118.22004"><ele>3383.314976000227</ele></trkpt><trkpt lat="36.49847" lon="-118.22018"><ele>3381.7905031107366</ele></trkpt><trkpt lat="36.49843" lon="-118.22031"><ele>3380.0</ele></trkpt><trkpt lat="36.49828" lon="-118.22049"><ele>3377.0330677258726</ele></trkpt><trkpt lat="36.49829" lon="-118.22089"><ele>3374.0</ele></trkpt><trkpt lat="36.49829" lon="-118.22089"><ele>3374.0</ele></trkpt><trkpt lat="36.49829" lon="-118.22089"><ele>3374.0</ele></trkpt><trkpt lat="36.49836" lon="-118.22102"><ele>3374.0</ele></trkpt><trkpt lat="36.49852" lon="-118.22112"><ele>3375.0</ele></trkpt><trkpt lat="36.49869" lon="-118.22143"><ele>3375.0</ele></trkpt><trkpt lat="36.49881" lon="-118.22156"><ele>3376.0</ele></trkpt><trkpt lat="36.49887" lon="-118.2218"><ele>3375.0</ele></trkpt><trkpt lat="36.49887" lon="-118.222"><ele>3374.0</ele></trkpt><trkpt lat="36.4987" lon="-118.22233"><ele>3374.0</ele></trkpt><trkpt lat="36.49861" lon="-118.22287"><ele>3378.669843245955</ele></trkpt><trkpt lat="36.49864" lon="-118.22307"><ele>3383.996452355141</ele></trkpt><trkpt lat="36.49874" lon="-118.22309"><ele>3390.2201276881897</ele></trkpt><trkpt lat="36.49862" lon="-118.22337"><ele>3394.8072901759297</ele></trkpt><trkpt lat="36.49861" lon="-118.22353"><ele>3396.0</ele></trkpt><trkpt lat="36.49874" lon="-118.22355"><ele>3400.0</ele></trkpt><trkpt lat="36.49928" lon="-118.22405"><ele>3409.0</ele></trkpt><trkpt lat="36.49961" lon="-118.22412"><ele>3412.0</ele></trkpt><trkpt lat="36.49991" lon="-118.22411"><ele>3412.0</ele></trkpt><trkpt lat="36.49991" lon="-118.22411"><ele>3412.0</ele></trkpt><trkpt lat="36.49991" lon="-118.22411"><ele>3412.0</ele></trkpt><trkpt lat="36.50029" lon="-118.22428"><ele>3414.0</ele></trkpt><trkpt lat="36.50053" lon="-118.22433"><ele>3417.0</ele></trkpt><trkpt lat="36.50075" lon="-118.22433"><ele>3418.0</ele></trkpt><trkpt lat="36.50093611588577" lon="-118.2245643673781"><ele>3417.0</ele></trkpt><trkpt lat="36.50093611588577" lon="-118.2245643673781"><ele>3417.0</ele></trkpt><trkpt lat="36.50102" lon="-118.22467"><ele>3417.0</ele></trkpt><trkpt lat="36.50105341619918" lon="-118.22488386367476"><ele>3417.0</ele></trkpt><trkpt lat="36.50105810609855" lon="-118.224913879012"><ele>3417.0</ele></trkpt><trkpt lat="36.50107" lon="-118.22499"><ele>3417.0</ele></trkpt><trkpt lat="36.501" lon="-118.22518"><ele>3417.0</ele></trkpt><trkpt lat="36.50099" lon="-118.22604"><ele>3417.0</ele></trkpt><trkpt lat="36.50091" lon="-118.22637"><ele>3417.0</ele></trkpt><trkpt lat="36.50081" lon="-118.22664"><ele>3417.0</ele></trkpt><trkpt lat="36.50081" lon="-118.22664"><ele>3417.0</ele></trkpt><trkpt lat="36.50077" lon="-118.22684"><ele>3419.774405861517</ele></trkpt><trkpt lat="36.50078" lon="-118.22702"><ele>3421.0</ele></trkpt><trkpt lat="36.50067" lon="-118.22746"><ele>3420.8212810969544</ele></trkpt><trkpt lat="36.50066" lon="-118.22793"><ele>3422.0</ele></trkpt><trkpt lat="36.50033" lon="-118.22924"><ele>3419.0</ele></trkpt><trkpt lat="36.50006845232674" lon="-118.23002464377197"><ele>3417.0</ele></trkpt><trkpt lat="36.50033" lon="-118.22924"><ele>3419.0</ele></trkpt><trkpt lat="36.50066" lon="-118.22793"><ele>3422.0</ele></trkpt><trkpt lat="36.50067" lon="-118.22746"><ele>3420.8212810969544</ele></trkpt><trkpt lat="36.50078" lon="-118.22702"><ele>3421.0</ele></trkpt><trkpt lat="36.50077" lon="-118.22684"><ele>3419.774405861517</ele></trkpt><trkpt lat="36.50081" lon="-118.22664"><ele>3417.0</ele></trkpt><trkpt lat="36.50081" lon="-118.22664"><ele>3417.0</ele></trkpt><trkpt lat="36.500800333008364" lon="-118.2262049853765"><ele>3416.0</ele></trkpt><trkpt lat="36.50080037772662" lon="-118.2262069976967"><ele>3416.0</ele></trkpt><trkpt lat="36.5008" lon="-118.22619"><ele>3416.0</ele></trkpt><trkpt lat="36.50061" lon="-118.22537"><ele>3413.0</ele></trkpt><trkpt lat="36.500513442392176" lon="-118.22519700095265"><ele>3413.0</ele></trkpt><trkpt lat="36.500513442392176" lon="-118.22519700095265"><ele>3413.0</ele></trkpt><trkpt lat="36.50037" lon="-118.22494"><ele>3413.0</ele></trkpt><trkpt lat="36.50025" lon="-118.22457"><ele>3413.0</ele></trkpt><trkpt lat="36.5001" lon="-118.2243"><ele>3412.0</ele></trkpt><trkpt lat="36.49991" lon="-118.22411"><ele>3412.0</ele></trkpt><trkpt lat="36.49991" lon="-118.22411"><ele>3412.0</ele></trkpt><trkpt lat="36.49991" lon="-118.22411"><ele>3412.0</ele></trkpt><trkpt lat="36.49961" lon="-118.22412"><ele>3412.0</ele></trkpt><trkpt lat="36.49928" lon="-118.22405"><ele>3409.0</ele></trkpt><trkpt lat="36.49874" lon="-118.22355"><ele>3400.0</ele></trkpt><trkpt lat="36.49861" lon="-118.22353"><ele>3396.0</ele></trkpt><trkpt lat="36.49862" lon="-118.22337"><ele>3394.8072901759297</ele></trkpt><trkpt lat="36.49874" lon="-118.22309"><ele>3390.2201276881897</ele></trkpt><trkpt lat="36.49864" lon="-118.22307"><ele>3383.996452355141</ele></trkpt><trkpt lat="36.49861" lon="-118.22287"><ele>3378.669843245955</ele></trkpt><trkpt lat="36.4987" lon="-118.22233"><ele>3374.0</ele></trkpt><trkpt lat="36.49887" lon="-118.222"><ele>3374.0</ele></trkpt><trkpt lat="36.49887" lon="-118.2218"><ele>3375.0</ele></trkpt><trkpt lat="36.49881" lon="-118.22156"><ele>3376.0</ele></trkpt><trkpt lat="36.49869" lon="-118.22143"><ele>3375.0</ele></trkpt><trkpt lat="36.49852" lon="-118.22112"><ele>3375.0</ele></trkpt><trkpt lat="36.49836" lon="-118.22102"><ele>3374.0</ele></trkpt><trkpt lat="36.49829" lon="-118.22089"><ele>3374.0</ele></trkpt><trkpt lat="36.49829" lon="-118.22089"><ele>3374.0</ele></trkpt><trkpt lat="36.498" lon="-118.22066"><ele>3373.0</ele></trkpt><trkpt lat="36.49788" lon="-118.22063"><ele>3373.0</ele></trkpt><trkpt lat="36.49777" lon="-118.22055"><ele>3373.2900034525883</ele></trkpt><trkpt lat="36.49759" lon="-118.2205"><ele>3373.110958854896</ele></trkpt><trkpt lat="36.49745" lon="-118.22038"><ele>3373.4597671716706</ele></trkpt><trkpt lat="36.49737" lon="-118.22041"><ele>3373.0</ele></trkpt><trkpt lat="36.49722" lon="-118.2202"><ele>3374.0</ele></trkpt><trkpt lat="36.497" lon="-118.2203"><ele>3373.0</ele></trkpt><trkpt lat="36.49682" lon="-118.22018"><ele>3374.0</ele></trkpt><trkpt lat="36.4967" lon="-118.22018"><ele>3373.0</ele></trkpt><trkpt lat="36.49657" lon="-118.22009"><ele>3373.0005651467372</ele></trkpt><trkpt lat="36.4964732100213" lon="-118.21999654760677"><ele>3373.5721128184314</ele></trkpt><trkpt lat="36.49647782914657" lon="-118.2200010073382"><ele>3373.669756246627</ele></trkpt><trkpt lat="36.49632227946011" lon="-118.2198508215477"><ele>3374.0</ele></trkpt><trkpt lat="36.496356549161376" lon="-118.21895497526319"><ele>3383.8807937074453</ele></trkpt><trkpt lat="36.49719922218771" lon="-118.22020944447227"><ele>3374.0</ele></trkpt><trkpt lat="36.49722" lon="-118.2202"><ele>3374.0</ele></trkpt><trkpt lat="36.49737" lon="-118.22041"><ele>3373.0</ele></trkpt><trkpt lat="36.49745" lon="-118.22038"><ele>3373.4597671716706</ele></trkpt><trkpt lat="36.49759" lon="-118.2205"><ele>3373.110958854896</ele></trkpt><trkpt lat="36.49776146660806" lon="-118.22054762961335"><ele>3373.023164072073</ele></trkpt><trkpt lat="36.497772005536646" lon="-118.2205514585711"><ele>3373.3097064919643</ele></trkpt><trkpt lat="36.49788" lon="-118.22063"><ele>3373.0</ele></trkpt><trkpt lat="36.498" lon="-118.22066"><ele>3373.0</ele></trkpt><trkpt lat="36.49829" lon="-118.22089"><ele>3374.0</ele></trkpt><trkpt lat="36.49829" lon="-118.22089"><ele>3374.0</ele></trkpt><trkpt lat="36.49836" lon="-118.22102"><ele>3374.0</ele></trkpt><trkpt lat="36.49852" lon="-118.22112"><ele>3375.0</ele></trkpt><trkpt lat="36.49869" lon="-118.22143"><ele>3375.0</ele></trkpt><trkpt lat="36.49881" lon="-118.22156"><ele>3376.0</ele></trkpt><trkpt lat="36.49887" lon="-118.2218"><ele>3375.0</ele></trkpt><trkpt lat="36.49887" lon="-118.222"><ele>3374.0</ele></trkpt><trkpt lat="36.4987" lon="-118.22233"><ele>3374.0</ele></trkpt><trkpt lat="36.49861" lon="-118.22287"><ele>3378.669843245955</ele></trkpt><trkpt lat="36.49864" lon="-118.22307"><ele>3383.996452355141</ele></trkpt><trkpt lat="36.49874" lon="-118.22309"><ele>3390.2201276881897</ele></trkpt><trkpt lat="36.49862" lon="-118.22337"><ele>3394.8072901759297</ele></trkpt><trkpt lat="36.49861" lon="-118.22353"><ele>3396.0</ele></trkpt><trkpt lat="36.49874" lon="-118.22355"><ele>3400.0</ele></trkpt><trkpt lat="36.49928" lon="-118.22405"><ele>3409.0</ele></trkpt><trkpt lat="36.49961" lon="-118.22412"><ele>3412.0</ele></trkpt><trkpt lat="36.49991" lon="-118.22411"><ele>3412.0</ele></trkpt><trkpt lat="36.49991" lon="-118.22411"><ele>3412.0</ele></trkpt><trkpt lat="36.49991" lon="-118.22411"><ele>3412.0</ele></trkpt><trkpt lat="36.5001" lon="-118.2243"><ele>3412.0</ele></trkpt><trkpt lat="36.50025" lon="-118.22457"><ele>3413.0</ele></trkpt><trkpt lat="36.50037" lon="-118.22494"><ele>3413.0</ele></trkpt><trkpt lat="36.500513442392176" lon="-118.22519700095265"><ele>3413.0</ele></trkpt><trkpt lat="36.500513442392176" lon="-118.22519700095265"><ele>3413.0</ele></trkpt><trkpt lat="36.50061" lon="-118.22537"><ele>3413.0</ele></trkpt><trkpt lat="36.5008" lon="-118.22619"><ele>3416.0</ele></trkpt><trkpt lat="36.50081" lon="-118.22664"><ele>3417.0</ele></trkpt><trkpt lat="36.50081" lon="-118.22664"><ele>3417.0</ele></trkpt><trkpt lat="36.50077" lon="-118.22684"><ele>3419.774405861517</ele></trkpt><trkpt lat="36.50078" lon="-118.22702"><ele>3421.0</ele></trkpt><trkpt lat="36.50067" lon="-118.22746"><ele>3420.8212810969544</ele></trkpt><trkpt lat="36.50066" lon="-118.22793"><ele>3422.0</ele></trkpt><trkpt lat="36.50033" lon="-118.22924"><ele>3419.0</ele></trkpt><trkpt lat="36.49992" lon="-118.23047"><ele>3416.173717852682</ele></trkpt><trkpt lat="36.49993" lon="-118.23083"><ele>3418.0</ele></trkpt><trkpt lat="36.49987" lon="-118.2312"><ele>3419.2141368635926</ele></trkpt><trkpt lat="36.49969" lon="-118.23147"><ele>3419.0</ele></trkpt><trkpt lat="36.49968" lon="-118.23167"><ele>3420.259820584208</ele></trkpt><trkpt lat="36.4996" lon="-118.23185"><ele>3418.62186441198</ele></trkpt><trkpt lat="36.49963" lon="-118.23215"><ele>3420.361097415909</ele></trkpt><trkpt lat="36.49957" lon="-118.2323"><ele>3422.8876126550836</ele></trkpt><trkpt lat="36.49955" lon="-118.23273"><ele>3426.7458154018095</ele></trkpt><trkpt lat="36.49937" lon="-118.23302"><ele>3426.1717588494485</ele></trkpt><trkpt lat="36.49936183841521" lon="-118.23313426218706"><ele>3426.7509614186533</ele></trkpt><trkpt lat="36.499361186602236" lon="-118.23314338757737"><ele>3426.7768170107156</ele></trkpt><trkpt lat="36.49935" lon="-118.2333"><ele>3426.691249198131</ele></trkpt><trkpt lat="36.49926" lon="-118.23345"><ele>3425.9674885122085</ele></trkpt><trkpt lat="36.49926" lon="-118.23362"><ele>3429.5089313907242</ele></trkpt><trkpt lat="36.49912" lon="-118.23381"><ele>3430.3284418724047</ele></trkpt><trkpt lat="36.49909" lon="-118.23407"><ele>3433.5562444710863</ele></trkpt><trkpt lat="36.49867" lon="-118.23457"><ele>3434.8321031113155</ele></trkpt><trkpt lat="36.49851" lon="-118.23486"><ele>3440.6279605033774</ele></trkpt><trkpt lat="36.49851" lon="-118.23486"><ele>3440.6279605033774</ele></trkpt><trkpt lat="36.49846" lon="-118.23496"><ele>3443.538930045441</ele></trkpt><trkpt lat="36.49831" lon="-118.2351"><ele>3447.531893333886</ele></trkpt><trkpt lat="36.49841" lon="-118.23527"><ele>3454.454467555508</ele></trkpt><trkpt lat="36.49824" lon="-118.2354"><ele>3458.398704205212</ele></trkpt><trkpt lat="36.49834" lon="-118.2355"><ele>3463.173244445119</ele></trkpt><trkpt lat="36.49826" lon="-118.23557"><ele>3465.4354808884673</ele></trkpt><trkpt lat="36.498" lon="-118.23569"><ele>3467.027886223048</ele></trkpt><trkpt lat="36.49783" lon="-118.23553"><ele>3466.0</ele></trkpt><trkpt lat="36.49765" lon="-118.23549"><ele>3470.1125587537026</ele></trkpt><trkpt lat="36.49758" lon="-118.23553"><ele>3471.571345778182</ele></trkpt><trkpt lat="36.49752" lon="-118.23563"><ele>3475.971813707909</ele></trkpt><trkpt lat="36.49731" lon="-118.23564"><ele>3478.697717333678</ele></trkpt><trkpt lat="36.49719" lon="-118.23552"><ele>3479.199630886782</ele></trkpt><trkpt lat="36.4968" lon="-118.23531"><ele>3490.703582942486</ele></trkpt><trkpt lat="36.49658" lon="-118.23486"><ele>3500.457476535812</ele></trkpt><trkpt lat="36.49658" lon="-118.23486"><ele>3500.457476535812</ele></trkpt><trkpt lat="36.49653" lon="-118.23472"><ele>3502.3560836631805</ele></trkpt><trkpt lat="36.49642" lon="-118.23461"><ele>3508.9556740116745</ele></trkpt><trkpt lat="36.49619" lon="-118.23419"><ele>3518.189382052049</ele></trkpt><trkpt lat="36.49618" lon="-118.23406"><ele>3518.646281151101</ele></trkpt><trkpt lat="36.49595" lon="-118.23375"><ele>3530.979789569974</ele></trkpt><trkpt lat="36.49593" lon="-118.23392"><ele>3535.7431863156417</ele></trkpt><trkpt lat="36.49596" lon="-118.23401"><ele>3535.959599029415</ele></trkpt><trkpt lat="36.49592" lon="-118.23402"><ele>3538.7189399208874</ele></trkpt><trkpt lat="36.49581" lon="-118.23388"><ele>3543.771591227036</ele></trkpt><trkpt lat="36.49579" lon="-118.2342"><ele>3550.5105006583035</ele></trkpt><trkpt lat="36.49555" lon="-118.23385"><ele>3562.16840554215</ele></trkpt><trkpt lat="36.4955" lon="-118.23372"><ele>3566.0669741164893</ele></trkpt><trkpt lat="36.49543" lon="-118.2337"><ele>3572.124966977164</ele></trkpt><trkpt lat="36.49538" lon="-118.23381"><ele>3576.023531060666</ele></trkpt><trkpt lat="36.49536" lon="-118.23405"><ele>3580.1829561702907</ele></trkpt><trkpt lat="36.49542" lon="-118.23439"><ele>3587.704679943621</ele></trkpt><trkpt lat="36.4954" lon="-118.23473"><ele>3595.2494185277988</ele></trkpt><trkpt lat="36.49543" lon="-118.23486"><ele>3597.0433738716692</ele></trkpt><trkpt lat="36.49543" lon="-118.23486"><ele>3597.0433738716692</ele></trkpt><trkpt lat="36.49551" lon="-118.2352"><ele>3596.679491661489</ele></trkpt><trkpt lat="36.49553" lon="-118.23554"><ele>3603.037379555404</ele></trkpt><trkpt lat="36.49565" lon="-118.23577"><ele>3604.3712627775967</ele></trkpt><trkpt lat="36.49572" lon="-118.23601"><ele>3607.9409671104513</ele></trkpt><trkpt lat="36.49585" lon="-118.23634"><ele>3618.097036568448</ele></trkpt><trkpt lat="36.49585" lon="-118.23645"><ele>3620.6534888584965</ele></trkpt><trkpt lat="36.4959" lon="-118.23663"><ele>3626.7134344498627</ele></trkpt><trkpt lat="36.49603" lon="-118.23676"><ele>3628.8935004444793</ele></trkpt><trkpt lat="36.4961" lon="-118.23694"><ele>3630.566136143636</ele></trkpt><trkpt lat="36.49623" lon="-118.23714"><ele>3633.8997772885014</ele></trkpt><trkpt lat="36.49624" lon="-118.23724"><ele>3636.386893807465</ele></trkpt><trkpt lat="36.49634" lon="-118.2374"><ele>3636.370773676783</ele></trkpt><trkpt lat="36.49639" lon="-118.23764"><ele>3642.376646551769</ele></trkpt><trkpt lat="36.49653" lon="-118.23782"><ele>3644.1043613164525</ele></trkpt><trkpt lat="36.49666" lon="-118.2385"><ele>3648.0</ele></trkpt><trkpt lat="36.49662" lon="-118.23882"><ele>3652.0</ele></trkpt><trkpt lat="36.49662" lon="-118.23882"><ele>3652.0</ele></trkpt><trkpt lat="36.49684" lon="-118.23922"><ele>3654.0</ele></trkpt><trkpt lat="36.49692" lon="-118.23951"><ele>3655.0</ele></trkpt><trkpt lat="36.49717" lon="-118.23987"><ele>3658.956860266918</ele></trkpt><trkpt lat="36.49762" lon="-118.24075"><ele>3666.7013553028037</ele></trkpt><trkpt lat="36.49802" lon="-118.24143"><ele>3676.0</ele></trkpt><trkpt lat="36.49822" lon="-118.24164"><ele>3681.878490260198</ele></trkpt><trkpt lat="36.49834" lon="-118.24185"><ele>3684.0</ele></trkpt><trkpt lat="36.49851" lon="-118.24199"><ele>3687.159528601851</ele></trkpt><trkpt lat="36.49877" lon="-118.24225"><ele>3692.0</ele></trkpt><trkpt lat="36.49889" lon="-118.24228"><ele>3694.46021335572</ele></trkpt><trkpt lat="36.49917" lon="-118.24253"><ele>3700.0</ele></trkpt><trkpt lat="36.49924" lon="-118.2427"><ele>3700.821413231325</ele></trkpt><trkpt lat="36.49938" lon="-118.24293"><ele>3705.0</ele></trkpt><trkpt lat="36.49944" lon="-118.24294"><ele>3706.0</ele></trkpt><trkpt lat="36.49965" lon="-118.24315"><ele>3710.520586458966</ele></trkpt><trkpt lat="36.49978" lon="-118.2432"><ele>3715.0</ele></trkpt><trkpt lat="36.4999" lon="-118.24334"><ele>3717.464008155598</ele></trkpt><trkpt lat="36.5" lon="-118.24342"><ele>3718.948781218204</ele></trkpt><trkpt lat="36.50004" lon="-118.24342"><ele>3719.095137440014</ele></trkpt><trkpt lat="36.50008" lon="-118.24327"><ele>3722.323094880726</ele></trkpt><trkpt lat="36.50013" lon="-118.24321"><ele>3724.0</ele></trkpt><trkpt lat="36.50034" lon="-118.24318"><ele>3727.0</ele></trkpt><trkpt lat="36.50042" lon="-118.2431"><ele>3729.6410844442435</ele></trkpt><trkpt lat="36.50062" lon="-118.24308"><ele>3730.0</ele></trkpt><trkpt lat="36.50088" lon="-118.24295"><ele>3733.0</ele></trkpt><trkpt lat="36.50098" lon="-118.24287"><ele>3734.359861333389</ele></trkpt><trkpt lat="36.50132" lon="-118.24273"><ele>3736.584564254181</ele></trkpt><trkpt lat="36.50161" lon="-118.24253"><ele>3740.2050097775646</ele></trkpt><trkpt lat="36.50171" lon="-118.2425"><ele>3741.0</ele></trkpt><trkpt lat="36.5019" lon="-118.2424"><ele>3742.2634488889016</ele></trkpt><trkpt lat="36.50208" lon="-118.24237"><ele>3743.26510568649</ele></trkpt><trkpt lat="36.50226" lon="-118.24238"><ele>3744.195516444277</ele></trkpt><trkpt lat="36.50266" lon="-118.24236"><ele>3745.127584000118</ele></trkpt><trkpt lat="36.5031" lon="-118.24226"><ele>3749.7879217774607</ele></trkpt><trkpt lat="36.50356" lon="-118.24224"><ele>3753.7199893337674</ele></trkpt><trkpt lat="36.5037" lon="-118.24226"><ele>3753.7879217774607</ele></trkpt><trkpt lat="36.50374" lon="-118.24223"><ele>3755.1194992227147</ele></trkpt><trkpt lat="36.50432" lon="-118.24229"><ele>3758.0</ele></trkpt><trkpt lat="36.50484" lon="-118.24226"><ele>3760.7879217774607</ele></trkpt><trkpt lat="36.50504" lon="-118.24229"><ele>3760.0</ele></trkpt><trkpt lat="36.50523" lon="-118.24228"><ele>3760.855854222551</ele></trkpt><trkpt lat="36.50544" lon="-118.24219"><ele>3763.050158222206</ele></trkpt><trkpt lat="36.50592" lon="-118.24209"><ele>3769.0</ele></trkpt><trkpt lat="36.50644" lon="-118.24208"><ele>3773.032557178007</ele></trkpt><trkpt lat="36.50653" lon="-118.24204"><ele>3775.016371311265</ele></trkpt><trkpt lat="36.50681" lon="-118.24203"><ele>3777.8208879414733</ele></trkpt><trkpt lat="36.50718977290807" lon="-118.24191518493477"><ele>3783.0</ele></trkpt><trkpt lat="36.5072443445451" lon="-118.24189913109151"><ele>3783.929093105736</ele></trkpt><trkpt lat="36.50734" lon="-118.24188"><ele>3786.182137254681</ele></trkpt><trkpt lat="36.50751" lon="-118.24192"><ele>3788.633070222102</ele></trkpt><trkpt lat="36.50774" lon="-118.24188"><ele>3791.0</ele></trkpt><trkpt lat="36.50794" lon="-118.24188"><ele>3793.0</ele></trkpt><trkpt lat="36.50815" lon="-118.24191"><ele>3795.0</ele></trkpt><trkpt lat="36.50864" lon="-118.24175"><ele>3799.4118652218326</ele></trkpt><trkpt lat="36.50893" lon="-118.24173"><ele>3800.4877119995654</ele></trkpt><trkpt lat="36.50935952051677" lon="-118.24154827978137"><ele>3806.0</ele></trkpt><trkpt lat="36.50935952051677" lon="-118.24154827978137"><ele>3806.0</ele></trkpt><trkpt lat="36.50945" lon="-118.24151"><ele>3807.9237587227603</ele></trkpt><trkpt lat="36.50964" lon="-118.24151"><ele>3810.0</ele></trkpt><trkpt lat="36.50964" lon="-118.24151"><ele>3810.0</ele></trkpt><trkpt lat="36.50986" lon="-118.2415"><ele>3812.2064888887107</ele></trkpt><trkpt lat="36.51004" lon="-118.24145"><ele>3816.491386306816</ele></trkpt><trkpt lat="36.51017" lon="-118.24146"><ele>3818.032016645946</ele></trkpt><trkpt lat="36.51045" lon="-118.24129"><ele>3823.9978807257994</ele></trkpt><trkpt lat="36.51077" lon="-118.24124"><ele>3830.0</ele></trkpt><trkpt lat="36.51087" lon="-118.24119"><ele>3831.6535359998234</ele></trkpt><trkpt lat="36.51106" lon="-118.24117"><ele>3835.033916481158</ele></trkpt><trkpt lat="36.51132" lon="-118.24107"><ele>3843.0328390048026</ele></trkpt><trkpt lat="36.51141" lon="-118.24106"><ele>3845.8133641169484</ele></trkpt><trkpt lat="36.5117" lon="-118.24122"><ele>3855.7872724006643</ele></trkpt><trkpt lat="36.51186" lon="-118.24139"><ele>3862.296584087011</ele></trkpt><trkpt lat="36.51201" lon="-118.24167"><ele>3867.142109852284</ele></trkpt><trkpt lat="36.51209" lon="-118.24171"><ele>3869.0</ele></trkpt><trkpt lat="36.51226" lon="-118.2415"><ele>3873.0</ele></trkpt><trkpt lat="36.51248" lon="-118.24139"><ele>3879.394539402798</ele></trkpt><trkpt lat="36.51269" lon="-118.24111"><ele>3884.353118687508</ele></trkpt><trkpt lat="36.5128" lon="-118.24109"><ele>3887.9494797531515</ele></trkpt><trkpt lat="36.51295" lon="-118.2412"><ele>3893.6471344511956</ele></trkpt><trkpt lat="36.51307" lon="-118.24134"><ele>3899.6052703466266</ele></trkpt><trkpt lat="36.5135" lon="-118.24203"><ele>3919.0</ele></trkpt><trkpt lat="36.51354" lon="-118.24207"><ele>3921.215509597212</ele></trkpt><trkpt lat="36.51369" lon="-118.24199"><ele>3927.5558110140264</ele></trkpt><trkpt lat="36.51377" lon="-118.2421"><ele>3933.194611432031</ele></trkpt><trkpt lat="36.51379" lon="-118.24226"><ele>3937.0751419197923</ele></trkpt><trkpt lat="36.51392" lon="-118.24233"><ele>3943.0</ele></trkpt><trkpt lat="36.51394" lon="-118.2424"><ele>3944.0520782452077</ele></trkpt><trkpt lat="36.51398" lon="-118.24244"><ele>3945.3714853469282</ele></trkpt><trkpt lat="36.51414" lon="-118.2425"><ele>3950.7883838386897</ele></trkpt><trkpt lat="36.5144" lon="-118.2428"><ele>3959.7253323029727</ele></trkpt><trkpt lat="36.51471" lon="-118.24286"><ele>3970.700875548646</ele></trkpt><trkpt lat="36.51488" lon="-118.24296"><ele>3976.0</ele></trkpt><trkpt lat="36.51507" lon="-118.24281"><ele>3982.5757903251797</ele></trkpt><trkpt lat="36.51524" lon="-118.24278"><ele>3988.6860225158</ele></trkpt><trkpt lat="36.51531" lon="-118.24272"><ele>3991.0</ele></trkpt><trkpt lat="36.51542" lon="-118.24267"><ele>3995.2782330280784</ele></trkpt><trkpt lat="36.51557" lon="-118.24251"><ele>4001.5688886120915</ele></trkpt><trkpt lat="36.51584" lon="-118.24276"><ele>4013.225239576772</ele></trkpt><trkpt lat="36.51604" lon="-118.24278"><ele>4018.901675446036</ele></trkpt><trkpt lat="36.51617" lon="-118.24287"><ele>4020.0</ele></trkpt><trkpt lat="36.51675" lon="-118.24302"><ele>4023.002458686237</ele></trkpt><trkpt lat="36.51697" lon="-118.24315"><ele>4020.3109155553393</ele></trkpt><trkpt lat="36.51729" lon="-118.24359"><ele>4023.3065773230046</ele></trkpt><trkpt lat="36.51734" lon="-118.24372"><ele>4024.0</ele></trkpt><trkpt lat="36.51738" lon="-118.24397"><ele>4022.571094875252</ele></trkpt><trkpt lat="36.51759" lon="-118.24443"><ele>4036.361504872795</ele></trkpt><trkpt lat="36.5176" lon="-118.24452"><ele>4035.2827918864787</ele></trkpt><trkpt lat="36.51764" lon="-118.24461"><ele>4036.6023086886853</ele></trkpt><trkpt lat="36.51775" lon="-118.24477"><ele>4039.7944296346977</ele></trkpt><trkpt lat="36.51782" lon="-118.24484"><ele>4041.591356246732</ele></trkpt><trkpt lat="36.51787" lon="-118.24486"><ele>4042.5586931253783</ele></trkpt><trkpt lat="36.51792" lon="-118.24479"><ele>4046.739439101417</ele></trkpt><trkpt lat="36.5179" lon="-118.24471"><ele>4048.414069963664</ele></trkpt><trkpt lat="36.51792" lon="-118.24461"><ele>4052.22650574409</ele></trkpt><trkpt lat="36.51799" lon="-118.24456"><ele>4056.5390164256655</ele></trkpt><trkpt lat="36.51814" lon="-118.24457"><ele>4062.650504395362</ele></trkpt><trkpt lat="36.51826" lon="-118.24463"><ele>4066.1875343159927</ele></trkpt><trkpt lat="36.51831" lon="-118.24463"><ele>4068.1535469911896</ele></trkpt><trkpt lat="36.51841" lon="-118.24454"><ele>4074.650681326315</ele></trkpt><trkpt lat="36.51846" lon="-118.24452"><ele>4077.1526673696935</ele></trkpt><trkpt lat="36.51862" lon="-118.2446"><ele>4082.3171094983873</ele></trkpt><trkpt lat="36.51879" lon="-118.24429"><ele>4100.471994412597</ele></trkpt><trkpt lat="36.51893" lon="-118.24398"><ele>4117.780792694044</ele></trkpt><trkpt lat="36.51904" lon="-118.24367"><ele>4129.863311269321</ele></trkpt><trkpt lat="36.51913" lon="-118.24358"><ele>4135.001401774129</ele></trkpt><trkpt lat="36.51927" lon="-118.24358"><ele>4140.123638352379</ele></trkpt><trkpt lat="36.51947" lon="-118.24368"><ele>4145.721484657377</ele></trkpt><trkpt lat="36.51955" lon="-118.24362"><ele>4150.0</ele></trkpt><trkpt lat="36.51996" lon="-118.24296"><ele>4174.022571226164</ele></trkpt><trkpt lat="36.52015" lon="-118.24275"><ele>4185.106652998831</ele></trkpt><trkpt lat="36.52029" lon="-118.24268"><ele>4191.272967932746</ele></trkpt><trkpt lat="36.52046" lon="-118.2427"><ele>4198.75463844425</ele></trkpt><trkpt lat="36.52061" lon="-118.24264"><ele>4205.065252505588</ele></trkpt><trkpt lat="36.52082" lon="-118.24243"><ele>4214.141342747495</ele></trkpt><trkpt lat="36.52129" lon="-118.2416"><ele>4228.0</ele></trkpt><trkpt lat="36.52171" lon="-118.2408"><ele>4238.619411449879</ele></trkpt><trkpt lat="36.52199" lon="-118.24034"><ele>4244.228288708914</ele></trkpt><trkpt lat="36.52238" lon="-118.23997"><ele>4253.0</ele></trkpt><trkpt lat="36.52277" lon="-118.23952"><ele>4264.090276997536</ele></trkpt><trkpt lat="36.52307" lon="-118.23957"><ele>4270.0</ele></trkpt><trkpt lat="36.52321" lon="-118.2395"><ele>4273.0</ele></trkpt><trkpt lat="36.523294186566474" lon="-118.2394939866738"><ele>4275.0</ele></trkpt><trkpt lat="36.52332769826072" lon="-118.23949159298259"><ele>4275.084282896049</ele></trkpt><trkpt lat="36.52321" lon="-118.2395"><ele>4273.0</ele></trkpt><trkpt lat="36.52307" lon="-118.23957"><ele>4270.0</ele></trkpt><trkpt lat="36.52277" lon="-118.23952"><ele>4264.090276997536</ele></trkpt><trkpt lat="36.52238" lon="-118.23997"><ele>4253.0</ele></trkpt><trkpt lat="36.52199" lon="-118.24034"><ele>4244.228288708914</ele></trkpt><trkpt lat="36.52171" lon="-118.2408"><ele>4238.619411449879</ele></trkpt><trkpt lat="36.52129" lon="-118.2416"><ele>4228.0</ele></trkpt><trkpt lat="36.52082" lon="-118.24243"><ele>4214.141342747495</ele></trkpt><trkpt lat="36.52061" lon="-118.24264"><ele>4205.065252505588</ele></trkpt><trkpt lat="36.52046" lon="-118.2427"><ele>4198.75463844425</ele></trkpt><trkpt lat="36.52029" lon="-118.24268"><ele>4191.272967932746</ele></trkpt><trkpt lat="36.52015" lon="-118.24275"><ele>4185.106652998831</ele></trkpt><trkpt lat="36.51996" lon="-118.24296"><ele>4174.022571226164</ele></trkpt><trkpt lat="36.51955" lon="-118.24362"><ele>4150.0</ele></trkpt><trkpt lat="36.51947" lon="-118.24368"><ele>4145.721484657377</ele></trkpt><trkpt lat="36.51927" lon="-118.24358"><ele>4140.123638352379</ele></trkpt><trkpt lat="36.51913" lon="-118.24358"><ele>4135.001401774129</ele></trkpt><trkpt lat="36.51904" lon="-118.24367"><ele>4129.863311269321</ele></trkpt><trkpt lat="36.51893" lon="-118.24398"><ele>4117.780792694044</ele></trkpt><trkpt lat="36.51879" lon="-118.24429"><ele>4100.471994412597</ele></trkpt><trkpt lat="36.51862" lon="-118.2446"><ele>4082.3171094983873</ele></trkpt><trkpt lat="36.51846" lon="-118.24452"><ele>4077.1526673696935</ele></trkpt><trkpt lat="36.51841" lon="-118.24454"><ele>4074.650681326315</ele></trkpt><trkpt lat="36.51831" lon="-118.24463"><ele>4068.1535469911896</ele></trkpt><trkpt lat="36.51826" lon="-118.24463"><ele>4066.1875343159927</ele></trkpt><trkpt lat="36.51814" lon="-118.24457"><ele>4062.650504395362</ele></trkpt><trkpt lat="36.51799" lon="-118.24456"><ele>4056.5390164256655</ele></trkpt><trkpt lat="36.51792" lon="-118.24461"><ele>4052.22650574409</ele></trkpt><trkpt lat="36.5179" lon="-118.24471"><ele>4048.414069963664</ele></trkpt><trkpt lat="36.51792" lon="-118.24479"><ele>4046.739439101417</ele></trkpt><trkpt lat="36.51787" lon="-118.24486"><ele>4042.5586931253783</ele></trkpt><trkpt lat="36.51782" lon="-118.24484"><ele>4041.591356246732</ele></trkpt><trkpt lat="36.51775" lon="-118.24477"><ele>4039.7944296346977</ele></trkpt><trkpt lat="36.51764" lon="-118.24461"><ele>4036.6023086886853</ele></trkpt><trkpt lat="36.5176" lon="-118.24452"><ele>4035.2827918864787</ele></trkpt><trkpt lat="36.51759" lon="-118.24443"><ele>4036.361504872795</ele></trkpt><trkpt lat="36.51738" lon="-118.24397"><ele>4022.571094875252</ele></trkpt><trkpt lat="36.51734" lon="-118.24372"><ele>4024.0</ele></trkpt><trkpt lat="36.51729" lon="-118.24359"><ele>4023.3065773230046</ele></trkpt><trkpt lat="36.51697" lon="-118.24315"><ele>4020.3109155553393</ele></trkpt><trkpt lat="36.51675" lon="-118.24302"><ele>4023.002458686237</ele></trkpt><trkpt lat="36.51617" lon="-118.24287"><ele>4020.0</ele></trkpt><trkpt lat="36.51604" lon="-118.24278"><ele>4018.901675446036</ele></trkpt><trkpt lat="36.51584" lon="-118.24276"><ele>4013.225239576772</ele></trkpt><trkpt lat="36.51557" lon="-118.24251"><ele>4001.5688886120915</ele></trkpt><trkpt lat="36.51542" lon="-118.24267"><ele>3995.2782330280784</ele></trkpt><trkpt lat="36.51531" lon="-118.24272"><ele>3991.0</ele></trkpt><trkpt lat="36.51524" lon="-118.24278"><ele>3988.6860225158</ele></trkpt><trkpt lat="36.51507" lon="-118.24281"><ele>3982.5757903251797</ele></trkpt><trkpt lat="36.51488" lon="-118.24296"><ele>3976.0</ele></trkpt><trkpt lat="36.51471" lon="-118.24286"><ele>3970.700875548646</ele></trkpt><trkpt lat="36.5144" lon="-118.2428"><ele>3959.7253323029727</ele></trkpt><trkpt lat="36.51414" lon="-118.2425"><ele>3950.7883838386897</ele></trkpt><trkpt lat="36.51398" lon="-118.24244"><ele>3945.3714853469282</ele></trkpt><trkpt lat="36.51394" lon="-118.2424"><ele>3944.0520782452077</ele></trkpt><trkpt lat="36.51392" lon="-118.24233"><ele>3943.0</ele></trkpt><trkpt lat="36.51379" lon="-118.24226"><ele>3937.0751419197923</ele></trkpt><trkpt lat="36.51377" lon="-118.2421"><ele>3933.194611432031</ele></trkpt><trkpt lat="36.51369" lon="-118.24199"><ele>3927.5558110140264</ele></trkpt><trkpt lat="36.51354" lon="-118.24207"><ele>3921.215509597212</ele></trkpt><trkpt lat="36.5135" lon="-118.24203"><ele>3919.0</ele></trkpt><trkpt lat="36.51307" lon="-118.24134"><ele>3899.6052703466266</ele></trkpt><trkpt lat="36.51295" lon="-118.2412"><ele>3893.6471344511956</ele></trkpt><trkpt lat="36.5128" lon="-118.24109"><ele>3887.9494797531515</ele></trkpt><trkpt lat="36.51269" lon="-118.24111"><ele>3884.353118687508</ele></trkpt><trkpt lat="36.51248" lon="-118.24139"><ele>3879.394539402798</ele></trkpt><trkpt lat="36.51226" lon="-118.2415"><ele>3873.0</ele></trkpt><trkpt lat="36.51209" lon="-118.24171"><ele>3869.0</ele></trkpt><trkpt lat="36.51201" lon="-118.24167"><ele>3867.142109852284</ele></trkpt><trkpt lat="36.51186" lon="-118.24139"><ele>3862.296584087011</ele></trkpt><trkpt lat="36.5117" lon="-118.24122"><ele>3855.7872724006643</ele></trkpt><trkpt lat="36.51141" lon="-118.24106"><ele>3845.8133641169484</ele></trkpt><trkpt lat="36.51132" lon="-118.24107"><ele>3843.0328390048026</ele></trkpt><trkpt lat="36.51106" lon="-118.24117"><ele>3835.033916481158</ele></trkpt><trkpt lat="36.51087" lon="-118.24119"><ele>3831.6535359998234</ele></trkpt><trkpt lat="36.51077" lon="-118.24124"><ele>3830.0</ele></trkpt><trkpt lat="36.51045" lon="-118.24129"><ele>3823.9978807257994</ele></trkpt><trkpt lat="36.51017" lon="-118.24146"><ele>3818.032016645946</ele></trkpt><trkpt lat="36.51004" lon="-118.24145"><ele>3816.491386306816</ele></trkpt><trkpt lat="36.50986" lon="-118.2415"><ele>3812.2064888887107</ele></trkpt><trkpt lat="36.50964" lon="-118.24151"><ele>3810.0</ele></trkpt><trkpt lat="36.50964" lon="-118.24151"><ele>3810.0</ele></trkpt><trkpt lat="36.50945" lon="-118.24151"><ele>3807.9237587227603</ele></trkpt><trkpt lat="36.50935952051677" lon="-118.24154827978137"><ele>3806.0</ele></trkpt><trkpt lat="36.50935952051677" lon="-118.24154827978137"><ele>3806.0</ele></trkpt><trkpt lat="36.50893" lon="-118.24173"><ele>3800.4877119995654</ele></trkpt><trkpt lat="36.50864" lon="-118.24175"><ele>3799.4118652218326</ele></trkpt><trkpt lat="36.50815" lon="-118.24191"><ele>3795.0</ele></trkpt><trkpt lat="36.50794" lon="-118.24188"><ele>3793.0</ele></trkpt><trkpt lat="36.50774" lon="-118.24188"><ele>3791.0</ele></trkpt><trkpt lat="36.50751" lon="-118.24192"><ele>3788.633070222102</ele></trkpt><trkpt lat="36.50734" lon="-118.24188"><ele>3786.182137254681</ele></trkpt><trkpt lat="36.50724" lon="-118.2419"><ele>3783.812271680301</ele></trkpt><trkpt lat="36.50681" lon="-118.24203"><ele>3777.8208879414733</ele></trkpt><trkpt lat="36.50653" lon="-118.24204"><ele>3775.016371311265</ele></trkpt><trkpt lat="36.50644" lon="-118.24208"><ele>3773.032557178007</ele></trkpt><trkpt lat="36.50592" lon="-118.24209"><ele>3769.0</ele></trkpt><trkpt lat="36.50544" lon="-118.24219"><ele>3763.050158222206</ele></trkpt><trkpt lat="36.50523" lon="-118.24228"><ele>3760.855854222551</ele></trkpt><trkpt lat="36.50504" lon="-118.24229"><ele>3760.0</ele></trkpt><trkpt lat="36.50484" lon="-118.24226"><ele>3760.7879217774607</ele></trkpt><trkpt lat="36.50432" lon="-118.24229"><ele>3758.0</ele></trkpt><trkpt lat="36.50374" lon="-118.24223"><ele>3755.1194992227147</ele></trkpt><trkpt lat="36.5037" lon="-118.24226"><ele>3753.7879217774607</ele></trkpt><trkpt lat="36.50356" lon="-118.24224"><ele>3753.7199893337674</ele></trkpt><trkpt lat="36.5031" lon="-118.24226"><ele>3749.7879217774607</ele></trkpt><trkpt lat="36.50266" lon="-118.24236"><ele>3745.127584000118</ele></trkpt><trkpt lat="36.50226" lon="-118.24238"><ele>3744.195516444277</ele></trkpt><trkpt lat="36.50208" lon="-118.24237"><ele>3743.26510568649</ele></trkpt><trkpt lat="36.5019" lon="-118.2424"><ele>3742.2634488889016</ele></trkpt><trkpt lat="36.50171" lon="-118.2425"><ele>3741.0</ele></trkpt><trkpt lat="36.50161" lon="-118.24253"><ele>3740.2050097775646</ele></trkpt><trkpt lat="36.50132" lon="-118.24273"><ele>3736.584564254181</ele></trkpt><trkpt lat="36.50098" lon="-118.24287"><ele>3734.359861333389</ele></trkpt><trkpt lat="36.50088" lon="-118.24295"><ele>3733.0</ele></trkpt><trkpt lat="36.50062" lon="-118.24308"><ele>3730.0</ele></trkpt><trkpt lat="36.50042" lon="-118.2431"><ele>3729.6410844442435</ele></trkpt><trkpt lat="36.50034" lon="-118.24318"><ele>3727.0</ele></trkpt><trkpt lat="36.50013" lon="-118.24321"><ele>3724.0</ele></trkpt><trkpt lat="36.50008" lon="-118.24327"><ele>3722.323094880726</ele></trkpt><trkpt lat="36.50004" lon="-118.24342"><ele>3719.095137440014</ele></trkpt><trkpt lat="36.5" lon="-118.24342"><ele>3718.948781218204</ele></trkpt><trkpt lat="36.4999" lon="-118.24334"><ele>3717.464008155598</ele></trkpt><trkpt lat="36.49978" lon="-118.2432"><ele>3715.0</ele></trkpt><trkpt lat="36.49965" lon="-118.24315"><ele>3710.520586458966</ele></trkpt><trkpt lat="36.49944" lon="-118.24294"><ele>3706.0</ele></trkpt><trkpt lat="36.49938" lon="-118.24293"><ele>3705.0</ele></trkpt><trkpt lat="36.49924" lon="-118.2427"><ele>3700.821413231325</ele></trkpt><trkpt lat="36.49917" lon="-118.24253"><ele>3700.0</ele></trkpt><trkpt lat="36.49889" lon="-118.24228"><ele>3694.46021335572</ele></trkpt><trkpt lat="36.49877" lon="-118.24225"><ele>3692.0</ele></trkpt><trkpt lat="36.49851" lon="-118.24199"><ele>3687.159528601851</ele></trkpt><trkpt lat="36.49834" lon="-118.24185"><ele>3684.0</ele></trkpt><trkpt lat="36.49822" lon="-118.24164"><ele>3681.878490260198</ele></trkpt><trkpt lat="36.49802" lon="-118.24143"><ele>3676.0</ele></trkpt><trkpt lat="36.49762" lon="-118.24075"><ele>3666.7013553028037</ele></trkpt><trkpt lat="36.49717" lon="-118.23987"><ele>3658.956860266918</ele></trkpt><trkpt lat="36.49692" lon="-118.23951"><ele>3655.0</ele></trkpt><trkpt lat="36.49684" lon="-118.23922"><ele>3654.0</ele></trkpt><trkpt lat="36.49662" lon="-118.23882"><ele>3652.0</ele></trkpt><trkpt lat="36.49662" lon="-118.23882"><ele>3652.0</ele></trkpt><trkpt lat="36.49666" lon="-118.2385"><ele>3648.0</ele></trkpt><trkpt lat="36.49653" lon="-118.23782"><ele>3644.1043613164525</ele></trkpt><trkpt lat="36.49639" lon="-118.23764"><ele>3642.376646551769</ele></trkpt><trkpt lat="36.49634" lon="-118.2374"><ele>3636.370773676783</ele></trkpt><trkpt lat="36.49624" lon="-118.23724"><ele>3636.386893807465</ele></trkpt><trkpt lat="36.49623" lon="-118.23714"><ele>3633.8997772885014</ele></trkpt><trkpt lat="36.4961" lon="-118.23694"><ele>3630.566136143636</ele></trkpt><trkpt lat="36.49603" lon="-118.23676"><ele>3628.8935004444793</ele></trkpt><trkpt lat="36.4959" lon="-118.23663"><ele>3626.7134344498627</ele></trkpt><trkpt lat="36.49585" lon="-118.23645"><ele>3620.6534888584965</ele></trkpt><trkpt lat="36.49585" lon="-118.23634"><ele>3618.097036568448</ele></trkpt><trkpt lat="36.49572" lon="-118.23601"><ele>3607.9409671104513</ele></trkpt><trkpt lat="36.49565" lon="-118.23577"><ele>3604.3712627775967</ele></trkpt><trkpt lat="36.49553" lon="-118.23554"><ele>3603.037379555404</ele></trkpt><trkpt lat="36.49551" lon="-118.2352"><ele>3596.679491661489</ele></trkpt><trkpt lat="36.49543" lon="-118.23486"><ele>3597.0433738716692</ele></trkpt><trkpt lat="36.49543" lon="-118.23486"><ele>3597.0433738716692</ele></trkpt><trkpt lat="36.4954" lon="-118.23473"><ele>3595.2494185277988</ele></trkpt><trkpt lat="36.49542" lon="-118.23439"><ele>3587.704679943621</ele></trkpt><trkpt lat="36.49536" lon="-118.23405"><ele>3580.1829561702907</ele></trkpt><trkpt lat="36.49538" lon="-118.23381"><ele>3576.023531060666</ele></trkpt><trkpt lat="36.49543" lon="-118.2337"><ele>3572.124966977164</ele></trkpt><trkpt lat="36.4955" lon="-118.23372"><ele>3566.0669741164893</ele></trkpt><trkpt lat="36.49555" lon="-118.23385"><ele>3562.16840554215</ele></trkpt><trkpt lat="36.49579" lon="-118.2342"><ele>3550.5105006583035</ele></trkpt><trkpt lat="36.49581" lon="-118.23388"><ele>3543.771591227036</ele></trkpt><trkpt lat="36.49592" lon="-118.23402"><ele>3538.7189399208874</ele></trkpt><trkpt lat="36.49596" lon="-118.23401"><ele>3535.959599029415</ele></trkpt><trkpt lat="36.49593" lon="-118.23392"><ele>3535.7431863156417</ele></trkpt><trkpt lat="36.49595" lon="-118.23375"><ele>3530.979789569974</ele></trkpt><trkpt lat="36.49618" lon="-118.23406"><ele>3518.646281151101</ele></trkpt><trkpt lat="36.49619" lon="-118.23419"><ele>3518.189382052049</ele></trkpt><trkpt lat="36.49642" lon="-118.23461"><ele>3508.9556740116745</ele></trkpt><trkpt lat="36.49653" lon="-118.23472"><ele>3502.3560836631805</ele></trkpt><trkpt lat="36.49658" lon="-118.23486"><ele>3500.457476535812</ele></trkpt><trkpt lat="36.49658" lon="-118.23486"><ele>3500.457476535812</ele></trkpt><trkpt lat="36.4968" lon="-118.23531"><ele>3490.703582942486</ele></trkpt><trkpt lat="36.49719" lon="-118.23552"><ele>3479.199630886782</ele></trkpt><trkpt lat="36.49731" lon="-118.23564"><ele>3478.697717333678</ele></trkpt><trkpt lat="36.49752" lon="-118.23563"><ele>3475.971813707909</ele></trkpt><trkpt lat="36.49758" lon="-118.23553"><ele>3471.571345778182</ele></trkpt><trkpt lat="36.49765" lon="-118.23549"><ele>3470.1125587537026</ele></trkpt><trkpt lat="36.49783" lon="-118.23553"><ele>3466.0</ele></trkpt><trkpt lat="36.498" lon="-118.23569"><ele>3467.027886223048</ele></trkpt><trkpt lat="36.49826" lon="-118.23557"><ele>3465.4354808884673</ele></trkpt><trkpt lat="36.49834" lon="-118.2355"><ele>3463.173244445119</ele></trkpt><trkpt lat="36.49824" lon="-118.2354"><ele>3458.398704205212</ele></trkpt><trkpt lat="36.49841" lon="-118.23527"><ele>3454.454467555508</ele></trkpt><trkpt lat="36.49831" lon="-118.2351"><ele>3447.531893333886</ele></trkpt><trkpt lat="36.49846" lon="-118.23496"><ele>3443.538930045441</ele></trkpt><trkpt lat="36.49851" lon="-118.23486"><ele>3440.6279605033774</ele></trkpt><trkpt lat="36.49851" lon="-118.23486"><ele>3440.6279605033774</ele></trkpt><trkpt lat="36.49867" lon="-118.23457"><ele>3434.8321031113155</ele></trkpt><trkpt lat="36.49909" lon="-118.23407"><ele>3433.5562444710863</ele></trkpt><trkpt lat="36.49912" lon="-118.23381"><ele>3430.3284418724047</ele></trkpt><trkpt lat="36.49926" lon="-118.23362"><ele>3429.5089313907242</ele></trkpt><trkpt lat="36.49926" lon="-118.23345"><ele>3425.9674885122085</ele></trkpt><trkpt lat="36.49935" lon="-118.2333"><ele>3426.691249198131</ele></trkpt><trkpt lat="36.49937" lon="-118.23302"><ele>3426.1717588494485</ele></trkpt><trkpt lat="36.49955" lon="-118.23273"><ele>3426.7458154018095</ele></trkpt><trkpt lat="36.49957" lon="-118.2323"><ele>3422.8876126550836</ele></trkpt><trkpt lat="36.49963" lon="-118.23215"><ele>3420.361097415909</ele></trkpt><trkpt lat="36.4996" lon="-118.23185"><ele>3418.62186441198</ele></trkpt><trkpt lat="36.49968" lon="-118.23167"><ele>3420.259820584208</ele></trkpt><trkpt lat="36.49969" lon="-118.23147"><ele>3419.0</ele></trkpt><trkpt lat="36.49987" lon="-118.2312"><ele>3419.2141368635926</ele></trkpt><trkpt lat="36.49993" lon="-118.23083"><ele>3418.0</ele></trkpt><trkpt lat="36.49992" lon="-118.23047"><ele>3416.173717852682</ele></trkpt><trkpt lat="36.50031628162987" lon="-118.22928115511039"><ele>3419.0</ele></trkpt><trkpt lat="36.50031956136788" lon="-118.22927131597714"><ele>3419.0</ele></trkpt><trkpt lat="36.50033" lon="-118.22924"><ele>3419.0</ele></trkpt><trkpt lat="36.50066" lon="-118.22793"><ele>3422.0</ele></trkpt><trkpt lat="36.50067" lon="-118.22746"><ele>3420.8212810969544</ele></trkpt><trkpt lat="36.50078" lon="-118.22702"><ele>3421.0</ele></trkpt><trkpt lat="36.50077" lon="-118.22684"><ele>3419.774405861517</ele></trkpt><trkpt lat="36.50081" lon="-118.22664"><ele>3417.0</ele></trkpt><trkpt lat="36.50081" lon="-118.22664"><ele>3417.0</ele></trkpt><trkpt lat="36.5008" lon="-118.22619"><ele>3416.0</ele></trkpt><trkpt lat="36.50061" lon="-118.22537"><ele>3413.0</ele></trkpt><trkpt lat="36.500513442392176" lon="-118.22519700095265"><ele>3413.0</ele></trkpt><trkpt lat="36.500513442392176" lon="-118.22519700095265"><ele>3413.0</ele></trkpt><trkpt lat="36.50037" lon="-118.22494"><ele>3413.0</ele></trkpt><trkpt lat="36.50025" lon="-118.22457"><ele>3413.0</ele></trkpt><trkpt lat="36.5001" lon="-118.2243"><ele>3412.0</ele></trkpt><trkpt lat="36.49991" lon="-118.22411"><ele>3412.0</ele></trkpt><trkpt lat="36.49991" lon="-118.22411"><ele>3412.0</ele></trkpt><trkpt lat="36.49991" lon="-118.22411"><ele>3412.0</ele></trkpt><trkpt lat="36.49961" lon="-118.22412"><ele>3412.0</ele></trkpt><trkpt lat="36.49928" lon="-118.22405"><ele>3409.0</ele></trkpt><trkpt lat="36.49874" lon="-118.22355"><ele>3400.0</ele></trkpt><trkpt lat="36.49861" lon="-118.22353"><ele>3396.0</ele></trkpt><trkpt lat="36.49862" lon="-118.22337"><ele>3394.8072901759297</ele></trkpt><trkpt lat="36.49874" lon="-118.22309"><ele>3390.2201276881897</ele></trkpt><trkpt lat="36.49864" lon="-118.22307"><ele>3383.996452355141</ele></trkpt><trkpt lat="36.49861" lon="-118.22287"><ele>3378.669843245955</ele></trkpt><trkpt lat="36.4987" lon="-118.22233"><ele>3374.0</ele></trkpt><trkpt lat="36.49887" lon="-118.222"><ele>3374.0</ele></trkpt><trkpt lat="36.49887" lon="-118.2218"><ele>3375.0</ele></trkpt><trkpt lat="36.49881" lon="-118.22156"><ele>3376.0</ele></trkpt><trkpt lat="36.49869" lon="-118.22143"><ele>3375.0</ele></trkpt><trkpt lat="36.49852" lon="-118.22112"><ele>3375.0</ele></trkpt><trkpt lat="36.49836" lon="-118.22102"><ele>3374.0</ele></trkpt><trkpt lat="36.49829" lon="-118.22089"><ele>3374.0</ele></trkpt><trkpt lat="36.49829" lon="-118.22089"><ele>3374.0</ele></trkpt><trkpt lat="36.498" lon="-118.22066"><ele>3373.0</ele></trkpt><trkpt lat="36.49788" lon="-118.22063"><ele>3373.0</ele></trkpt><trkpt lat="36.49777" lon="-118.22055"><ele>3373.2900034525883</ele></trkpt><trkpt lat="36.49759" lon="-118.2205"><ele>3373.110958854896</ele></trkpt><trkpt lat="36.49745" lon="-118.22038"><ele>3373.4597671716706</ele></trkpt><trkpt lat="36.49737" lon="-118.22041"><ele>3373.0</ele></trkpt><trkpt lat="36.49722" lon="-118.2202"><ele>3374.0</ele></trkpt><trkpt lat="36.497" lon="-118.2203"><ele>3373.0</ele></trkpt><trkpt lat="36.49682" lon="-118.22018"><ele>3374.0</ele></trkpt><trkpt lat="36.4967" lon="-118.22018"><ele>3373.0</ele></trkpt><trkpt lat="36.49657" lon="-118.22009"><ele>3373.0005651467372</ele></trkpt><trkpt lat="36.496316169752575" lon="-118.21984492251973"><ele>3374.0</ele></trkpt><trkpt lat="36.49635997882084" lon="-118.21893351759107"><ele>3384.0</ele></trkpt><trkpt lat="36.49617885667734" lon="-118.21780698980481"><ele>3389.0</ele></trkpt><trkpt lat="36.496187481550926" lon="-118.21725981916578"><ele>3388.0</ele></trkpt><trkpt lat="36.4961926679271" lon="-118.21719954534525"><ele>3388.0</ele></trkpt><trkpt lat="36.49616" lon="-118.21716"><ele>3388.0</ele></trkpt><trkpt lat="36.4958" lon="-118.2163"><ele>3386.0</ele></trkpt><trkpt lat="36.49526" lon="-118.21592"><ele>3386.0</ele></trkpt><trkpt lat="36.49504" lon="-118.21569"><ele>3386.0</ele></trkpt><trkpt lat="36.49477" lon="-118.21531"><ele>3386.0</ele></trkpt><trkpt lat="36.49444" lon="-118.2143"><ele>3386.0</ele></trkpt><trkpt lat="36.49426" lon="-118.21387"><ele>3385.04213931907</ele></trkpt><trkpt lat="36.49383" lon="-118.21352"><ele>3385.0</ele></trkpt><trkpt lat="36.49361" lon="-118.21339"><ele>3385.0</ele></trkpt><trkpt lat="36.49341" lon="-118.21289"><ele>3385.0</ele></trkpt><trkpt lat="36.49341" lon="-118.21289"><ele>3385.0</ele></trkpt><trkpt lat="36.49339" lon="-118.21286"><ele>3385.0</ele></trkpt><trkpt lat="36.49342" lon="-118.21267"><ele>3385.0</ele></trkpt><trkpt lat="36.4936" lon="-118.21237"><ele>3385.0</ele></trkpt><trkpt lat="36.49361" lon="-118.21224"><ele>3385.0</ele></trkpt><trkpt lat="36.49361" lon="-118.21224"><ele>3385.0</ele></trkpt><trkpt lat="36.49361" lon="-118.21224"><ele>3385.0</ele></trkpt><trkpt lat="36.49332" lon="-118.21179"><ele>3384.0</ele></trkpt><trkpt lat="36.49283" lon="-118.21151"><ele>3382.0</ele></trkpt><trkpt lat="36.49258" lon="-118.21131"><ele>3381.0</ele></trkpt><trkpt lat="36.49245" lon="-118.21105"><ele>3381.0</ele></trkpt><trkpt lat="36.49238" lon="-118.21069"><ele>3380.0</ele></trkpt><trkpt lat="36.49222" lon="-118.21051"><ele>3379.0</ele></trkpt><trkpt lat="36.49216" lon="-118.21024"><ele>3378.0</ele></trkpt><trkpt lat="36.49235" lon="-118.20986"><ele>3375.0</ele></trkpt><trkpt lat="36.4924" lon="-118.20925"><ele>3371.0</ele></trkpt><trkpt lat="36.49238" lon="-118.20845"><ele>3368.0</ele></trkpt><trkpt lat="36.49245" lon="-118.20822"><ele>3368.0</ele></trkpt><trkpt lat="36.49241" lon="-118.20809"><ele>3367.805119264871</ele></trkpt><trkpt lat="36.49221951603516" lon="-118.20778046355713"><ele>3366.0</ele></trkpt><trkpt lat="36.49221951603516" lon="-118.20778046355713"><ele>3366.0</ele></trkpt><trkpt lat="36.49217" lon="-118.2077"><ele>3365.9569578327723</ele></trkpt><trkpt lat="36.49217" lon="-118.2077"><ele>3365.9569578327723</ele></trkpt><trkpt lat="36.49217" lon="-118.2077"><ele>3365.9569578327723</ele></trkpt><trkpt lat="36.49223" lon="-118.20687"><ele>3364.0</ele></trkpt><trkpt lat="36.49228" lon="-118.20657"><ele>3364.0</ele></trkpt><trkpt lat="36.49246" lon="-118.2059"><ele>3363.0</ele></trkpt><trkpt lat="36.49252" lon="-118.2053"><ele>3363.2487644446082</ele></trkpt><trkpt lat="36.4924" lon="-118.20484"><ele>3364.0</ele></trkpt><trkpt lat="36.49237" lon="-118.20402"><ele>3365.0</ele></trkpt><trkpt lat="36.49255" lon="-118.20357"><ele>3362.0100904420387</ele></trkpt><trkpt lat="36.49263" lon="-118.2033"><ele>3361.0</ele></trkpt><trkpt lat="36.49286" lon="-118.20283"><ele>3358.0</ele></trkpt><trkpt lat="36.49297" lon="-118.20244"><ele>3357.0</ele></trkpt><trkpt lat="36.49297" lon="-118.20244"><ele>3357.0</ele></trkpt><trkpt lat="36.49297" lon="-118.20244"><ele>3357.0</ele></trkpt><trkpt lat="36.49276" lon="-118.20194"><ele>3351.0</ele></trkpt><trkpt lat="36.49262" lon="-118.20176"><ele>3348.0</ele></trkpt><trkpt lat="36.49256" lon="-118.20154"><ele>3346.5004836693406</ele></trkpt><trkpt lat="36.49235" lon="-118.20123"><ele>3340.3269782178104</ele></trkpt><trkpt lat="36.4923" lon="-118.2008"><ele>3335.0</ele></trkpt><trkpt lat="36.49215" lon="-118.20035"><ele>3325.04730243034</ele></trkpt><trkpt lat="36.49215" lon="-118.20008"><ele>3321.861688814443</ele></trkpt><trkpt lat="36.49208" lon="-118.19978"><ele>3316.338087046252</ele></trkpt><trkpt lat="36.49197" lon="-118.19975"><ele>3311.0306251304182</ele></trkpt><trkpt lat="36.49197" lon="-118.19975"><ele>3311.0306251304182</ele></trkpt><trkpt lat="36.49186" lon="-118.19944"><ele>3304.0</ele></trkpt><trkpt lat="36.49174" lon="-118.19936"><ele>3299.8956760162328</ele></trkpt><trkpt lat="36.49166" lon="-118.199"><ele>3295.0</ele></trkpt><trkpt lat="36.49168" lon="-118.1988"><ele>3293.4879195541143</ele></trkpt><trkpt lat="36.49156" lon="-118.19841"><ele>3288.0</ele></trkpt><trkpt lat="36.49142" lon="-118.1982"><ele>3283.9224940702265</ele></trkpt><trkpt lat="36.49148" lon="-118.19786"><ele>3282.896573717777</ele></trkpt><trkpt lat="36.49145" lon="-118.19762"><ele>3281.0</ele></trkpt><trkpt lat="36.49139" lon="-118.1974"><ele>3277.3957924829133</ele></trkpt><trkpt lat="36.49141" lon="-118.19725"><ele>3276.4968905997894</ele></trkpt><trkpt lat="36.49137" lon="-118.19686"><ele>3271.5177225153893</ele></trkpt><trkpt lat="36.49139" lon="-118.19653"><ele>3268.689879235203</ele></trkpt><trkpt lat="36.49134" lon="-118.1964"><ele>3265.995833188107</ele></trkpt><trkpt lat="36.49134" lon="-118.19627"><ele>3263.982899152285</ele></trkpt><trkpt lat="36.49127" lon="-118.19613"><ele>3261.0</ele></trkpt><trkpt lat="36.49126" lon="-118.19581"><ele>3257.0</ele></trkpt><trkpt lat="36.49112" lon="-118.19535"><ele>3250.0</ele></trkpt><trkpt lat="36.49134" lon="-118.19516"><ele>3248.0</ele></trkpt><trkpt lat="36.4914" lon="-118.1949"><ele>3246.0</ele></trkpt><trkpt lat="36.49137" lon="-118.19464"><ele>3243.0</ele></trkpt><trkpt lat="36.4914" lon="-118.19434"><ele>3242.0</ele></trkpt><trkpt lat="36.49112" lon="-118.19375"><ele>3233.4955190246483</ele></trkpt><trkpt lat="36.49107" lon="-118.19325"><ele>3229.1272777318954</ele></trkpt><trkpt lat="36.49098" lon="-118.19318"><ele>3226.83579473854</ele></trkpt><trkpt lat="36.49096" lon="-118.19297"><ele>3224.75079818815</ele></trkpt><trkpt lat="36.49077" lon="-118.19256"><ele>3218.0178349524904</ele></trkpt><trkpt lat="36.49074" lon="-118.19218"><ele>3215.0</ele></trkpt><trkpt lat="36.49067" lon="-118.19204"><ele>3214.0</ele></trkpt><trkpt lat="36.49053" lon="-118.19162"><ele>3209.0</ele></trkpt><trkpt lat="36.49039" lon="-118.19092"><ele>3205.0</ele></trkpt><trkpt lat="36.49039" lon="-118.19092"><ele>3205.0</ele></trkpt><trkpt lat="36.49038" lon="-118.19049"><ele>3205.0</ele></trkpt><trkpt lat="36.49031" lon="-118.18988"><ele>3204.0</ele></trkpt><trkpt lat="36.49041" lon="-118.18924"><ele>3203.0</ele></trkpt><trkpt lat="36.49033" lon="-118.18883"><ele>3199.231135249138</ele></trkpt><trkpt lat="36.49033" lon="-118.18865"><ele>3199.231135249138</ele></trkpt><trkpt lat="36.49027" lon="-118.18836"><ele>3197.0</ele></trkpt><trkpt lat="36.4903" lon="-118.18826"><ele>3196.309871635537</ele></trkpt><trkpt lat="36.49019" lon="-118.18774"><ele>3192.0</ele></trkpt><trkpt lat="36.49013" lon="-118.18763"><ele>3191.0</ele></trkpt><trkpt lat="36.48989" lon="-118.18743"><ele>3187.0</ele></trkpt><trkpt lat="36.48989" lon="-118.18743"><ele>3187.0</ele></trkpt><trkpt lat="36.48989" lon="-118.18743"><ele>3187.0</ele></trkpt><trkpt lat="36.48983" lon="-118.18726"><ele>3185.2672786101375</ele></trkpt><trkpt lat="36.48986" lon="-118.18706"><ele>3184.9960261708534</ele></trkpt><trkpt lat="36.48984" lon="-118.1869"><ele>3183.0</ele></trkpt><trkpt lat="36.48978" lon="-118.18671"><ele>3181.6058625168553</ele></trkpt><trkpt lat="36.4898" lon="-118.18618"><ele>3178.5084742549807</ele></trkpt><trkpt lat="36.48974" lon="-118.18607"><ele>3176.5814269124517</ele></trkpt><trkpt lat="36.48971" lon="-118.18591"><ele>3176.0</ele></trkpt><trkpt lat="36.48976" lon="-118.1854"><ele>3175.065291611873</ele></trkpt><trkpt lat="36.48982" lon="-118.18523"><ele>3174.0</ele></trkpt><trkpt lat="36.48986" lon="-118.18491"><ele>3174.9865007977933</ele></trkpt><trkpt lat="36.48977" lon="-118.18432"><ele>3172.0</ele></trkpt><trkpt lat="36.4897" lon="-118.18415"><ele>3170.711769338697</ele></trkpt><trkpt lat="36.48968" lon="-118.18401"><ele>3169.0</ele></trkpt><trkpt lat="36.48975" lon="-118.1839"><ele>3169.2678132304954</ele></trkpt><trkpt lat="36.48956" lon="-118.18344"><ele>3165.0</ele></trkpt><trkpt lat="36.48896" lon="-118.18237"><ele>3154.0</ele></trkpt><trkpt lat="36.48883" lon="-118.18221"><ele>3151.280752329156</ele></trkpt><trkpt lat="36.48868" lon="-118.18226"><ele>3148.0</ele></trkpt><trkpt lat="36.48848" lon="-118.18225"><ele>3145.9925719201565</ele></trkpt><trkpt lat="36.48836" lon="-118.18219"><ele>3144.0</ele></trkpt><trkpt lat="36.48824" lon="-118.18205"><ele>3142.0807297620922</ele></trkpt><trkpt lat="36.48807" lon="-118.18156"><ele>3139.0</ele></trkpt><trkpt lat="36.4879" lon="-118.18131"><ele>3138.0</ele></trkpt><trkpt lat="36.48774" lon="-118.18117"><ele>3137.0771430392942</ele></trkpt><trkpt lat="36.48763" lon="-118.18102"><ele>3136.721658270806</ele></trkpt><trkpt lat="36.4873" lon="-118.18079"><ele>3132.0</ele></trkpt><trkpt lat="36.48719" lon="-118.18066"><ele>3131.0</ele></trkpt><trkpt lat="36.48703" lon="-118.18065"><ele>3129.0</ele></trkpt><trkpt lat="36.48689" lon="-118.18047"><ele>3128.0</ele></trkpt><trkpt lat="36.48689" lon="-118.18047"><ele>3128.0</ele></trkpt><trkpt lat="36.48689" lon="-118.18047"><ele>3128.0</ele></trkpt><trkpt lat="36.48689" lon="-118.18047"><ele>3128.0</ele></trkpt><trkpt lat="36.48689" lon="-118.18047"><ele>3128.0</ele></trkpt><trkpt lat="36.48656" lon="-118.18036"><ele>3127.0</ele></trkpt><trkpt lat="36.48636" lon="-118.18026"><ele>3127.717474919634</ele></trkpt><trkpt lat="36.48623" lon="-118.18009"><ele>3127.0</ele></trkpt><trkpt lat="36.48609" lon="-118.18"><ele>3127.0</ele></trkpt><trkpt lat="36.48576" lon="-118.17992"><ele>3128.6438747913894</ele></trkpt><trkpt lat="36.48544" lon="-118.1797"><ele>3127.0</ele></trkpt><trkpt lat="36.48521" lon="-118.17967"><ele>3126.1372101027328</ele></trkpt><trkpt lat="36.48501" lon="-118.17951"><ele>3126.0</ele></trkpt><trkpt lat="36.48488" lon="-118.17951"><ele>3125.850122666452</ele></trkpt><trkpt lat="36.48477" lon="-118.17932"><ele>3123.0562496830803</ele></trkpt><trkpt lat="36.48462" lon="-118.17923"><ele>3122.199497016345</ele></trkpt><trkpt lat="36.48449" lon="-118.17902"><ele>3121.0</ele></trkpt><trkpt lat="36.4842" lon="-118.17882"><ele>3120.72302797855</ele></trkpt><trkpt lat="36.4838" lon="-118.17873"><ele>3119.0</ele></trkpt><trkpt lat="36.48328005515034" lon="-118.1784198574581"><ele>3112.0</ele></trkpt><trkpt lat="36.48328005515034" lon="-118.1784198574581"><ele>3112.0</ele></trkpt><trkpt lat="36.48323" lon="-118.17839"><ele>3111.0</ele></trkpt><trkpt lat="36.4831" lon="-118.17841"><ele>3108.646704437543</ele></trkpt><trkpt lat="36.48245" lon="-118.17883"><ele>3104.075213910794</ele></trkpt><trkpt lat="36.48228" lon="-118.17886"><ele>3103.213607773867</ele></trkpt><trkpt lat="36.48185" lon="-118.17871"><ele>3098.867536228713</ele></trkpt><trkpt lat="36.48149" lon="-118.17877"><ele>3097.363623111509</ele></trkpt><trkpt lat="36.48129" lon="-118.17864"><ele>3096.0</ele></trkpt><trkpt lat="36.481" lon="-118.17862"><ele>3095.0</ele></trkpt><trkpt lat="36.48078" lon="-118.17856"><ele>3094.0</ele></trkpt><trkpt lat="36.48032" lon="-118.17849"><ele>3093.0</ele></trkpt><trkpt lat="36.48001" lon="-118.17834"><ele>3092.0</ele></trkpt><trkpt lat="36.47981" lon="-118.17829"><ele>3091.0</ele></trkpt><trkpt lat="36.4794" lon="-118.17828"><ele>3092.0</ele></trkpt><trkpt lat="36.47915" lon="-118.17835"><ele>3092.0</ele></trkpt><trkpt lat="36.4788" lon="-118.17837"><ele>3092.0</ele></trkpt><trkpt lat="36.47829" lon="-118.17827"><ele>3091.0</ele></trkpt><trkpt lat="36.47705" lon="-118.17822"><ele>3090.0</ele></trkpt><trkpt lat="36.47679" lon="-118.17806"><ele>3089.0</ele></trkpt><trkpt lat="36.47647" lon="-118.17767"><ele>3087.0</ele></trkpt><trkpt lat="36.47634" lon="-118.1776"><ele>3087.0</ele></trkpt><trkpt lat="36.47619" lon="-118.1776"><ele>3086.0</ele></trkpt><trkpt lat="36.47581" lon="-118.17769"><ele>3084.9879182011036</ele></trkpt><trkpt lat="36.47576" lon="-118.17783"><ele>3083.0</ele></trkpt><trkpt lat="36.4757" lon="-118.17789"><ele>3082.0</ele></trkpt><trkpt lat="36.47557" lon="-118.17791"><ele>3082.0</ele></trkpt><trkpt lat="36.47541" lon="-118.17804"><ele>3082.0</ele></trkpt><trkpt lat="36.4753" lon="-118.17808"><ele>3082.0</ele></trkpt><trkpt lat="36.47502" lon="-118.17832"><ele>3082.0</ele></trkpt><trkpt lat="36.47488" lon="-118.1785"><ele>3083.0</ele></trkpt><trkpt lat="36.47457" lon="-118.17869"><ele>3082.4806540520754</ele></trkpt><trkpt lat="36.47431" lon="-118.17867"><ele>3080.0</ele></trkpt><trkpt lat="36.47431" lon="-118.17867"><ele>3080.0</ele></trkpt><trkpt lat="36.47414" lon="-118.17855"><ele>3077.110880000051</ele></trkpt><trkpt lat="36.47382" lon="-118.17848"><ele>3073.892530160227</ele></trkpt><trkpt lat="36.4737" lon="-118.1785"><ele>3072.0</ele></trkpt><trkpt lat="36.47356" lon="-118.17846"><ele>3070.935066604734</ele></trkpt><trkpt lat="36.47313" lon="-118.17845"><ele>3067.6159794533037</ele></trkpt><trkpt lat="36.47277" lon="-118.17832"><ele>3063.6580447735328</ele></trkpt><trkpt lat="36.47247" lon="-118.17835"><ele>3062.0</ele></trkpt><trkpt lat="36.47228058256394" lon="-118.17838489268559"><ele>3060.0</ele></trkpt><trkpt lat="36.47228058256394" lon="-118.17838489268559"><ele>3060.0</ele></trkpt><trkpt lat="36.47209" lon="-118.17842"><ele>3059.079630921686</ele></trkpt><trkpt lat="36.4718" lon="-118.17853"><ele>3058.1788124446757</ele></trkpt><trkpt lat="36.47155" lon="-118.1785"><ele>3057.0</ele></trkpt><trkpt lat="36.47118" lon="-118.1786"><ele>3056.0</ele></trkpt><trkpt lat="36.47074" lon="-118.17878"><ele>3056.0</ele></trkpt><trkpt lat="36.47026" lon="-118.17892"><ele>3054.345071590286</ele></trkpt><trkpt lat="36.47003" lon="-118.17893"><ele>3053.0</ele></trkpt><trkpt lat="36.46954" lon="-118.17878"><ele>3054.580820834264</ele></trkpt><trkpt lat="36.46943" lon="-118.17882"><ele>3055.267664986348</ele></trkpt><trkpt lat="36.46932" lon="-118.17892"><ele>3053.6774336890785</ele></trkpt><trkpt lat="36.46895" lon="-118.17901"><ele>3056.0</ele></trkpt><trkpt lat="36.46858" lon="-118.17934"><ele>3057.0</ele></trkpt><trkpt lat="36.46846" lon="-118.17937"><ele>3057.5541298202384</ele></trkpt><trkpt lat="36.46805" lon="-118.17941"><ele>3059.0</ele></trkpt><trkpt lat="36.46792" lon="-118.17953"><ele>3058.0</ele></trkpt><trkpt lat="36.46783" lon="-118.17959"><ele>3058.5783928898163</ele></trkpt><trkpt lat="36.46764" lon="-118.17956"><ele>3060.1547778505524</ele></trkpt><trkpt lat="36.46752" lon="-118.17961"><ele>3060.602228311014</ele></trkpt><trkpt lat="36.4674" lon="-118.1797"><ele>3060.0</ele></trkpt><trkpt lat="36.46717" lon="-118.17978"><ele>3060.433034666814</ele></trkpt><trkpt lat="36.46629" lon="-118.17983"><ele>3064.0</ele></trkpt><trkpt lat="36.46618" lon="-118.17995"><ele>3063.0</ele></trkpt><trkpt lat="36.46614" lon="-118.18008"><ele>3063.0</ele></trkpt><trkpt lat="36.46614" lon="-118.18045"><ele>3061.0</ele></trkpt><trkpt lat="36.46614" lon="-118.18045"><ele>3061.0</ele></trkpt><trkpt lat="36.46614" lon="-118.18074"><ele>3060.17927337522</ele></trkpt><trkpt lat="36.46599" lon="-118.18114"><ele>3060.0</ele></trkpt><trkpt lat="36.46601" lon="-118.18131"><ele>3060.0</ele></trkpt><trkpt lat="36.46592" lon="-118.18141"><ele>3060.3965404443443</ele></trkpt><trkpt lat="36.46559" lon="-118.18146"><ele>3059.0</ele></trkpt><trkpt lat="36.46536" lon="-118.18154"><ele>3058.0</ele></trkpt><trkpt lat="36.46483" lon="-118.18195"><ele>3057.0</ele></trkpt><trkpt lat="36.46463" lon="-118.18214"><ele>3058.0</ele></trkpt><trkpt lat="36.4641" lon="-118.18245"><ele>3058.864053333644</ele></trkpt><trkpt lat="36.46394" lon="-118.18261"><ele>3061.0</ele></trkpt><trkpt lat="36.4636" lon="-118.18282"><ele>3063.002955607798</ele></trkpt><trkpt lat="36.46348" lon="-118.18297"><ele>3064.097809777595</ele></trkpt><trkpt lat="36.46313" lon="-118.18298"><ele>3064.0</ele></trkpt><trkpt lat="36.46302" lon="-118.18296"><ele>3064.6317759994417</ele></trkpt><trkpt lat="36.46275" lon="-118.18274"><ele>3065.0</ele></trkpt><trkpt lat="36.46226" lon="-118.18199"><ele>3067.0</ele></trkpt><trkpt lat="36.4618" lon="-118.18165"><ele>3070.0</ele></trkpt><trkpt lat="36.46128" lon="-118.18095"><ele>3067.975745809934</ele></trkpt><trkpt lat="36.46062" lon="-118.18049"><ele>3068.5214328896254</ele></trkpt><trkpt lat="36.46041" lon="-118.18026"><ele>3066.9647057926863</ele></trkpt><trkpt lat="36.46024" lon="-118.18019"><ele>3066.8491709963146</ele></trkpt><trkpt lat="36.46021" lon="-118.18001"><ele>3065.4101606365293</ele></trkpt><trkpt lat="36.46016" lon="-118.17985"><ele>3066.3074076510966</ele></trkpt><trkpt lat="36.46015" lon="-118.1795"><ele>3066.88685683161</ele></trkpt><trkpt lat="36.45965" lon="-118.17889"><ele>3073.8214392530986</ele></trkpt><trkpt lat="36.45925" lon="-118.17884"><ele>3075.0</ele></trkpt><trkpt lat="36.45897" lon="-118.17861"><ele>3075.0</ele></trkpt><trkpt lat="36.45889" lon="-118.17836"><ele>3073.0</ele></trkpt><trkpt lat="36.45864" lon="-118.17818"><ele>3073.0</ele></trkpt><trkpt lat="36.45831" lon="-118.17786"><ele>3071.0</ele></trkpt><trkpt lat="36.45804" lon="-118.17796"><ele>3071.0</ele></trkpt><trkpt lat="36.45774" lon="-118.17786"><ele>3069.9545493330806</ele></trkpt><trkpt lat="36.45721" lon="-118.17779"><ele>3072.1673148558225</ele></trkpt><trkpt lat="36.45695" lon="-118.17786"><ele>3075.292814185971</ele></trkpt><trkpt lat="36.45664" lon="-118.17776"><ele>3076.0</ele></trkpt><trkpt lat="36.45664" lon="-118.17776"><ele>3076.0</ele></trkpt><trkpt lat="36.45636" lon="-118.17764"><ele>3077.0</ele></trkpt><trkpt lat="36.45622" lon="-118.17778"><ele>3078.0</ele></trkpt><trkpt lat="36.45584" lon="-118.1779"><ele>3081.0</ele></trkpt><trkpt lat="36.45545" lon="-118.17787"><ele>3087.0</ele></trkpt><trkpt lat="36.45504" lon="-118.17808"><ele>3087.0</ele></trkpt><trkpt lat="36.45497" lon="-118.17804"><ele>3087.0</ele></trkpt><trkpt lat="36.4547" lon="-118.17802"><ele>3088.8089236286437</ele></trkpt><trkpt lat="36.4545" lon="-118.17794"><ele>3089.0</ele></trkpt><trkpt lat="36.45433" lon="-118.17766"><ele>3092.3245332146053</ele></trkpt><trkpt lat="36.45425" lon="-118.17758"><ele>3091.3218425900873</ele></trkpt><trkpt lat="36.4540446837083" lon="-118.17710092865269"><ele>3089.149379376831</ele></trkpt><trkpt lat="36.45406651234013" lon="-118.1771518613914"><ele>3089.0</ele></trkpt><trkpt lat="36.4538" lon="-118.17653"><ele>3087.0</ele></trkpt><trkpt lat="36.45346" lon="-118.17588"><ele>3083.0</ele></trkpt><trkpt lat="36.45337" lon="-118.17532"><ele>3082.0</ele></trkpt><trkpt lat="36.45342" lon="-118.17509"><ele>3080.88519031378</ele></trkpt><trkpt lat="36.4534" lon="-118.1749"><ele>3081.001976911045</ele></trkpt><trkpt lat="36.4534" lon="-118.1749"><ele>3081.001976911045</ele></trkpt><trkpt lat="36.4534" lon="-118.1749"><ele>3081.001976911045</ele></trkpt><trkpt lat="36.45343" lon="-118.17463"><ele>3080.8507755442033</ele></trkpt><trkpt lat="36.4535" lon="-118.17445"><ele>3080.0</ele></trkpt><trkpt lat="36.45357" lon="-118.17407"><ele>3078.8517828322947</ele></trkpt><trkpt lat="36.45343" lon="-118.17363"><ele>3077.0</ele></trkpt><trkpt lat="36.45347" lon="-118.17255"><ele>3075.0</ele></trkpt><trkpt lat="36.45342" lon="-118.17206"><ele>3073.105311735401</ele></trkpt><trkpt lat="36.45344" lon="-118.17141"><ele>3069.566416963863</ele></trkpt><trkpt lat="36.45341" lon="-118.17102"><ele>3065.581392707303</ele></trkpt><trkpt lat="36.45347" lon="-118.17045"><ele>3061.0</ele></trkpt><trkpt lat="36.45325" lon="-118.17022"><ele>3059.0</ele></trkpt><trkpt lat="36.4531" lon="-118.16989"><ele>3059.0</ele></trkpt><trkpt lat="36.45309992183727" lon="-118.16988733854419"><ele>3059.0</ele></trkpt><trkpt lat="36.45307407671278" lon="-118.16988906155248"><ele>3059.0</ele></trkpt></trkseg></trk></gpx>