<?xml version="1.0"?>
<gpx xmlns="http://www.topografix.com/GPX/1/1" xmlns:gpxx="http://www.garmin.com/xmlschemas/GpxExtensions/v3" creator="CALTOPO" version="1.1"><metadata><name><![CDATA[MTR Connector]]></name></metadata><wpt lat="37.25021431358071" lon="-118.94124530479263"><name>Ferry Trailhead</name><desc>Caught the ferry from Florence Trailhead</desc></wpt><wpt lat="37.22824260661549" lon="-118.86668603723196"><name>Camp</name><desc>Large camping area with excellent access to South Fork San Joaquin River</desc></wpt><trk><name>MTR Connector</name><trkseg><trkpt lat="37.250190300416556" lon="-118.94125808884257"><ele>2235.09258069545</ele></trkpt><trkpt lat="37.25019119473187" lon="-118.94124867920812"><ele>2235.4137749593087</ele></trkpt><trkpt lat="37.25" lon="-118.94121999999999"><ele>2235.993475355076</ele></trkpt><trkpt lat="37.249968189089984" lon="-118.94118111999887"><ele>2236.0</ele></trkpt><trkpt lat="37.24996896631518" lon="-118.94118206990333"><ele>2236.0</ele></trkpt><trkpt lat="37.24982" lon="-118.94100000000003"><ele>2237.0749483944483</ele></trkpt><trkpt lat="37.24982" lon="-118.94100000000003"><ele>2237.0749483944483</ele></trkpt><trkpt lat="37.24982" lon="-118.94100000000003"><ele>2237.0749483944483</ele></trkpt><trkpt lat="37.24978" lon="-118.94087000000002"><ele>2239.0</ele></trkpt><trkpt lat="37.2498" lon="-118.94067999999999"><ele>2240.6694064484886</ele></trkpt><trkpt lat="37.24987" lon="-118.94056999999998"><ele>2242.0</ele></trkpt><trkpt lat="37.2499" lon="-118.94038999999998"><ele>2245.0</ele></trkpt><trkpt lat="37.24982" lon="-118.94006999999999"><ele>2249.232041330889</ele></trkpt><trkpt lat="37.24987" lon="-118.93988999999999"><ele>2253.0</ele></trkpt><trkpt lat="37.24996" lon="-118.93977999999998"><ele>2255.0</ele></trkpt><trkpt lat="37.24994" lon="-118.93962999999997"><ele>2257.0</ele></trkpt><trkpt lat="37.24967" lon="-118.93932000000001"><ele>2260.0</ele></trkpt><trkpt lat="37.24945" lon="-118.93920000000003"><ele>2261.0</ele></trkpt><trkpt lat="37.24916" lon="-118.93894"><ele>2268.0</ele></trkpt><trkpt lat="37.24888" lon="-118.93880000000001"><ele>2270.0</ele></trkpt><trkpt lat="37.24854" lon="-118.93858999999998"><ele>2277.0</ele></trkpt><trkpt lat="37.24819" lon="-118.93880000000001"><ele>2278.0</ele></trkpt><trkpt lat="37.24811" lon="-118.93889000000001"><ele>2279.0</ele></trkpt><trkpt lat="37.24802" lon="-118.93891000000002"><ele>2280.0</ele></trkpt><trkpt lat="37.24782" lon="-118.93887000000001"><ele>2282.0</ele></trkpt><trkpt lat="37.24782" lon="-118.93887000000001"><ele>2282.0</ele></trkpt><trkpt lat="37.24773" lon="-118.93883"><ele>2283.8832556965863</ele></trkpt><trkpt lat="37.24753" lon="-118.93883"><ele>2286.6717124494235</ele></trkpt><trkpt lat="37.24719" lon="-118.93899999999996"><ele>2295.0</ele></trkpt><trkpt lat="37.24679" lon="-118.93950000000001"><ele>2306.0</ele></trkpt><trkpt lat="37.2467" lon="-118.93956000000003"><ele>2307.0</ele></trkpt><trkpt lat="37.24663" lon="-118.93950999999998"><ele>2308.0</ele></trkpt><trkpt lat="37.24642" lon="-118.93920000000003"><ele>2309.0298133320175</ele></trkpt><trkpt lat="37.24638" lon="-118.93905000000001"><ele>2310.1432634447856</ele></trkpt><trkpt lat="37.2463" lon="-118.93894"><ele>2312.0</ele></trkpt><trkpt lat="37.2463" lon="-118.93860999999998"><ele>2315.0</ele></trkpt><trkpt lat="37.24608" lon="-118.93817000000001"><ele>2319.986304213672</ele></trkpt><trkpt lat="37.24586" lon="-118.93799000000001"><ele>2317.0</ele></trkpt><trkpt lat="37.24586" lon="-118.93799000000001"><ele>2317.0</ele></trkpt><trkpt lat="37.2457" lon="-118.93786"><ele>2314.164716904463</ele></trkpt><trkpt lat="37.2457" lon="-118.93786"><ele>2314.164716904463</ele></trkpt><trkpt lat="37.24566" lon="-118.93740000000003"><ele>2314.0</ele></trkpt><trkpt lat="37.24553" lon="-118.93716999999998"><ele>2313.0</ele></trkpt><trkpt lat="37.24555" lon="-118.93705"><ele>2312.0</ele></trkpt><trkpt lat="37.24585" lon="-118.93653"><ele>2316.0972840916365</ele></trkpt><trkpt lat="37.24591" lon="-118.93648000000002"><ele>2317.1274686873267</ele></trkpt><trkpt lat="37.24597" lon="-118.93637999999999"><ele>2319.0</ele></trkpt><trkpt lat="37.24611" lon="-118.93603000000002"><ele>2320.0</ele></trkpt><trkpt lat="37.24627" lon="-118.93583000000001"><ele>2321.0</ele></trkpt><trkpt lat="37.24629" lon="-118.93552999999997"><ele>2322.8015388334466</ele></trkpt><trkpt lat="37.24647" lon="-118.93540999999999"><ele>2324.1354503539997</ele></trkpt><trkpt lat="37.24661" lon="-118.93509"><ele>2326.0</ele></trkpt><trkpt lat="37.24674" lon="-118.93470000000002"><ele>2326.0</ele></trkpt><trkpt lat="37.24672" lon="-118.93446"><ele>2326.0</ele></trkpt><trkpt lat="37.2466" lon="-118.93429000000003"><ele>2326.0</ele></trkpt><trkpt lat="37.24656" lon="-118.93419"><ele>2326.8359993853546</ele></trkpt><trkpt lat="37.24672" lon="-118.93407000000002"><ele>2329.0</ele></trkpt><trkpt lat="37.24682" lon="-118.93392"><ele>2331.0</ele></trkpt><trkpt lat="37.24685" lon="-118.93360999999999"><ele>2331.0</ele></trkpt><trkpt lat="37.24692" lon="-118.9334"><ele>2331.504184978785</ele></trkpt><trkpt lat="37.24693" lon="-118.93327"><ele>2333.801165825579</ele></trkpt><trkpt lat="37.2469" lon="-118.93318"><ele>2334.431522972882</ele></trkpt><trkpt lat="37.24681" lon="-118.93299999999999"><ele>2335.0</ele></trkpt><trkpt lat="37.24681" lon="-118.93293"><ele>2336.0</ele></trkpt><trkpt lat="37.24718" lon="-118.93268"><ele>2341.9954626283125</ele></trkpt><trkpt lat="37.24718" lon="-118.93261999999999"><ele>2343.680039111525</ele></trkpt><trkpt lat="37.24711" lon="-118.93254000000002"><ele>2345.0</ele></trkpt><trkpt lat="37.24711" lon="-118.93245000000002"><ele>2346.945485860134</ele></trkpt><trkpt lat="37.24707" lon="-118.93237999999997"><ele>2348.0</ele></trkpt><trkpt lat="37.24701" lon="-118.93236999999999"><ele>2348.9944022691016</ele></trkpt><trkpt lat="37.24693" lon="-118.93227999999999"><ele>2350.0</ele></trkpt><trkpt lat="37.24686" lon="-118.93210999999997"><ele>2351.0</ele></trkpt><trkpt lat="37.24688" lon="-118.93129999999996"><ele>2351.319463774571</ele></trkpt><trkpt lat="37.24701" lon="-118.93099000000001"><ele>2352.008365854621</ele></trkpt><trkpt lat="37.24701" lon="-118.93088"><ele>2353.008365854621</ele></trkpt><trkpt lat="37.24697" lon="-118.9307"><ele>2354.0528541086715</ele></trkpt><trkpt lat="37.247" lon="-118.93047999999999"><ele>2357.41126755625</ele></trkpt><trkpt lat="37.24699" lon="-118.93040000000002"><ele>2358.162523722276</ele></trkpt><trkpt lat="37.24692" lon="-118.93038999999999"><ele>2360.0</ele></trkpt><trkpt lat="37.24687" lon="-118.93033000000003"><ele>2361.1878546569496</ele></trkpt><trkpt lat="37.24687" lon="-118.93025"><ele>2362.0</ele></trkpt><trkpt lat="37.24683" lon="-118.93016999999998"><ele>2363.0</ele></trkpt><trkpt lat="37.24653" lon="-118.93014"><ele>2362.9071017876267</ele></trkpt><trkpt lat="37.24646" lon="-118.93009"><ele>2361.809015730396</ele></trkpt><trkpt lat="37.24641" lon="-118.93002000000001"><ele>2361.748502311102</ele></trkpt><trkpt lat="37.24643" lon="-118.92987"><ele>2362.0</ele></trkpt><trkpt lat="37.24641" lon="-118.92973999999998"><ele>2362.0</ele></trkpt><trkpt lat="37.24643" lon="-118.92942"><ele>2365.0427270679443</ele></trkpt><trkpt lat="37.24646" lon="-118.92928"><ele>2366.0</ele></trkpt><trkpt lat="37.24659" lon="-118.92912999999999"><ele>2369.0</ele></trkpt><trkpt lat="37.24666" lon="-118.92899999999997"><ele>2370.5178431291133</ele></trkpt><trkpt lat="37.24677" lon="-118.92865999999998"><ele>2370.0</ele></trkpt><trkpt lat="37.24689" lon="-118.92844000000002"><ele>2371.0</ele></trkpt><trkpt lat="37.24692" lon="-118.92831000000001"><ele>2371.7393652051687</ele></trkpt><trkpt lat="37.24687" lon="-118.92817000000002"><ele>2371.0</ele></trkpt><trkpt lat="37.24687" lon="-118.92808000000002"><ele>2371.0</ele></trkpt><trkpt lat="37.24695" lon="-118.92791999999997"><ele>2372.0</ele></trkpt><trkpt lat="37.24698" lon="-118.92777000000001"><ele>2373.0</ele></trkpt><trkpt lat="37.24697" lon="-118.92758000000003"><ele>2373.707410369708</ele></trkpt><trkpt lat="37.247" lon="-118.92746999999997"><ele>2374.0</ele></trkpt><trkpt lat="37.24723" lon="-118.92713000000003"><ele>2372.0</ele></trkpt><trkpt lat="37.24725" lon="-118.92701"><ele>2372.0</ele></trkpt><trkpt lat="37.2474" lon="-118.92662999999999"><ele>2372.0</ele></trkpt><trkpt lat="37.2475" lon="-118.92647999999997"><ele>2372.0</ele></trkpt><trkpt lat="37.24761" lon="-118.92642000000001"><ele>2373.0</ele></trkpt><trkpt lat="37.24769" lon="-118.92624999999998"><ele>2373.0</ele></trkpt><trkpt lat="37.24782" lon="-118.92611"><ele>2373.0</ele></trkpt><trkpt lat="37.24782" lon="-118.92611"><ele>2373.0</ele></trkpt><trkpt lat="37.24796" lon="-118.92578000000003"><ele>2373.0</ele></trkpt><trkpt lat="37.24796" lon="-118.92578000000003"><ele>2373.0</ele></trkpt><trkpt lat="37.24796" lon="-118.92578000000003"><ele>2373.0</ele></trkpt><trkpt lat="37.24804" lon="-118.92543999999998"><ele>2372.0</ele></trkpt><trkpt lat="37.24809" lon="-118.92507"><ele>2369.0</ele></trkpt><trkpt lat="37.24815" lon="-118.92484999999999"><ele>2368.0</ele></trkpt><trkpt lat="37.24815" lon="-118.92484999999999"><ele>2368.0</ele></trkpt><trkpt lat="37.24814" lon="-118.92471"><ele>2367.0</ele></trkpt><trkpt lat="37.24806" lon="-118.92458999999997"><ele>2367.0</ele></trkpt><trkpt lat="37.24787" lon="-118.92444999999998"><ele>2368.0</ele></trkpt><trkpt lat="37.24782" lon="-118.92431999999997"><ele>2369.0</ele></trkpt><trkpt lat="37.24782" lon="-118.92431999999997"><ele>2369.0</ele></trkpt><trkpt lat="37.24779" lon="-118.92320999999998"><ele>2361.673301735893</ele></trkpt><trkpt lat="37.24782" lon="-118.92309"><ele>2361.0</ele></trkpt><trkpt lat="37.24782" lon="-118.92309"><ele>2361.0</ele></trkpt><trkpt lat="37.24798" lon="-118.92246"><ele>2366.1703573330306</ele></trkpt><trkpt lat="37.2481" lon="-118.92209000000003"><ele>2369.0</ele></trkpt><trkpt lat="37.24818" lon="-118.92192999999997"><ele>2370.0</ele></trkpt><trkpt lat="37.248224486231734" lon="-118.9214495486973"><ele>2369.0</ele></trkpt><trkpt lat="37.248224486231734" lon="-118.9214495486973"><ele>2369.0</ele></trkpt><trkpt lat="37.24823" lon="-118.92138999999997"><ele>2369.0</ele></trkpt><trkpt lat="37.24819" lon="-118.92122999999998"><ele>2369.0</ele></trkpt><trkpt lat="37.24823" lon="-118.92108999999999"><ele>2368.4258595314445</ele></trkpt><trkpt lat="37.24842" lon="-118.92090000000002"><ele>2368.071486521734</ele></trkpt><trkpt lat="37.24847" lon="-118.92070000000001"><ele>2368.0</ele></trkpt><trkpt lat="37.24856" lon="-118.92057"><ele>2368.0</ele></trkpt><trkpt lat="37.24882" lon="-118.92048"><ele>2369.0</ele></trkpt><trkpt lat="37.24892" lon="-118.92039"><ele>2370.0</ele></trkpt><trkpt lat="37.24901" lon="-118.92023"><ele>2370.0</ele></trkpt><trkpt lat="37.24902" lon="-118.91982000000002"><ele>2371.0</ele></trkpt><trkpt lat="37.24905" lon="-118.91973000000002"><ele>2371.0</ele></trkpt><trkpt lat="37.24931" lon="-118.91934000000003"><ele>2372.0</ele></trkpt><trkpt lat="37.24932" lon="-118.91913999999997"><ele>2374.221786959677</ele></trkpt><trkpt lat="37.24942" lon="-118.91892000000001"><ele>2375.897165182978</ele></trkpt><trkpt lat="37.24943" lon="-118.91861"><ele>2375.0</ele></trkpt><trkpt lat="37.24931" lon="-118.91844000000003"><ele>2373.4840640020557</ele></trkpt><trkpt lat="37.24925" lon="-118.91827999999998"><ele>2373.145837434953</ele></trkpt><trkpt lat="37.24927" lon="-118.91814"><ele>2374.0</ele></trkpt><trkpt lat="37.24952" lon="-118.91787999999997"><ele>2376.0</ele></trkpt><trkpt lat="37.24958" lon="-118.91769999999997"><ele>2377.0</ele></trkpt><trkpt lat="37.24947" lon="-118.91691000000003"><ele>2377.0</ele></trkpt><trkpt lat="37.24947" lon="-118.91613999999998"><ele>2380.0</ele></trkpt><trkpt lat="37.2494" lon="-118.91602"><ele>2380.0</ele></trkpt><trkpt lat="37.2494" lon="-118.91602"><ele>2380.0</ele></trkpt><trkpt lat="37.24917" lon="-118.91566999999998"><ele>2380.0</ele></trkpt><trkpt lat="37.24919" lon="-118.91552999999999"><ele>2380.0</ele></trkpt><trkpt lat="37.24932" lon="-118.91534999999999"><ele>2381.119044680101</ele></trkpt><trkpt lat="37.24932" lon="-118.91534999999999"><ele>2381.119044680101</ele></trkpt><trkpt lat="37.24932" lon="-118.91534999999999"><ele>2381.119044680101</ele></trkpt><trkpt lat="37.24935" lon="-118.91516999999999"><ele>2382.0</ele></trkpt><trkpt lat="37.24934" lon="-118.91491000000002"><ele>2382.0</ele></trkpt><trkpt lat="37.24941" lon="-118.91466000000003"><ele>2384.0</ele></trkpt><trkpt lat="37.24942" lon="-118.91451"><ele>2384.0</ele></trkpt><trkpt lat="37.24924" lon="-118.91383000000002"><ele>2386.0</ele></trkpt><trkpt lat="37.24924" lon="-118.91361999999998"><ele>2387.0</ele></trkpt><trkpt lat="37.24915" lon="-118.91311999999999"><ele>2388.0</ele></trkpt><trkpt lat="37.24906" lon="-118.91286000000002"><ele>2389.0</ele></trkpt><trkpt lat="37.2488" lon="-118.91269"><ele>2389.0</ele></trkpt><trkpt lat="37.24865" lon="-118.91255999999998"><ele>2390.0</ele></trkpt><trkpt lat="37.24824" lon="-118.91173000000003"><ele>2388.0144783076007</ele></trkpt><trkpt lat="37.24823139821981" lon="-118.9117235486649"><ele>2388.0</ele></trkpt><trkpt lat="37.24824000000001" lon="-118.91173000000003"><ele>2388.0144783076007</ele></trkpt><trkpt lat="37.24808" lon="-118.91161"><ele>2387.0</ele></trkpt><trkpt lat="37.24791" lon="-118.91138000000001"><ele>2384.3243569011875</ele></trkpt><trkpt lat="37.24782" lon="-118.91134"><ele>2382.0</ele></trkpt><trkpt lat="37.24782" lon="-118.91134"><ele>2382.0</ele></trkpt><trkpt lat="37.24769" lon="-118.91127"><ele>2383.0</ele></trkpt><trkpt lat="37.2476" lon="-118.91111000000001"><ele>2380.0</ele></trkpt><trkpt lat="37.24761" lon="-118.91095999999999"><ele>2379.0</ele></trkpt><trkpt lat="37.24757" lon="-118.91088000000002"><ele>2378.0</ele></trkpt><trkpt lat="37.24748" lon="-118.91077999999999"><ele>2377.0</ele></trkpt><trkpt lat="37.2475" lon="-118.91061000000002"><ele>2376.6952575538307</ele></trkpt><trkpt lat="37.2474" lon="-118.91044"><ele>2374.0</ele></trkpt><trkpt lat="37.2472" lon="-118.91023000000001"><ele>2372.1318323295563</ele></trkpt><trkpt lat="37.24695" lon="-118.90990999999997"><ele>2368.9784418757263</ele></trkpt><trkpt lat="37.24691" lon="-118.90976"><ele>2366.1539210788906</ele></trkpt><trkpt lat="37.24666" lon="-118.90938"><ele>2366.0</ele></trkpt><trkpt lat="37.24658" lon="-118.9092"><ele>2364.0</ele></trkpt><trkpt lat="37.24672" lon="-118.90894000000003"><ele>2362.0229332928843</ele></trkpt><trkpt lat="37.24675" lon="-118.90873999999997"><ele>2361.0</ele></trkpt><trkpt lat="37.2467" lon="-118.90841999999998"><ele>2359.585854820828</ele></trkpt><trkpt lat="37.24639" lon="-118.90804000000003"><ele>2356.2338360559843</ele></trkpt><trkpt lat="37.24636" lon="-118.90794"><ele>2355.0</ele></trkpt><trkpt lat="37.24635" lon="-118.9076"><ele>2352.3691739067435</ele></trkpt><trkpt lat="37.24619" lon="-118.90728000000001"><ele>2352.0013095114277</ele></trkpt><trkpt lat="37.24607" lon="-118.90690999999998"><ele>2351.0</ele></trkpt><trkpt lat="37.24607" lon="-118.90677"><ele>2351.0</ele></trkpt><trkpt lat="37.24618" lon="-118.90643999999998"><ele>2350.0</ele></trkpt><trkpt lat="37.24616838679931" lon="-118.90641096699824"><ele>2350.0</ele></trkpt><trkpt lat="37.24616838679931" lon="-118.90641096699824"><ele>2350.0</ele></trkpt><trkpt lat="37.24614" lon="-118.90634"><ele>2349.0</ele></trkpt><trkpt lat="37.2456" lon="-118.90609999999998"><ele>2343.0</ele></trkpt><trkpt lat="37.24533" lon="-118.90571"><ele>2339.6547247096896</ele></trkpt><trkpt lat="37.24518" lon="-118.90544"><ele>2338.0</ele></trkpt><trkpt lat="37.24501216180987" lon="-118.90481801141306"><ele>2334.0</ele></trkpt><trkpt lat="37.24501008543618" lon="-118.90481031661602"><ele>2334.0</ele></trkpt><trkpt lat="37.24501" lon="-118.90481"><ele>2334.0</ele></trkpt><trkpt lat="37.2449" lon="-118.90462000000002"><ele>2332.48122850433</ele></trkpt><trkpt lat="37.24486" lon="-118.90440000000001"><ele>2331.0</ele></trkpt><trkpt lat="37.24493" lon="-118.90413999999998"><ele>2332.0</ele></trkpt><trkpt lat="37.24511" lon="-118.90382999999997"><ele>2331.0</ele></trkpt><trkpt lat="37.24521" lon="-118.90349000000003"><ele>2330.4807019928844</ele></trkpt><trkpt lat="37.24525" lon="-118.90325999999999"><ele>2329.0447893328965</ele></trkpt><trkpt lat="37.24571" lon="-118.90219000000002"><ele>2328.0</ele></trkpt><trkpt lat="37.24576" lon="-118.90186"><ele>2327.0</ele></trkpt><trkpt lat="37.24592" lon="-118.90145999999999"><ele>2327.0</ele></trkpt><trkpt lat="37.24595" lon="-118.90121999999997"><ele>2327.0</ele></trkpt><trkpt lat="37.24612" lon="-118.90062"><ele>2326.010733243806</ele></trkpt><trkpt lat="37.2461" lon="-118.90030000000002"><ele>2326.0</ele></trkpt><trkpt lat="37.24615" lon="-118.89994999999999"><ele>2326.0</ele></trkpt><trkpt lat="37.24638537539288" lon="-118.8992831030535"><ele>2326.0</ele></trkpt><trkpt lat="37.24638537539288" lon="-118.8992831030535"><ele>2326.0</ele></trkpt><trkpt lat="37.24645" lon="-118.89909999999998"><ele>2326.0</ele></trkpt><trkpt lat="37.24652" lon="-118.89873"><ele>2327.700376928816</ele></trkpt><trkpt lat="37.24683" lon="-118.89828999999997"><ele>2333.0</ele></trkpt><trkpt lat="37.24688" lon="-118.89812"><ele>2335.0</ele></trkpt><trkpt lat="37.24685" lon="-118.89801999999997"><ele>2335.0</ele></trkpt><trkpt lat="37.24685000000001" lon="-118.89739860703105"><ele>2332.9584140816064</ele></trkpt><trkpt lat="37.24684999999999" lon="-118.89742006470317"><ele>2333.0</ele></trkpt><trkpt lat="37.24685" lon="-118.89720999999997"><ele>2332.0</ele></trkpt><trkpt lat="37.24671" lon="-118.89692000000002"><ele>2330.0</ele></trkpt><trkpt lat="37.24669" lon="-118.89677"><ele>2329.2741699200124</ele></trkpt><trkpt lat="37.24657" lon="-118.89660000000003"><ele>2327.0</ele></trkpt><trkpt lat="37.24652" lon="-118.89647000000002"><ele>2327.0</ele></trkpt><trkpt lat="37.24651" lon="-118.89609999999999"><ele>2327.0</ele></trkpt><trkpt lat="37.24654" lon="-118.89591000000001"><ele>2328.0</ele></trkpt><trkpt lat="37.24652" lon="-118.89570000000003"><ele>2327.5093888302113</ele></trkpt><trkpt lat="37.24647" lon="-118.89548000000002"><ele>2328.0</ele></trkpt><trkpt lat="37.24637" lon="-118.89528000000001"><ele>2329.0</ele></trkpt><trkpt lat="37.24632" lon="-118.89495"><ele>2331.5276603625457</ele></trkpt><trkpt lat="37.24631" lon="-118.89465000000001"><ele>2334.0</ele></trkpt><trkpt lat="37.24635" lon="-118.89420999999999"><ele>2334.3691739067435</ele></trkpt><trkpt lat="37.24642" lon="-118.89404000000002"><ele>2334.1689806369563</ele></trkpt><trkpt lat="37.24642" lon="-118.89404000000002"><ele>2334.1689806369563</ele></trkpt><trkpt lat="37.24649" lon="-118.89382"><ele>2334.0</ele></trkpt><trkpt lat="37.24649" lon="-118.89366000000001"><ele>2333.0</ele></trkpt><trkpt lat="37.24643" lon="-118.89346"><ele>2332.0</ele></trkpt><trkpt lat="37.24648" lon="-118.89323999999999"><ele>2331.0</ele></trkpt><trkpt lat="37.24648" lon="-118.89301"><ele>2331.0</ele></trkpt><trkpt lat="37.24635" lon="-118.89254"><ele>2331.0</ele></trkpt><trkpt lat="37.24626" lon="-118.89233000000002"><ele>2331.0</ele></trkpt><trkpt lat="37.24589" lon="-118.89174000000003"><ele>2331.0</ele></trkpt><trkpt lat="37.24589" lon="-118.89174000000003"><ele>2331.0</ele></trkpt><trkpt lat="37.24589" lon="-118.89174000000003"><ele>2331.0</ele></trkpt><trkpt lat="37.24547" lon="-118.89125999999999"><ele>2330.0</ele></trkpt><trkpt lat="37.24509" lon="-118.89071999999999"><ele>2330.0</ele></trkpt><trkpt lat="37.2449" lon="-118.89060999999998"><ele>2330.2531291335713</ele></trkpt><trkpt lat="37.2446" lon="-118.89022999999997"><ele>2332.0</ele></trkpt><trkpt lat="37.24443383226884" lon="-118.89006383226888"><ele>2332.0</ele></trkpt><trkpt lat="37.24443383226884" lon="-118.89006383226888"><ele>2332.0</ele></trkpt><trkpt lat="37.24395" lon="-118.88958000000002"><ele>2333.0</ele></trkpt><trkpt lat="37.24378" lon="-118.88923999999997"><ele>2333.0</ele></trkpt><trkpt lat="37.24367" lon="-118.88890000000004"><ele>2334.0</ele></trkpt><trkpt lat="37.24339" lon="-118.88860999999997"><ele>2332.0824145097286</ele></trkpt><trkpt lat="37.2432746645633" lon="-118.88835690279171"><ele>2331.658469554357</ele></trkpt><trkpt lat="37.24326604322497" lon="-118.88833798374367"><ele>2331.825783310458</ele></trkpt><trkpt lat="37.24303" lon="-118.88782000000003"><ele>2332.5150097805895</ele></trkpt><trkpt lat="37.24278" lon="-118.88716"><ele>2333.0</ele></trkpt><trkpt lat="37.2426" lon="-118.88677999999999"><ele>2333.0</ele></trkpt><trkpt lat="37.24254" lon="-118.88656000000003"><ele>2333.4792469275653</ele></trkpt><trkpt lat="37.24241" lon="-118.88641999999999"><ele>2334.0</ele></trkpt><trkpt lat="37.24241" lon="-118.88641999999999"><ele>2334.0</ele></trkpt><trkpt lat="37.24241" lon="-118.88641999999999"><ele>2334.0</ele></trkpt><trkpt lat="37.24205" lon="-118.88558999999998"><ele>2333.0</ele></trkpt><trkpt lat="37.241987832236" lon="-118.88533511115372"><ele>2333.3149237346283</ele></trkpt><trkpt lat="37.241987832236" lon="-118.88533511115372"><ele>2333.3149237346283</ele></trkpt><trkpt lat="37.24185" lon="-118.88477"><ele>2335.0</ele></trkpt><trkpt lat="37.24174" lon="-118.88445999999999"><ele>2335.0</ele></trkpt><trkpt lat="37.24133" lon="-118.88371999999998"><ele>2334.0</ele></trkpt><trkpt lat="37.24124" lon="-118.88326"><ele>2335.0</ele></trkpt><trkpt lat="37.24095" lon="-118.88314000000003"><ele>2335.1495119356478</ele></trkpt><trkpt lat="37.24061" lon="-118.88306"><ele>2333.656558222603</ele></trkpt><trkpt lat="37.24054050086089" lon="-118.88302653745154"><ele>2333.0</ele></trkpt><trkpt lat="37.240504785491495" lon="-118.88300934101647"><ele>2333.577290821184</ele></trkpt><trkpt lat="37.24007" lon="-118.88279999999997"><ele>2333.0</ele></trkpt><trkpt lat="37.2401" lon="-118.88258000000002"><ele>2335.0</ele></trkpt><trkpt lat="37.23992" lon="-118.88227999999998"><ele>2337.0</ele></trkpt><trkpt lat="37.23959" lon="-118.88211999999999"><ele>2337.0</ele></trkpt><trkpt lat="37.23959" lon="-118.88211999999999"><ele>2337.0</ele></trkpt><trkpt lat="37.23959" lon="-118.88211999999999"><ele>2337.0</ele></trkpt><trkpt lat="37.23944" lon="-118.88189"><ele>2341.0</ele></trkpt><trkpt lat="37.23899" lon="-118.88155"><ele>2342.0</ele></trkpt><trkpt lat="37.23847" lon="-118.88084000000003"><ele>2352.0</ele></trkpt><trkpt lat="37.23788" lon="-118.88040999999998"><ele>2355.0</ele></trkpt><trkpt lat="37.23738" lon="-118.8802"><ele>2357.629102222156</ele></trkpt><trkpt lat="37.237" lon="-118.87994000000003"><ele>2360.0</ele></trkpt><trkpt lat="37.237" lon="-118.87994000000003"><ele>2360.0</ele></trkpt><trkpt lat="37.237" lon="-118.87994000000003"><ele>2360.0</ele></trkpt><trkpt lat="37.23696" lon="-118.87981000000002"><ele>2361.0</ele></trkpt><trkpt lat="37.23686" lon="-118.87963000000002"><ele>2362.8562294623835</ele></trkpt><trkpt lat="37.23679" lon="-118.87943000000001"><ele>2361.7242792882025</ele></trkpt><trkpt lat="37.23681" lon="-118.87925999999999"><ele>2360.8950104154646</ele></trkpt><trkpt lat="37.23687" lon="-118.87907999999999"><ele>2359.0713076840134</ele></trkpt><trkpt lat="37.23698" lon="-118.87889999999999"><ele>2360.0</ele></trkpt><trkpt lat="37.23702" lon="-118.87877000000003"><ele>2362.0</ele></trkpt><trkpt lat="37.237" lon="-118.87846000000002"><ele>2364.0</ele></trkpt><trkpt lat="37.23706" lon="-118.87824999999998"><ele>2366.0</ele></trkpt><trkpt lat="37.23709" lon="-118.87781999999999"><ele>2370.0</ele></trkpt><trkpt lat="37.23709" lon="-118.87781999999999"><ele>2370.0</ele></trkpt><trkpt lat="37.23709" lon="-118.87781999999999"><ele>2370.0</ele></trkpt><trkpt lat="37.23678" lon="-118.87741"><ele>2371.0</ele></trkpt><trkpt lat="37.23674" lon="-118.87727999999998"><ele>2372.0</ele></trkpt><trkpt lat="37.23674" lon="-118.87718000000001"><ele>2373.0</ele></trkpt><trkpt lat="37.2367" lon="-118.87698999999998"><ele>2372.578908646635</ele></trkpt><trkpt lat="37.2366" lon="-118.87675999999999"><ele>2373.602349065244</ele></trkpt><trkpt lat="37.23654" lon="-118.87666000000002"><ele>2373.0</ele></trkpt><trkpt lat="37.23638" lon="-118.87649999999996"><ele>2372.0</ele></trkpt><trkpt lat="37.23619" lon="-118.87641000000002"><ele>2371.0</ele></trkpt><trkpt lat="37.23613" lon="-118.87632000000002"><ele>2371.0</ele></trkpt><trkpt lat="37.23604" lon="-118.87624"><ele>2370.853839949479</ele></trkpt><trkpt lat="37.23582" lon="-118.87614000000002"><ele>2370.0</ele></trkpt><trkpt lat="37.23561" lon="-118.87592000000001"><ele>2370.0</ele></trkpt><trkpt lat="37.2353" lon="-118.87580000000003"><ele>2371.0</ele></trkpt><trkpt lat="37.23521" lon="-118.87572"><ele>2371.0</ele></trkpt><trkpt lat="37.23481" lon="-118.87509"><ele>2379.0</ele></trkpt><trkpt lat="37.23477" lon="-118.87495000000001"><ele>2381.6357856087816</ele></trkpt><trkpt lat="37.23463" lon="-118.87468999999999"><ele>2387.0</ele></trkpt><trkpt lat="37.23459" lon="-118.87439999999998"><ele>2391.996131713916</ele></trkpt><trkpt lat="37.23443" lon="-118.87421"><ele>2394.0</ele></trkpt><trkpt lat="37.234356564257254" lon="-118.87396031847464"><ele>2396.0</ele></trkpt><trkpt lat="37.23435874266118" lon="-118.87396772500182"><ele>2396.0</ele></trkpt><trkpt lat="37.23433" lon="-118.87387000000001"><ele>2397.0</ele></trkpt><trkpt lat="37.23433" lon="-118.87365"><ele>2399.0</ele></trkpt><trkpt lat="37.23415" lon="-118.87332000000004"><ele>2401.2603413313627</ele></trkpt><trkpt lat="37.23389" lon="-118.87272000000002"><ele>2407.0</ele></trkpt><trkpt lat="37.23365" lon="-118.87254000000001"><ele>2408.0</ele></trkpt><trkpt lat="37.23317" lon="-118.87207000000001"><ele>2404.827060835436</ele></trkpt><trkpt lat="37.23317" lon="-118.87207000000001"><ele>2404.827060835436</ele></trkpt><trkpt lat="37.23311" lon="-118.87198999999998"><ele>2403.0</ele></trkpt><trkpt lat="37.23301" lon="-118.87194"><ele>2401.6915370274182</ele></trkpt><trkpt lat="37.23272" lon="-118.87158"><ele>2400.0</ele></trkpt><trkpt lat="37.23258" lon="-118.87121000000002"><ele>2398.173465247439</ele></trkpt><trkpt lat="37.23249" lon="-118.87104999999997"><ele>2398.0</ele></trkpt><trkpt lat="37.23237" lon="-118.87090999999998"><ele>2396.0</ele></trkpt><trkpt lat="37.23222" lon="-118.87081"><ele>2395.0</ele></trkpt><trkpt lat="37.23215" lon="-118.87067000000002"><ele>2393.093432482833</ele></trkpt><trkpt lat="37.23197" lon="-118.87058999999999"><ele>2389.286264781511</ele></trkpt><trkpt lat="37.2319" lon="-118.87050999999997"><ele>2389.105723538808</ele></trkpt><trkpt lat="37.23163" lon="-118.87016"><ele>2389.0</ele></trkpt><trkpt lat="37.23144" lon="-118.86984000000001"><ele>2390.0</ele></trkpt><trkpt lat="37.23128" lon="-118.86964"><ele>2391.0</ele></trkpt><trkpt lat="37.23114" lon="-118.86950000000002"><ele>2391.285244443454</ele></trkpt><trkpt lat="37.23074" lon="-118.86899"><ele>2392.613960845853</ele></trkpt><trkpt lat="37.23059" lon="-118.86887999999999"><ele>2391.0</ele></trkpt><trkpt lat="37.23033" lon="-118.86856999999998"><ele>2391.0</ele></trkpt><trkpt lat="37.23033" lon="-118.86856999999998"><ele>2391.0</ele></trkpt><trkpt lat="37.2302" lon="-118.86845"><ele>2391.0</ele></trkpt><trkpt lat="37.23003" lon="-118.86838"><ele>2391.0</ele></trkpt><trkpt lat="37.22991" lon="-118.86826000000002"><ele>2391.0</ele></trkpt><trkpt lat="37.2296" lon="-118.86810000000003"><ele>2389.0</ele></trkpt><trkpt lat="37.22957" lon="-118.86802999999998"><ele>2389.0</ele></trkpt><trkpt lat="37.22969" lon="-118.86784"><ele>2387.0474468281645</ele></trkpt><trkpt lat="37.22965" lon="-118.86775999999998"><ele>2386.0</ele></trkpt><trkpt lat="37.22946" lon="-118.86770000000001"><ele>2386.1713244435377</ele></trkpt><trkpt lat="37.22915" lon="-118.86752999999999"><ele>2382.5720549764264</ele></trkpt><trkpt lat="37.22906" lon="-118.86743999999999"><ele>2381.548157587182</ele></trkpt><trkpt lat="37.22887" lon="-118.86732999999998"><ele>2378.0576941966215</ele></trkpt><trkpt lat="37.22882" lon="-118.86723999999998"><ele>2377.821524139028</ele></trkpt><trkpt lat="37.22883" lon="-118.86712"><ele>2377.7979495655745</ele></trkpt><trkpt lat="37.22879" lon="-118.86701"><ele>2377.1496517001397</ele></trkpt><trkpt lat="37.22867" lon="-118.86689000000001"><ele>2373.0</ele></trkpt><trkpt lat="37.22825" lon="-118.86669999999998"><ele>2366.9663103721364</ele></trkpt><trkpt lat="37.22812" lon="-118.86655000000002"><ele>2367.0</ele></trkpt><trkpt lat="37.22798" lon="-118.86646999999999"><ele>2367.0</ele></trkpt><trkpt lat="37.22776" lon="-118.86621000000002"><ele>2369.0</ele></trkpt><trkpt lat="37.22752" lon="-118.86583000000002"><ele>2372.403891425702</ele></trkpt><trkpt lat="37.22747" lon="-118.86559"><ele>2374.602255882406</ele></trkpt><trkpt lat="37.22738" lon="-118.86536000000001"><ele>2376.9454168675147</ele></trkpt><trkpt lat="37.22708" lon="-118.86478"><ele>2380.0939307360904</ele></trkpt><trkpt lat="37.22706" lon="-118.86464000000001"><ele>2381.0</ele></trkpt><trkpt lat="37.22697" lon="-118.86446999999998"><ele>2381.0</ele></trkpt><trkpt lat="37.22674" lon="-118.86423000000002"><ele>2380.0</ele></trkpt><trkpt lat="37.2266" lon="-118.86412999999999"><ele>2380.2771570794284</ele></trkpt><trkpt lat="37.22646" lon="-118.86406"><ele>2380.0</ele></trkpt><trkpt lat="37.22621" lon="-118.86401999999998"><ele>2380.0</ele></trkpt><trkpt lat="37.22611" lon="-118.86394000000001"><ele>2380.0</ele></trkpt><trkpt lat="37.2261" lon="-118.86387000000002"><ele>2380.008566428972</ele></trkpt><trkpt lat="37.22591" lon="-118.86358999999999"><ele>2382.0</ele></trkpt><trkpt lat="37.22586" lon="-118.86347"><ele>2383.0</ele></trkpt><trkpt lat="37.22587" lon="-118.86325999999997"><ele>2385.0</ele></trkpt><trkpt lat="37.22585" lon="-118.86310000000003"><ele>2386.0</ele></trkpt><trkpt lat="37.22587" lon="-118.86293"><ele>2387.0</ele></trkpt><trkpt lat="37.22594" lon="-118.86286000000001"><ele>2388.0</ele></trkpt><trkpt lat="37.22595" lon="-118.86277999999999"><ele>2390.0</ele></trkpt><trkpt lat="37.22592" lon="-118.86270000000002"><ele>2391.0</ele></trkpt><trkpt lat="37.22578" lon="-118.86259000000001"><ele>2392.0</ele></trkpt><trkpt lat="37.22573" lon="-118.86238000000003"><ele>2394.0</ele></trkpt><trkpt lat="37.22569" lon="-118.86232000000001"><ele>2394.0</ele></trkpt><trkpt lat="37.22567" lon="-118.86223000000001"><ele>2395.077650645778</ele></trkpt><trkpt lat="37.22569" lon="-118.86212999999998"><ele>2397.0</ele></trkpt><trkpt lat="37.22578" lon="-118.86198999999999"><ele>2399.0</ele></trkpt><trkpt lat="37.22577" lon="-118.86184000000003"><ele>2399.0</ele></trkpt><trkpt lat="37.22572" lon="-118.86174"><ele>2398.0</ele></trkpt><trkpt lat="37.22576" lon="-118.86138"><ele>2400.0</ele></trkpt><trkpt lat="37.22579" lon="-118.86126999999999"><ele>2400.1468594655876</ele></trkpt><trkpt lat="37.22579" lon="-118.86126999999999"><ele>2400.1468594655876</ele></trkpt><trkpt lat="37.22572" lon="-118.86115000000001"><ele>2401.4234488881193</ele></trkpt><trkpt lat="37.22543" lon="-118.86097999999998"><ele>2403.346023111604</ele></trkpt><trkpt lat="37.2254" lon="-118.86093"><ele>2404.690229185385</ele></trkpt><trkpt lat="37.22536" lon="-118.86077"><ele>2406.741764746535</ele></trkpt><trkpt lat="37.225" lon="-118.86012"><ele>2407.0</ele></trkpt><trkpt lat="37.22458" lon="-118.85944"><ele>2404.1602526963225</ele></trkpt><trkpt lat="37.22449" lon="-118.85924"><ele>2404.463660855751</ele></trkpt><trkpt lat="37.22442" lon="-118.85914000000002"><ele>2405.0</ele></trkpt><trkpt lat="37.22413" lon="-118.85903000000002"><ele>2407.0</ele></trkpt><trkpt lat="37.22405428864852" lon="-118.85877762882842"><ele>2407.0</ele></trkpt><trkpt lat="37.2240606618959" lon="-118.8587988729546"><ele>2407.0</ele></trkpt><trkpt lat="37.22404" lon="-118.85872999999998"><ele>2407.0</ele></trkpt><trkpt lat="37.22395" lon="-118.85860000000002"><ele>2407.3941468467838</ele></trkpt><trkpt lat="37.22392" lon="-118.85836"><ele>2408.1891141291726</ele></trkpt><trkpt lat="37.22405" lon="-118.85811000000001"><ele>2410.0</ele></trkpt><trkpt lat="37.22405" lon="-118.85786999999999"><ele>2409.031653566286</ele></trkpt><trkpt lat="37.22398" lon="-118.85782"><ele>2409.0652106609195</ele></trkpt><trkpt lat="37.22364" lon="-118.85721000000001"><ele>2409.0</ele></trkpt><trkpt lat="37.22354" lon="-118.85696000000002"><ele>2409.1266726849803</ele></trkpt><trkpt lat="37.22337" lon="-118.85674"><ele>2408.2206980122364</ele></trkpt><trkpt lat="37.22329" lon="-118.85669000000001"><ele>2408.0</ele></trkpt><trkpt lat="37.22325" lon="-118.85654"><ele>2408.0</ele></trkpt><trkpt lat="37.22319" lon="-118.85648000000003"><ele>2407.0</ele></trkpt><trkpt lat="37.22309" lon="-118.85618"><ele>2405.0</ele></trkpt><trkpt lat="37.2231" lon="-118.85570000000001"><ele>2402.431677725166</ele></trkpt><trkpt lat="37.22307" lon="-118.85536000000002"><ele>2399.4350964518285</ele></trkpt><trkpt lat="37.2229" lon="-118.85485"><ele>2398.7265088930726</ele></trkpt><trkpt lat="37.22266" lon="-118.85435000000001"><ele>2398.2220774422008</ele></trkpt><trkpt lat="37.22241" lon="-118.85405000000003"><ele>2398.015056878408</ele></trkpt><trkpt lat="37.22231" lon="-118.85381999999998"><ele>2400.0051483435564</ele></trkpt><trkpt lat="37.22231" lon="-118.85361999999998"><ele>2402.0</ele></trkpt><trkpt lat="37.22238" lon="-118.8535"><ele>2403.2932151928544</ele></trkpt><trkpt lat="37.22237" lon="-118.85268000000002"><ele>2412.0</ele></trkpt><trkpt lat="37.22233" lon="-118.85248000000001"><ele>2412.0</ele></trkpt><trkpt lat="37.22237" lon="-118.85225000000003"><ele>2412.0</ele></trkpt><trkpt lat="37.22236" lon="-118.85215"><ele>2413.0</ele></trkpt><trkpt lat="37.22243" lon="-118.8519"><ele>2416.0</ele></trkpt><trkpt lat="37.22243" lon="-118.85172999999998"><ele>2417.0</ele></trkpt><trkpt lat="37.22249" lon="-118.85160000000002"><ele>2418.731009820476</ele></trkpt><trkpt lat="37.22249" lon="-118.85153000000003"><ele>2419.546753758105</ele></trkpt><trkpt lat="37.22256" lon="-118.85135000000002"><ele>2421.8513081537403</ele></trkpt><trkpt lat="37.22258" lon="-118.85088000000002"><ele>2421.0</ele></trkpt><trkpt lat="37.22254" lon="-118.85073"><ele>2421.0</ele></trkpt><trkpt lat="37.22254" lon="-118.85061000000002"><ele>2421.0</ele></trkpt><trkpt lat="37.22255" lon="-118.85054000000002"><ele>2421.0</ele></trkpt><trkpt lat="37.22277" lon="-118.8501"><ele>2421.1181657966226</ele></trkpt><trkpt lat="37.22277" lon="-118.8501"><ele>2421.1181657966226</ele></trkpt><trkpt lat="37.2228" lon="-118.84998000000002"><ele>2422.0</ele></trkpt><trkpt lat="37.22278" lon="-118.84985"><ele>2422.0</ele></trkpt><trkpt lat="37.22273" lon="-118.84976"><ele>2423.0</ele></trkpt><trkpt lat="37.22268" lon="-118.84947"><ele>2423.0</ele></trkpt><trkpt lat="37.2227" lon="-118.84935000000002"><ele>2424.0</ele></trkpt><trkpt lat="37.22266" lon="-118.84929"><ele>2424.4145675277696</ele></trkpt><trkpt lat="37.22253" lon="-118.84888000000001"><ele>2427.0</ele></trkpt><trkpt lat="37.22258" lon="-118.84866999999997"><ele>2427.0</ele></trkpt><trkpt lat="37.22266" lon="-118.84856000000002"><ele>2427.8400248899125</ele></trkpt><trkpt lat="37.2226742097745" lon="-118.8485116867667"><ele>2427.0</ele></trkpt><trkpt lat="37.2226742097745" lon="-118.8485116867667"><ele>2427.0</ele></trkpt><trkpt lat="37.22276" lon="-118.84821999999997"><ele>2424.9948764429428</ele></trkpt><trkpt lat="37.22293" lon="-118.84812999999997"><ele>2424.0</ele></trkpt><trkpt lat="37.22305" lon="-118.84800999999999"><ele>2423.0</ele></trkpt><trkpt lat="37.2231" lon="-118.84782000000001"><ele>2422.152609011986</ele></trkpt><trkpt lat="37.22312" lon="-118.84757000000002"><ele>2419.8817253625043</ele></trkpt><trkpt lat="37.22321" lon="-118.84735999999998"><ele>2418.796468238317</ele></trkpt><trkpt lat="37.22342" lon="-118.84708999999998"><ele>2416.0</ele></trkpt><trkpt lat="37.22349" lon="-118.84692000000001"><ele>2413.5618999506487</ele></trkpt><trkpt lat="37.22352" lon="-118.84672999999998"><ele>2412.0</ele></trkpt><trkpt lat="37.22355" lon="-118.84665999999999"><ele>2412.0</ele></trkpt><trkpt lat="37.22406" lon="-118.84582999999998"><ele>2410.0</ele></trkpt><trkpt lat="37.22411" lon="-118.84548000000001"><ele>2409.681018687048</ele></trkpt><trkpt lat="37.22422" lon="-118.84523000000002"><ele>2410.0</ele></trkpt><trkpt lat="37.22449" lon="-118.84503000000001"><ele>2410.0</ele></trkpt><trkpt lat="37.22452" lon="-118.84494999999998"><ele>2410.0</ele></trkpt><trkpt lat="37.22466" lon="-118.84478999999999"><ele>2411.0</ele></trkpt><trkpt lat="37.22476" lon="-118.84456"><ele>2412.0</ele></trkpt><trkpt lat="37.2249" lon="-118.84438"><ele>2412.0</ele></trkpt><trkpt lat="37.22495" lon="-118.84424000000001"><ele>2412.0</ele></trkpt><trkpt lat="37.22518" lon="-118.84312999999997"><ele>2413.0</ele></trkpt><trkpt lat="37.22532" lon="-118.84280000000001"><ele>2413.0</ele></trkpt><trkpt lat="37.22533" lon="-118.84260999999998"><ele>2414.0</ele></trkpt><trkpt lat="37.22528" lon="-118.84233999999998"><ele>2416.0</ele></trkpt><trkpt lat="37.22497" lon="-118.84163999999998"><ele>2424.0</ele></trkpt><trkpt lat="37.2248" lon="-118.84145000000001"><ele>2426.0</ele></trkpt><trkpt lat="37.22462" lon="-118.84136000000001"><ele>2428.0</ele></trkpt><trkpt lat="37.22415" lon="-118.84073999999998"><ele>2431.0</ele></trkpt><trkpt lat="37.22375" lon="-118.84001"><ele>2432.0</ele></trkpt><trkpt lat="37.2237" lon="-118.83974999999998"><ele>2434.0</ele></trkpt><trkpt lat="37.22361" lon="-118.83955000000003"><ele>2434.0</ele></trkpt><trkpt lat="37.2236" lon="-118.83931999999999"><ele>2434.0</ele></trkpt><trkpt lat="37.22365" lon="-118.83909"><ele>2434.621052062139</ele></trkpt><trkpt lat="37.22364" lon="-118.83895000000001"><ele>2434.035788614303</ele></trkpt><trkpt lat="37.22369" lon="-118.83859000000001"><ele>2434.962106624618</ele></trkpt><trkpt lat="37.22392" lon="-118.83760999999998"><ele>2435.4231944568455</ele></trkpt><trkpt lat="37.22414" lon="-118.83695999999998"><ele>2436.0</ele></trkpt><trkpt lat="37.2244" lon="-118.83636999999999"><ele>2434.8765153895474</ele></trkpt><trkpt lat="37.22452" lon="-118.83553"><ele>2437.0</ele></trkpt><trkpt lat="37.2246" lon="-118.83521999999999"><ele>2439.2214333713055</ele></trkpt><trkpt lat="37.22452" lon="-118.83494999999999"><ele>2440.73828021361</ele></trkpt><trkpt lat="37.22462" lon="-118.83465000000001"><ele>2443.0</ele></trkpt><trkpt lat="37.22464" lon="-118.83447999999999"><ele>2444.0</ele></trkpt><trkpt lat="37.22472" lon="-118.83431999999999"><ele>2446.2446892522275</ele></trkpt><trkpt lat="37.22476" lon="-118.83404000000002"><ele>2448.0</ele></trkpt><trkpt lat="37.22479" lon="-118.83398"><ele>2449.341593677178</ele></trkpt><trkpt lat="37.22483" lon="-118.83397000000002"><ele>2450.68268362619</ele></trkpt><trkpt lat="37.22485" lon="-118.83392000000003"><ele>2451.3366466656717</ele></trkpt><trkpt lat="37.22485" lon="-118.83384999999998"><ele>2451.8532290682197</ele></trkpt><trkpt lat="37.22492" lon="-118.83365000000003"><ele>2453.950140554458</ele></trkpt><trkpt lat="37.22519" lon="-118.83343000000002"><ele>2456.5500524866998</ele></trkpt><trkpt lat="37.22519" lon="-118.83343000000002"><ele>2456.5500524866998</ele></trkpt><trkpt lat="37.22522" lon="-118.83335999999997"><ele>2456.0</ele></trkpt><trkpt lat="37.22522000000001" lon="-118.83335999999997"><ele>2456.0</ele></trkpt><trkpt lat="37.22519" lon="-118.83343000000002"><ele>2456.5500524866998</ele></trkpt><trkpt lat="37.22519" lon="-118.83343000000002"><ele>2456.5500524866998</ele></trkpt><trkpt lat="37.22492" lon="-118.83365000000003"><ele>2453.950140554458</ele></trkpt><trkpt lat="37.22485" lon="-118.83384999999998"><ele>2451.8532290682197</ele></trkpt><trkpt lat="37.22485" lon="-118.83392000000003"><ele>2451.3366466656717</ele></trkpt><trkpt lat="37.22483" lon="-118.83397000000002"><ele>2450.68268362619</ele></trkpt><trkpt lat="37.22479" lon="-118.83398"><ele>2449.341593677178</ele></trkpt><trkpt lat="37.22476" lon="-118.83404000000002"><ele>2448.0</ele></trkpt><trkpt lat="37.22472" lon="-118.83431999999999"><ele>2446.2446892522275</ele></trkpt><trkpt lat="37.22464" lon="-118.83447999999999"><ele>2444.0</ele></trkpt><trkpt lat="37.22462" lon="-118.83465000000001"><ele>2443.0</ele></trkpt><trkpt lat="37.22452" lon="-118.83494999999999"><ele>2440.73828021361</ele></trkpt><trkpt lat="37.2246" lon="-118.83521999999999"><ele>2439.2214333713055</ele></trkpt><trkpt lat="37.22452" lon="-118.83553"><ele>2437.0</ele></trkpt><trkpt lat="37.2244" lon="-118.83636999999999"><ele>2434.8765153895474</ele></trkpt><trkpt lat="37.22414" lon="-118.83695999999998"><ele>2436.0</ele></trkpt><trkpt lat="37.22392" lon="-118.83760999999998"><ele>2435.4231944568455</ele></trkpt><trkpt lat="37.22369" lon="-118.83859000000001"><ele>2434.962106624618</ele></trkpt><trkpt lat="37.22364" lon="-118.83895000000001"><ele>2434.035788614303</ele></trkpt><trkpt lat="37.22365" lon="-118.83909"><ele>2434.621052062139</ele></trkpt><trkpt lat="37.2236" lon="-118.83931999999999"><ele>2434.0</ele></trkpt><trkpt lat="37.22361" lon="-118.83955000000003"><ele>2434.0</ele></trkpt><trkpt lat="37.2237" lon="-118.83974999999998"><ele>2434.0</ele></trkpt><trkpt lat="37.22375" lon="-118.84001"><ele>2432.0</ele></trkpt><trkpt lat="37.22415" lon="-118.84073999999998"><ele>2431.0</ele></trkpt><trkpt lat="37.22462" lon="-118.84136000000001"><ele>2428.0</ele></trkpt><trkpt lat="37.2248" lon="-118.84145000000001"><ele>2426.0</ele></trkpt><trkpt lat="37.22497" lon="-118.84163999999998"><ele>2424.0</ele></trkpt><trkpt lat="37.22528" lon="-118.84233999999998"><ele>2416.0</ele></trkpt><trkpt lat="37.22533" lon="-118.84260999999998"><ele>2414.0</ele></trkpt><trkpt lat="37.22532" lon="-118.84280000000001"><ele>2413.0</ele></trkpt><trkpt lat="37.22518" lon="-118.84312999999997"><ele>2413.0</ele></trkpt><trkpt lat="37.22495" lon="-118.84424000000001"><ele>2412.0</ele></trkpt><trkpt lat="37.2249" lon="-118.84438"><ele>2412.0</ele></trkpt><trkpt lat="37.22476" lon="-118.84456"><ele>2412.0</ele></trkpt><trkpt lat="37.22466" lon="-118.84478999999999"><ele>2411.0</ele></trkpt><trkpt lat="37.22452" lon="-118.84494999999998"><ele>2410.0</ele></trkpt><trkpt lat="37.22449" lon="-118.84503000000001"><ele>2410.0</ele></trkpt><trkpt lat="37.22422" lon="-118.84523000000002"><ele>2410.0</ele></trkpt><trkpt lat="37.22411" lon="-118.84548000000001"><ele>2409.681018687048</ele></trkpt><trkpt lat="37.22406" lon="-118.84582999999998"><ele>2410.0</ele></trkpt><trkpt lat="37.22355" lon="-118.84665999999999"><ele>2412.0</ele></trkpt><trkpt lat="37.22352" lon="-118.84672999999998"><ele>2412.0</ele></trkpt><trkpt lat="37.22349" lon="-118.84692000000001"><ele>2413.5618999506487</ele></trkpt><trkpt lat="37.22342" lon="-118.84708999999998"><ele>2416.0</ele></trkpt><trkpt lat="37.22321" lon="-118.84735999999998"><ele>2418.796468238317</ele></trkpt><trkpt lat="37.22312" lon="-118.84757000000002"><ele>2419.8817253625043</ele></trkpt><trkpt lat="37.2231" lon="-118.84782000000001"><ele>2422.152609011986</ele></trkpt><trkpt lat="37.22305" lon="-118.84800999999999"><ele>2423.0</ele></trkpt><trkpt lat="37.22293" lon="-118.84812999999997"><ele>2424.0</ele></trkpt><trkpt lat="37.22276" lon="-118.84821999999997"><ele>2424.9948764429428</ele></trkpt><trkpt lat="37.2226742097745" lon="-118.8485116867667"><ele>2427.0</ele></trkpt><trkpt lat="37.2226742097745" lon="-118.8485116867667"><ele>2427.0</ele></trkpt><trkpt lat="37.22266" lon="-118.84856000000002"><ele>2427.8400248899125</ele></trkpt><trkpt lat="37.22258" lon="-118.84866999999997"><ele>2427.0</ele></trkpt><trkpt lat="37.22253" lon="-118.84888000000001"><ele>2427.0</ele></trkpt><trkpt lat="37.22266" lon="-118.84929"><ele>2424.4145675277696</ele></trkpt><trkpt lat="37.2227" lon="-118.84935000000002"><ele>2424.0</ele></trkpt><trkpt lat="37.22268" lon="-118.84947"><ele>2423.0</ele></trkpt><trkpt lat="37.22273" lon="-118.84976"><ele>2423.0</ele></trkpt><trkpt lat="37.22278" lon="-118.84985"><ele>2422.0</ele></trkpt><trkpt lat="37.2228" lon="-118.84998000000002"><ele>2422.0</ele></trkpt><trkpt lat="37.22277" lon="-118.8501"><ele>2421.1181657966226</ele></trkpt><trkpt lat="37.22277" lon="-118.8501"><ele>2421.1181657966226</ele></trkpt><trkpt lat="37.22255" lon="-118.85054000000002"><ele>2421.0</ele></trkpt><trkpt lat="37.22254" lon="-118.85061000000002"><ele>2421.0</ele></trkpt><trkpt lat="37.22254" lon="-118.85073"><ele>2421.0</ele></trkpt><trkpt lat="37.22258" lon="-118.85088000000002"><ele>2421.0</ele></trkpt><trkpt lat="37.22256" lon="-118.85135000000002"><ele>2421.8513081537403</ele></trkpt><trkpt lat="37.22249" lon="-118.85153000000003"><ele>2419.546753758105</ele></trkpt><trkpt lat="37.22249" lon="-118.85160000000002"><ele>2418.731009820476</ele></trkpt><trkpt lat="37.22243" lon="-118.85172999999998"><ele>2417.0</ele></trkpt><trkpt lat="37.22243" lon="-118.8519"><ele>2416.0</ele></trkpt><trkpt lat="37.22236" lon="-118.85215"><ele>2413.0</ele></trkpt><trkpt lat="37.22237" lon="-118.85225000000003"><ele>2412.0</ele></trkpt><trkpt lat="37.22233" lon="-118.85248000000001"><ele>2412.0</ele></trkpt><trkpt lat="37.22237" lon="-118.85268000000002"><ele>2412.0</ele></trkpt><trkpt lat="37.22238" lon="-118.8535"><ele>2403.2932151928544</ele></trkpt><trkpt lat="37.22231" lon="-118.85361999999998"><ele>2402.0</ele></trkpt><trkpt lat="37.22231" lon="-118.85381999999998"><ele>2400.0051483435564</ele></trkpt><trkpt lat="37.22241" lon="-118.85405000000003"><ele>2398.015056878408</ele></trkpt><trkpt lat="37.22266" lon="-118.85435000000001"><ele>2398.2220774422008</ele></trkpt><trkpt lat="37.2229" lon="-118.85485"><ele>2398.7265088930726</ele></trkpt><trkpt lat="37.22307" lon="-118.85536000000002"><ele>2399.4350964518285</ele></trkpt><trkpt lat="37.2231" lon="-118.85570000000001"><ele>2402.431677725166</ele></trkpt><trkpt lat="37.22309" lon="-118.85618"><ele>2405.0</ele></trkpt><trkpt lat="37.22319" lon="-118.85648000000003"><ele>2407.0</ele></trkpt><trkpt lat="37.22325" lon="-118.85654"><ele>2408.0</ele></trkpt><trkpt lat="37.22329" lon="-118.85669000000001"><ele>2408.0</ele></trkpt><trkpt lat="37.22337" lon="-118.85674"><ele>2408.2206980122364</ele></trkpt><trkpt lat="37.22354" lon="-118.85696000000002"><ele>2409.1266726849803</ele></trkpt><trkpt lat="37.22364" lon="-118.85721000000001"><ele>2409.0</ele></trkpt><trkpt lat="37.22398" lon="-118.85782"><ele>2409.0652106609195</ele></trkpt><trkpt lat="37.22405" lon="-118.85786999999999"><ele>2409.031653566286</ele></trkpt><trkpt lat="37.22405" lon="-118.85811000000001"><ele>2410.0</ele></trkpt><trkpt lat="37.22392" lon="-118.85836"><ele>2408.1891141291726</ele></trkpt><trkpt lat="37.22395" lon="-118.85860000000002"><ele>2407.3941468467838</ele></trkpt><trkpt lat="37.22404" lon="-118.85872999999998"><ele>2407.0</ele></trkpt><trkpt lat="37.22413" lon="-118.85903000000002"><ele>2407.0</ele></trkpt><trkpt lat="37.22442" lon="-118.85914000000002"><ele>2405.0</ele></trkpt><trkpt lat="37.22449" lon="-118.85924"><ele>2404.463660855751</ele></trkpt><trkpt lat="37.22458" lon="-118.85944"><ele>2404.1602526963225</ele></trkpt><trkpt lat="37.225" lon="-118.86012"><ele>2407.0</ele></trkpt><trkpt lat="37.22536" lon="-118.86077"><ele>2406.741764746535</ele></trkpt><trkpt lat="37.2254" lon="-118.86093"><ele>2404.690229185385</ele></trkpt><trkpt lat="37.22543" lon="-118.86097999999998"><ele>2403.346023111604</ele></trkpt><trkpt lat="37.22572" lon="-118.86115000000001"><ele>2401.4234488881193</ele></trkpt><trkpt lat="37.22579" lon="-118.86126999999999"><ele>2400.1468594655876</ele></trkpt><trkpt lat="37.22579" lon="-118.86126999999999"><ele>2400.1468594655876</ele></trkpt><trkpt lat="37.22586" lon="-118.86136999999997"><ele>2401.994226303272</ele></trkpt><trkpt lat="37.22594" lon="-118.86154999999997"><ele>2402.0</ele></trkpt><trkpt lat="37.22605" lon="-118.86193000000003"><ele>2403.0</ele></trkpt><trkpt lat="37.22609" lon="-118.86212"><ele>2403.87512958135</ele></trkpt><trkpt lat="37.22615" lon="-118.86220000000003"><ele>2403.0</ele></trkpt><trkpt lat="37.22638" lon="-118.86232999999999"><ele>2404.4314631116576</ele></trkpt><trkpt lat="37.22651" lon="-118.86243999999999"><ele>2405.0</ele></trkpt><trkpt lat="37.22727" lon="-118.86340999999999"><ele>2409.542272824626</ele></trkpt><trkpt lat="37.22755" lon="-118.86391000000003"><ele>2410.975717281805</ele></trkpt><trkpt lat="37.22827" lon="-118.86471"><ele>2415.5256314705443</ele></trkpt><trkpt lat="37.22839" lon="-118.86490000000003"><ele>2416.0</ele></trkpt><trkpt lat="37.22872" lon="-118.86509999999998"><ele>2416.0</ele></trkpt><trkpt lat="37.22887" lon="-118.86523"><ele>2416.0</ele></trkpt><trkpt lat="37.22909" lon="-118.86536999999998"><ele>2416.0</ele></trkpt><trkpt lat="37.22931" lon="-118.86545000000001"><ele>2417.0</ele></trkpt><trkpt lat="37.22993" lon="-118.86583000000002"><ele>2418.181824857369</ele></trkpt><trkpt lat="37.23033" lon="-118.86592000000002"><ele>2419.0</ele></trkpt><trkpt lat="37.23033" lon="-118.86592000000002"><ele>2419.0</ele></trkpt><trkpt lat="37.230392857102665" lon="-118.86592401215546"><ele>2419.0</ele></trkpt><trkpt lat="37.23041456088782" lon="-118.86592539748966"><ele>2419.0</ele></trkpt><trkpt lat="37.2308" lon="-118.86595"><ele>2420.0</ele></trkpt><trkpt lat="37.23093" lon="-118.86601000000002"><ele>2421.7134356349707</ele></trkpt><trkpt lat="37.23099" lon="-118.86608999999999"><ele>2422.0</ele></trkpt><trkpt lat="37.23115" lon="-118.86612000000002"><ele>2423.0</ele></trkpt><trkpt lat="37.23159" lon="-118.86604999999997"><ele>2425.0</ele></trkpt><trkpt lat="37.23175" lon="-118.86608999999999"><ele>2425.768749942695</ele></trkpt><trkpt lat="37.23208" lon="-118.86633"><ele>2426.982510223763</ele></trkpt><trkpt lat="37.23218" lon="-118.86648000000002"><ele>2427.0</ele></trkpt><trkpt lat="37.23233" lon="-118.86653000000001"><ele>2428.0</ele></trkpt><trkpt lat="37.23269" lon="-118.86689000000001"><ele>2431.0799395567738</ele></trkpt><trkpt lat="37.2327" lon="-118.86714"><ele>2432.81593426765</ele></trkpt><trkpt lat="37.23273" lon="-118.86728"><ele>2433.2552568884566</ele></trkpt><trkpt lat="37.23282" lon="-118.86743999999999"><ele>2434.711797332857</ele></trkpt><trkpt lat="37.23289" lon="-118.86750999999998"><ele>2435.0</ele></trkpt><trkpt lat="37.233" lon="-118.86757"><ele>2436.0</ele></trkpt><trkpt lat="37.23307" lon="-118.86766"><ele>2437.0</ele></trkpt><trkpt lat="37.23323" lon="-118.86772000000002"><ele>2439.0</ele></trkpt><trkpt lat="37.23335" lon="-118.86788999999999"><ele>2441.0</ele></trkpt><trkpt lat="37.23337" lon="-118.86797000000001"><ele>2442.0</ele></trkpt><trkpt lat="37.23325" lon="-118.86822000000001"><ele>2442.0</ele></trkpt><trkpt lat="37.23325" lon="-118.86833000000001"><ele>2442.6023209619416</ele></trkpt><trkpt lat="37.23342" lon="-118.86888999999996"><ele>2446.0</ele></trkpt><trkpt lat="37.23359" lon="-118.86928"><ele>2448.0</ele></trkpt><trkpt lat="37.23391" lon="-118.86981000000003"><ele>2451.0</ele></trkpt><trkpt lat="37.23397" lon="-118.86996999999997"><ele>2451.0</ele></trkpt><trkpt lat="37.2346" lon="-118.87074000000001"><ele>2456.0</ele></trkpt><trkpt lat="37.23463" lon="-118.87072"><ele>2456.5930482406397</ele></trkpt><trkpt lat="37.23465" lon="-118.87065000000001"><ele>2457.316534494521</ele></trkpt><trkpt lat="37.23462" lon="-118.87052"><ele>2458.0</ele></trkpt><trkpt lat="37.2346" lon="-118.87013999999999"><ele>2462.2438187353628</ele></trkpt><trkpt lat="37.23462" lon="-118.86964999999998"><ele>2466.7017969712615</ele></trkpt><trkpt lat="37.23474" lon="-118.86924999999997"><ele>2470.0</ele></trkpt><trkpt lat="37.23481" lon="-118.86912999999998"><ele>2472.0</ele></trkpt><trkpt lat="37.2348" lon="-118.86905999999999"><ele>2472.0</ele></trkpt><trkpt lat="37.23484" lon="-118.86899"><ele>2472.5794857684523</ele></trkpt><trkpt lat="37.2349" lon="-118.86879999999996"><ele>2474.0915892384946</ele></trkpt><trkpt lat="37.2349" lon="-118.86867000000001"><ele>2475.0</ele></trkpt><trkpt lat="37.23497" lon="-118.86853000000002"><ele>2477.0</ele></trkpt><trkpt lat="37.23501" lon="-118.86855000000003"><ele>2477.5304528549314</ele></trkpt><trkpt lat="37.23513" lon="-118.86874"><ele>2479.164289339329</ele></trkpt><trkpt lat="37.23525" lon="-118.86896000000002"><ele>2481.8100619224992</ele></trkpt><trkpt lat="37.23533" lon="-118.86926"><ele>2484.0</ele></trkpt><trkpt lat="37.23548" lon="-118.86951999999997"><ele>2487.0</ele></trkpt><trkpt lat="37.23573" lon="-118.86975999999999"><ele>2489.0</ele></trkpt><trkpt lat="37.23578" lon="-118.86977999999999"><ele>2489.0</ele></trkpt><trkpt lat="37.23582" lon="-118.86973999999998"><ele>2489.944192428142</ele></trkpt><trkpt lat="37.23588" lon="-118.86914999999999"><ele>2493.456341551617</ele></trkpt><trkpt lat="37.236" lon="-118.86903000000001"><ele>2495.0</ele></trkpt><trkpt lat="37.23605" lon="-118.86891000000003"><ele>2495.4074459150434</ele></trkpt><trkpt lat="37.23614" lon="-118.86860000000001"><ele>2496.675686718896</ele></trkpt><trkpt lat="37.23631" lon="-118.86824999999999"><ele>2498.798684744179</ele></trkpt><trkpt lat="37.23636" lon="-118.86786000000001"><ele>2500.872689607925</ele></trkpt><trkpt lat="37.23631" lon="-118.86766"><ele>2501.0</ele></trkpt><trkpt lat="37.23609" lon="-118.86734000000001"><ele>2503.0</ele></trkpt><trkpt lat="37.23606" lon="-118.86727000000002"><ele>2503.216454801421</ele></trkpt><trkpt lat="37.23609" lon="-118.86716999999999"><ele>2504.0</ele></trkpt><trkpt lat="37.23614" lon="-118.86714999999998"><ele>2504.0</ele></trkpt><trkpt lat="37.23635" lon="-118.86716000000001"><ele>2506.0</ele></trkpt><trkpt lat="37.23656" lon="-118.86723999999998"><ele>2509.0</ele></trkpt><trkpt lat="37.23662" lon="-118.86739"><ele>2509.9133998222064</ele></trkpt><trkpt lat="37.23712" lon="-118.86775999999998"><ele>2514.0413826182485</ele></trkpt><trkpt lat="37.23736" lon="-118.86809"><ele>2519.093870727938</ele></trkpt><trkpt lat="37.23732" lon="-118.86815999999999"><ele>2519.0</ele></trkpt><trkpt lat="37.23733" lon="-118.86824000000001"><ele>2519.0</ele></trkpt><trkpt lat="37.23776" lon="-118.86878999999999"><ele>2521.0</ele></trkpt><trkpt lat="37.23791" lon="-118.86885000000001"><ele>2521.1649750621373</ele></trkpt><trkpt lat="37.23833" lon="-118.86919"><ele>2524.0</ele></trkpt><trkpt lat="37.23872" lon="-118.86941000000002"><ele>2525.1432581927575</ele></trkpt><trkpt lat="37.23886" lon="-118.86936000000003"><ele>2526.0</ele></trkpt><trkpt lat="37.23893" lon="-118.86942999999997"><ele>2527.0</ele></trkpt><trkpt lat="37.23922" lon="-118.86945000000003"><ele>2529.0</ele></trkpt><trkpt lat="37.23935" lon="-118.86942999999997"><ele>2529.8101177114945</ele></trkpt><trkpt lat="37.23943" lon="-118.86950000000002"><ele>2529.285244443454</ele></trkpt><trkpt lat="37.23952" lon="-118.86953"><ele>2529.4190939147957</ele></trkpt><trkpt lat="37.23964" lon="-118.86950999999999"><ele>2529.8192106666975</ele></trkpt><trkpt lat="37.23972" lon="-118.86944"><ele>2528.081447110977</ele></trkpt><trkpt lat="37.23981" lon="-118.86946999999998"><ele>2529.844268620936</ele></trkpt><trkpt lat="37.23992" lon="-118.86955999999998"><ele>2530.0</ele></trkpt><trkpt lat="37.23999" lon="-118.86951999999997"><ele>2531.015967426558</ele></trkpt><trkpt lat="37.24011" lon="-118.86955999999998"><ele>2533.0</ele></trkpt><trkpt lat="37.24036" lon="-118.86973999999998"><ele>2535.0</ele></trkpt><trkpt lat="37.24048" lon="-118.86995000000002"><ele>2534.2288402013955</ele></trkpt><trkpt lat="37.24076" lon="-118.87016"><ele>2536.0635037415086</ele></trkpt><trkpt lat="37.24106" lon="-118.87067000000002"><ele>2539.4417139026336</ele></trkpt><trkpt lat="37.24122" lon="-118.87083999999999"><ele>2540.844687965328</ele></trkpt><trkpt lat="37.24139" lon="-118.87092999999999"><ele>2542.0003977165134</ele></trkpt><trkpt lat="37.24146" lon="-118.87104999999997"><ele>2542.1435160106616</ele></trkpt><trkpt lat="37.2416" lon="-118.87119000000001"><ele>2544.0</ele></trkpt><trkpt lat="37.24186" lon="-118.87119999999999"><ele>2544.514561748132</ele></trkpt><trkpt lat="37.24196" lon="-118.87137999999999"><ele>2547.039508458227</ele></trkpt><trkpt lat="37.24206" lon="-118.87169"><ele>2549.222674490884</ele></trkpt><trkpt lat="37.242178295737304" lon="-118.87177132810348"><ele>2553.1477882582694</ele></trkpt><trkpt lat="37.242178295737304" lon="-118.87177132810348"><ele>2553.1477882582694</ele></trkpt><trkpt lat="37.24222" lon="-118.87180000000001"><ele>2555.0</ele></trkpt><trkpt lat="37.242230279388274" lon="-118.8717674486038"><ele>2555.1173352836713</ele></trkpt><trkpt lat="37.24222629055904" lon="-118.87178007990349"><ele>2555.0</ele></trkpt><trkpt lat="37.24222" lon="-118.87180000000001"><ele>2555.0</ele></trkpt><trkpt lat="37.242178295737304" lon="-118.87177132810348"><ele>2553.1477882582694</ele></trkpt><trkpt lat="37.242178295737304" lon="-118.87177132810348"><ele>2553.1477882582694</ele></trkpt><trkpt lat="37.24206" lon="-118.87169"><ele>2549.222674490884</ele></trkpt><trkpt lat="37.24196" lon="-118.87137999999999"><ele>2547.039508458227</ele></trkpt><trkpt lat="37.24186" lon="-118.87119999999999"><ele>2544.514561748132</ele></trkpt><trkpt lat="37.2416" lon="-118.87119000000001"><ele>2544.0</ele></trkpt><trkpt lat="37.24146" lon="-118.87104999999997"><ele>2542.1435160106616</ele></trkpt><trkpt lat="37.24139" lon="-118.87092999999999"><ele>2542.0003977165134</ele></trkpt><trkpt lat="37.24122" lon="-118.87083999999999"><ele>2540.844687965328</ele></trkpt><trkpt lat="37.24106" lon="-118.87067000000002"><ele>2539.4417139026336</ele></trkpt><trkpt lat="37.24076" lon="-118.87016"><ele>2536.0635037415086</ele></trkpt><trkpt lat="37.24048" lon="-118.86995000000002"><ele>2534.2288402013955</ele></trkpt><trkpt lat="37.24036" lon="-118.86973999999998"><ele>2535.0</ele></trkpt><trkpt lat="37.24011" lon="-118.86955999999998"><ele>2533.0</ele></trkpt><trkpt lat="37.23999" lon="-118.86951999999997"><ele>2531.015967426558</ele></trkpt><trkpt lat="37.23992" lon="-118.86955999999998"><ele>2530.0</ele></trkpt><trkpt lat="37.23981" lon="-118.86946999999998"><ele>2529.844268620936</ele></trkpt><trkpt lat="37.23972" lon="-118.86944"><ele>2528.081447110977</ele></trkpt><trkpt lat="37.23964" lon="-118.86950999999999"><ele>2529.8192106666975</ele></trkpt><trkpt lat="37.23952" lon="-118.86953"><ele>2529.4190939147957</ele></trkpt><trkpt lat="37.23943" lon="-118.86950000000002"><ele>2529.285244443454</ele></trkpt><trkpt lat="37.23935" lon="-118.86942999999997"><ele>2529.8101177114945</ele></trkpt><trkpt lat="37.23922" lon="-118.86945000000003"><ele>2529.0</ele></trkpt><trkpt lat="37.23893" lon="-118.86942999999997"><ele>2527.0</ele></trkpt><trkpt lat="37.23886" lon="-118.86936000000003"><ele>2526.0</ele></trkpt><trkpt lat="37.23872" lon="-118.86941000000002"><ele>2525.1432581927575</ele></trkpt><trkpt lat="37.23833" lon="-118.86919"><ele>2524.0</ele></trkpt><trkpt lat="37.23791" lon="-118.86885000000001"><ele>2521.1649750621373</ele></trkpt><trkpt lat="37.23776" lon="-118.86878999999999"><ele>2521.0</ele></trkpt><trkpt lat="37.23733" lon="-118.86824000000001"><ele>2519.0</ele></trkpt><trkpt lat="37.23732" lon="-118.86815999999999"><ele>2519.0</ele></trkpt><trkpt lat="37.23736" lon="-118.86809"><ele>2519.093870727938</ele></trkpt><trkpt lat="37.23712" lon="-118.86775999999998"><ele>2514.0413826182485</ele></trkpt><trkpt lat="37.23662" lon="-118.86739"><ele>2509.9133998222064</ele></trkpt><trkpt lat="37.23656" lon="-118.86723999999998"><ele>2509.0</ele></trkpt><trkpt lat="37.23635" lon="-118.86716000000001"><ele>2506.0</ele></trkpt><trkpt lat="37.23614" lon="-118.86714999999998"><ele>2504.0</ele></trkpt><trkpt lat="37.23609" lon="-118.86716999999999"><ele>2504.0</ele></trkpt><trkpt lat="37.23606" lon="-118.86727000000002"><ele>2503.216454801421</ele></trkpt><trkpt lat="37.23609" lon="-118.86734000000001"><ele>2503.0</ele></trkpt><trkpt lat="37.23631" lon="-118.86766"><ele>2501.0</ele></trkpt><trkpt lat="37.23636" lon="-118.86786000000001"><ele>2500.872689607925</ele></trkpt><trkpt lat="37.23631" lon="-118.86824999999999"><ele>2498.798684744179</ele></trkpt><trkpt lat="37.23614" lon="-118.86860000000001"><ele>2496.675686718896</ele></trkpt><trkpt lat="37.23605" lon="-118.86891000000003"><ele>2495.4074459150434</ele></trkpt><trkpt lat="37.236" lon="-118.86903000000001"><ele>2495.0</ele></trkpt><trkpt lat="37.23588" lon="-118.86914999999999"><ele>2493.456341551617</ele></trkpt><trkpt lat="37.23582" lon="-118.86973999999998"><ele>2489.944192428142</ele></trkpt><trkpt lat="37.23578" lon="-118.86977999999999"><ele>2489.0</ele></trkpt><trkpt lat="37.23573" lon="-118.86975999999999"><ele>2489.0</ele></trkpt><trkpt lat="37.23548" lon="-118.86951999999997"><ele>2487.0</ele></trkpt><trkpt lat="37.23533" lon="-118.86926"><ele>2484.0</ele></trkpt><trkpt lat="37.23525" lon="-118.86896000000002"><ele>2481.8100619224992</ele></trkpt><trkpt lat="37.23513" lon="-118.86874"><ele>2479.164289339329</ele></trkpt><trkpt lat="37.23501" lon="-118.86855000000003"><ele>2477.5304528549314</ele></trkpt><trkpt lat="37.23497" lon="-118.86853000000002"><ele>2477.0</ele></trkpt><trkpt lat="37.2349" lon="-118.86867000000001"><ele>2475.0</ele></trkpt><trkpt lat="37.2349" lon="-118.86879999999996"><ele>2474.0915892384946</ele></trkpt><trkpt lat="37.23484" lon="-118.86899"><ele>2472.5794857684523</ele></trkpt><trkpt lat="37.2348" lon="-118.86905999999999"><ele>2472.0</ele></trkpt><trkpt lat="37.23481" lon="-118.86912999999998"><ele>2472.0</ele></trkpt><trkpt lat="37.23474" lon="-118.86924999999997"><ele>2470.0</ele></trkpt><trkpt lat="37.23462" lon="-118.86964999999998"><ele>2466.7017969712615</ele></trkpt><trkpt lat="37.2346" lon="-118.87013999999999"><ele>2462.2438187353628</ele></trkpt><trkpt lat="37.23462" lon="-118.87052"><ele>2458.0</ele></trkpt><trkpt lat="37.23465" lon="-118.87065000000001"><ele>2457.316534494521</ele></trkpt><trkpt lat="37.23463" lon="-118.87072"><ele>2456.5930482406397</ele></trkpt><trkpt lat="37.2346" lon="-118.87074000000001"><ele>2456.0</ele></trkpt><trkpt lat="37.23397" lon="-118.86996999999997"><ele>2451.0</ele></trkpt><trkpt lat="37.23391" lon="-118.86981000000003"><ele>2451.0</ele></trkpt><trkpt lat="37.23359" lon="-118.86928"><ele>2448.0</ele></trkpt><trkpt lat="37.23342" lon="-118.86888999999996"><ele>2446.0</ele></trkpt><trkpt lat="37.23325" lon="-118.86833000000001"><ele>2442.6023209619416</ele></trkpt><trkpt lat="37.23325" lon="-118.86822000000001"><ele>2442.0</ele></trkpt><trkpt lat="37.23337" lon="-118.86797000000001"><ele>2442.0</ele></trkpt><trkpt lat="37.23335" lon="-118.86788999999999"><ele>2441.0</ele></trkpt><trkpt lat="37.23323" lon="-118.86772000000002"><ele>2439.0</ele></trkpt><trkpt lat="37.23307" lon="-118.86766"><ele>2437.0</ele></trkpt><trkpt lat="37.233" lon="-118.86757"><ele>2436.0</ele></trkpt><trkpt lat="37.23289" lon="-118.86750999999998"><ele>2435.0</ele></trkpt><trkpt lat="37.23282" lon="-118.86743999999999"><ele>2434.711797332857</ele></trkpt><trkpt lat="37.23273" lon="-118.86728"><ele>2433.2552568884566</ele></trkpt><trkpt lat="37.2327" lon="-118.86714"><ele>2432.81593426765</ele></trkpt><trkpt lat="37.23269" lon="-118.86689000000001"><ele>2431.0799395567738</ele></trkpt><trkpt lat="37.23233" lon="-118.86653000000001"><ele>2428.0</ele></trkpt><trkpt lat="37.23218" lon="-118.86648000000002"><ele>2427.0</ele></trkpt><trkpt lat="37.23208" lon="-118.86633"><ele>2426.982510223763</ele></trkpt><trkpt lat="37.23175" lon="-118.86608999999999"><ele>2425.768749942695</ele></trkpt><trkpt lat="37.23159" lon="-118.86604999999997"><ele>2425.0</ele></trkpt><trkpt lat="37.23115" lon="-118.86612000000002"><ele>2423.0</ele></trkpt><trkpt lat="37.23099" lon="-118.86608999999999"><ele>2422.0</ele></trkpt><trkpt lat="37.23093" lon="-118.86601000000002"><ele>2421.7134356349707</ele></trkpt><trkpt lat="37.2308" lon="-118.86595"><ele>2420.0</ele></trkpt><trkpt lat="37.23033" lon="-118.86592000000002"><ele>2419.0</ele></trkpt><trkpt lat="37.23033" lon="-118.86592000000002"><ele>2419.0</ele></trkpt><trkpt lat="37.22993" lon="-118.86583000000002"><ele>2418.181824857369</ele></trkpt><trkpt lat="37.22931" lon="-118.86545000000001"><ele>2417.0</ele></trkpt><trkpt lat="37.22909" lon="-118.86536999999998"><ele>2416.0</ele></trkpt><trkpt lat="37.22887" lon="-118.86523"><ele>2416.0</ele></trkpt><trkpt lat="37.22872" lon="-118.86509999999998"><ele>2416.0</ele></trkpt><trkpt lat="37.22839" lon="-118.86490000000003"><ele>2416.0</ele></trkpt><trkpt lat="37.22827" lon="-118.86471"><ele>2415.5256314705443</ele></trkpt><trkpt lat="37.22755" lon="-118.86391000000003"><ele>2410.975717281805</ele></trkpt><trkpt lat="37.22727" lon="-118.86340999999999"><ele>2409.542272824626</ele></trkpt><trkpt lat="37.22651" lon="-118.86243999999999"><ele>2405.0</ele></trkpt><trkpt lat="37.22638" lon="-118.86232999999999"><ele>2404.4314631116576</ele></trkpt><trkpt lat="37.22615" lon="-118.86220000000003"><ele>2403.0</ele></trkpt><trkpt lat="37.22609" lon="-118.86212"><ele>2403.87512958135</ele></trkpt><trkpt lat="37.22605" lon="-118.86193000000003"><ele>2403.0</ele></trkpt><trkpt lat="37.22594" lon="-118.86154999999997"><ele>2402.0</ele></trkpt><trkpt lat="37.22586" lon="-118.86136999999997"><ele>2401.994226303272</ele></trkpt><trkpt lat="37.22579" lon="-118.86126999999999"><ele>2400.1468594655876</ele></trkpt><trkpt lat="37.22579" lon="-118.86126999999999"><ele>2400.1468594655876</ele></trkpt><trkpt lat="37.22576" lon="-118.86138"><ele>2400.0</ele></trkpt><trkpt lat="37.22572" lon="-118.86174"><ele>2398.0</ele></trkpt><trkpt lat="37.22577" lon="-118.86184000000003"><ele>2399.0</ele></trkpt><trkpt lat="37.22578" lon="-118.86198999999999"><ele>2399.0</ele></trkpt><trkpt lat="37.2257531360368" lon="-118.86203178838718"><ele>2398.0</ele></trkpt><trkpt lat="37.22571323867116" lon="-118.86209385097197"><ele>2398.0</ele></trkpt><trkpt lat="37.22569" lon="-118.86212999999998"><ele>2397.0</ele></trkpt><trkpt lat="37.22567" lon="-118.86223000000001"><ele>2395.077650645778</ele></trkpt><trkpt lat="37.22569" lon="-118.86232000000001"><ele>2394.0</ele></trkpt><trkpt lat="37.22573" lon="-118.86238000000003"><ele>2394.0</ele></trkpt><trkpt lat="37.22578" lon="-118.86259000000001"><ele>2392.0</ele></trkpt><trkpt lat="37.22592" lon="-118.86270000000002"><ele>2391.0</ele></trkpt><trkpt lat="37.22595" lon="-118.86277999999999"><ele>2390.0</ele></trkpt><trkpt lat="37.22594" lon="-118.86286000000001"><ele>2388.0</ele></trkpt><trkpt lat="37.22587" lon="-118.86293"><ele>2387.0</ele></trkpt><trkpt lat="37.22585" lon="-118.86310000000003"><ele>2386.0</ele></trkpt><trkpt lat="37.22587" lon="-118.86325999999997"><ele>2385.0</ele></trkpt><trkpt lat="37.22586" lon="-118.86347"><ele>2383.0</ele></trkpt><trkpt lat="37.22591" lon="-118.86358999999999"><ele>2382.0</ele></trkpt><trkpt lat="37.2261" lon="-118.86387000000002"><ele>2380.008566428972</ele></trkpt><trkpt lat="37.22611" lon="-118.86394000000001"><ele>2380.0</ele></trkpt><trkpt lat="37.22621" lon="-118.86401999999998"><ele>2380.0</ele></trkpt><trkpt lat="37.22646" lon="-118.86406"><ele>2380.0</ele></trkpt><trkpt lat="37.2266" lon="-118.86412999999999"><ele>2380.2771570794284</ele></trkpt><trkpt lat="37.22674" lon="-118.86423000000002"><ele>2380.0</ele></trkpt><trkpt lat="37.22697" lon="-118.86446999999998"><ele>2381.0</ele></trkpt><trkpt lat="37.22706" lon="-118.86464000000001"><ele>2381.0</ele></trkpt><trkpt lat="37.22708" lon="-118.86478"><ele>2380.0939307360904</ele></trkpt><trkpt lat="37.22738" lon="-118.86536000000001"><ele>2376.9454168675147</ele></trkpt><trkpt lat="37.22747" lon="-118.86559"><ele>2374.602255882406</ele></trkpt><trkpt lat="37.22752" lon="-118.86583000000002"><ele>2372.403891425702</ele></trkpt><trkpt lat="37.22776" lon="-118.86621000000002"><ele>2369.0</ele></trkpt><trkpt lat="37.22798" lon="-118.86646999999999"><ele>2367.0</ele></trkpt><trkpt lat="37.22812" lon="-118.86655000000002"><ele>2367.0</ele></trkpt><trkpt lat="37.22825" lon="-118.86669999999998"><ele>2366.9663103721364</ele></trkpt><trkpt lat="37.22867" lon="-118.86689000000001"><ele>2373.0</ele></trkpt><trkpt lat="37.22879" lon="-118.86701"><ele>2377.1496517001397</ele></trkpt><trkpt lat="37.22883" lon="-118.86712"><ele>2377.7979495655745</ele></trkpt><trkpt lat="37.22882" lon="-118.86723999999998"><ele>2377.821524139028</ele></trkpt><trkpt lat="37.22887" lon="-118.86732999999998"><ele>2378.0576941966215</ele></trkpt><trkpt lat="37.22906" lon="-118.86743999999999"><ele>2381.548157587182</ele></trkpt><trkpt lat="37.22915" lon="-118.86752999999999"><ele>2382.5720549764264</ele></trkpt><trkpt lat="37.22946" lon="-118.86770000000001"><ele>2386.1713244435377</ele></trkpt><trkpt lat="37.22965" lon="-118.86775999999998"><ele>2386.0</ele></trkpt><trkpt lat="37.22969" lon="-118.86784"><ele>2387.0474468281645</ele></trkpt><trkpt lat="37.22957" lon="-118.86802999999998"><ele>2389.0</ele></trkpt><trkpt lat="37.2296" lon="-118.86810000000003"><ele>2389.0</ele></trkpt><trkpt lat="37.22991" lon="-118.86826000000002"><ele>2391.0</ele></trkpt><trkpt lat="37.23003" lon="-118.86838"><ele>2391.0</ele></trkpt><trkpt lat="37.2302" lon="-118.86845"><ele>2391.0</ele></trkpt><trkpt lat="37.23033" lon="-118.86856999999998"><ele>2391.0</ele></trkpt><trkpt lat="37.23033" lon="-118.86856999999998"><ele>2391.0</ele></trkpt><trkpt lat="37.23059" lon="-118.86887999999999"><ele>2391.0</ele></trkpt><trkpt lat="37.23074" lon="-118.86899"><ele>2392.613960845853</ele></trkpt><trkpt lat="37.23114" lon="-118.86950000000002"><ele>2391.285244443454</ele></trkpt><trkpt lat="37.23128" lon="-118.86964"><ele>2391.0</ele></trkpt><trkpt lat="37.23144" lon="-118.86984000000001"><ele>2390.0</ele></trkpt><trkpt lat="37.23163" lon="-118.87016"><ele>2389.0</ele></trkpt><trkpt lat="37.2319" lon="-118.87050999999997"><ele>2389.105723538808</ele></trkpt><trkpt lat="37.23197" lon="-118.87058999999999"><ele>2389.286264781511</ele></trkpt><trkpt lat="37.23215" lon="-118.87067000000002"><ele>2393.093432482833</ele></trkpt><trkpt lat="37.23222" lon="-118.87081"><ele>2395.0</ele></trkpt><trkpt lat="37.23237" lon="-118.87090999999998"><ele>2396.0</ele></trkpt><trkpt lat="37.23249" lon="-118.87104999999997"><ele>2398.0</ele></trkpt><trkpt lat="37.23258" lon="-118.87121000000002"><ele>2398.173465247439</ele></trkpt><trkpt lat="37.23272" lon="-118.87158"><ele>2400.0</ele></trkpt><trkpt lat="37.23301" lon="-118.87194"><ele>2401.6915370274182</ele></trkpt><trkpt lat="37.23311" lon="-118.87198999999998"><ele>2403.0</ele></trkpt><trkpt lat="37.23317" lon="-118.87207000000001"><ele>2404.827060835436</ele></trkpt><trkpt lat="37.23317" lon="-118.87207000000001"><ele>2404.827060835436</ele></trkpt><trkpt lat="37.23365" lon="-118.87254000000001"><ele>2408.0</ele></trkpt><trkpt lat="37.23389" lon="-118.87272000000002"><ele>2407.0</ele></trkpt><trkpt lat="37.23415" lon="-118.87332000000004"><ele>2401.2603413313627</ele></trkpt><trkpt lat="37.23433" lon="-118.87365"><ele>2399.0</ele></trkpt><trkpt lat="37.23433" lon="-118.87387000000001"><ele>2397.0</ele></trkpt><trkpt lat="37.23443" lon="-118.87421"><ele>2394.0</ele></trkpt><trkpt lat="37.23459" lon="-118.87439999999998"><ele>2391.996131713916</ele></trkpt><trkpt lat="37.23463" lon="-118.87468999999999"><ele>2387.0</ele></trkpt><trkpt lat="37.23477" lon="-118.87495000000001"><ele>2381.6357856087816</ele></trkpt><trkpt lat="37.23481" lon="-118.87509"><ele>2379.0</ele></trkpt><trkpt lat="37.23521" lon="-118.87572"><ele>2371.0</ele></trkpt><trkpt lat="37.2353" lon="-118.87580000000003"><ele>2371.0</ele></trkpt><trkpt lat="37.23561" lon="-118.87592000000001"><ele>2370.0</ele></trkpt><trkpt lat="37.23582" lon="-118.87614000000002"><ele>2370.0</ele></trkpt><trkpt lat="37.23604" lon="-118.87624"><ele>2370.853839949479</ele></trkpt><trkpt lat="37.23613" lon="-118.87632000000002"><ele>2371.0</ele></trkpt><trkpt lat="37.23619" lon="-118.87641000000002"><ele>2371.0</ele></trkpt><trkpt lat="37.23638" lon="-118.87649999999996"><ele>2372.0</ele></trkpt><trkpt lat="37.23654" lon="-118.87666000000002"><ele>2373.0</ele></trkpt><trkpt lat="37.2366" lon="-118.87675999999999"><ele>2373.602349065244</ele></trkpt><trkpt lat="37.2367" lon="-118.87698999999998"><ele>2372.578908646635</ele></trkpt><trkpt lat="37.23674" lon="-118.87718000000001"><ele>2373.0</ele></trkpt><trkpt lat="37.23674" lon="-118.87727999999998"><ele>2372.0</ele></trkpt><trkpt lat="37.23678" lon="-118.87741"><ele>2371.0</ele></trkpt><trkpt lat="37.23709" lon="-118.87781999999999"><ele>2370.0</ele></trkpt><trkpt lat="37.23709" lon="-118.87781999999999"><ele>2370.0</ele></trkpt><trkpt lat="37.23733" lon="-118.87793999999997"><ele>2373.0</ele></trkpt><trkpt lat="37.23767" lon="-118.87862000000001"><ele>2380.0</ele></trkpt><trkpt lat="37.23771" lon="-118.87880999999999"><ele>2380.0</ele></trkpt><trkpt lat="37.23768" lon="-118.8791"><ele>2383.0</ele></trkpt><trkpt lat="37.23772" lon="-118.87939"><ele>2382.0</ele></trkpt><trkpt lat="37.23787" lon="-118.87963000000002"><ele>2380.0</ele></trkpt><trkpt lat="37.23808" lon="-118.87985000000003"><ele>2377.940284443088</ele></trkpt><trkpt lat="37.23829" lon="-118.87995999999998"><ele>2374.81391288992</ele></trkpt><trkpt lat="37.23861" lon="-118.88000999999997"><ele>2375.126781507708</ele></trkpt><trkpt lat="37.23896" lon="-118.88"><ele>2377.9497777777724</ele></trkpt><trkpt lat="37.23927" lon="-118.88006000000001"><ele>2375.153575110249</ele></trkpt><trkpt lat="37.23943" lon="-118.88022000000001"><ele>2372.0</ele></trkpt><trkpt lat="37.23967" lon="-118.88022999999998"><ele>2374.5437607262284</ele></trkpt><trkpt lat="37.23982" lon="-118.88044000000002"><ele>2372.4442915539257</ele></trkpt><trkpt lat="37.24003356885838" lon="-118.88056307357942"><ele>2372.130781313321</ele></trkpt><trkpt lat="37.240068408015205" lon="-118.8805831500573"><ele>2371.7730153556913</ele></trkpt><trkpt lat="37.24041" lon="-118.88078000000002"><ele>2367.5991431102157</ele></trkpt><trkpt lat="37.24065" lon="-118.88083"><ele>2369.183209697933</ele></trkpt><trkpt lat="37.24082" lon="-118.88098000000002"><ele>2368.278467554599</ele></trkpt><trkpt lat="37.24107" lon="-118.88107000000002"><ele>2372.0841635544784</ele></trkpt><trkpt lat="37.2416" lon="-118.8811"><ele>2372.6860622214153</ele></trkpt><trkpt lat="37.24183" lon="-118.88117999999997"><ele>2369.9577920013107</ele></trkpt><trkpt lat="37.24206" lon="-118.88132000000002"><ele>2366.0</ele></trkpt><trkpt lat="37.2421" lon="-118.88144999999997"><ele>2362.5643007662147</ele></trkpt><trkpt lat="37.24195" lon="-118.88150999999999"><ele>2359.0</ele></trkpt><trkpt lat="37.24175" lon="-118.88141999999999"><ele>2356.772981334012</ele></trkpt><trkpt lat="37.24163" lon="-118.88146"><ele>2354.908846221864</ele></trkpt><trkpt lat="37.24169" lon="-118.88168000000002"><ele>2352.7130797744994</ele></trkpt><trkpt lat="37.24165" lon="-118.88193000000001"><ele>2350.001162569053</ele></trkpt><trkpt lat="37.24185" lon="-118.88236999999998"><ele>2348.0</ele></trkpt><trkpt lat="37.24212" lon="-118.88269000000003"><ele>2348.0</ele></trkpt><trkpt lat="37.24242" lon="-118.88292000000001"><ele>2348.0</ele></trkpt><trkpt lat="37.24274" lon="-118.88305000000003"><ele>2349.0</ele></trkpt><trkpt lat="37.24295" lon="-118.88335000000001"><ele>2347.0</ele></trkpt><trkpt lat="37.24313" lon="-118.88376"><ele>2348.861605409533</ele></trkpt><trkpt lat="37.2432" lon="-118.88386000000003"><ele>2348.060739553999</ele></trkpt><trkpt lat="37.24335" lon="-118.88393000000002"><ele>2350.9477615592314</ele></trkpt><trkpt lat="37.24341" lon="-118.88414999999998"><ele>2351.253248155117</ele></trkpt><trkpt lat="37.24354" lon="-118.88432999999998"><ele>2352.0</ele></trkpt><trkpt lat="37.24353" lon="-118.88485000000003"><ele>2354.256940858119</ele></trkpt><trkpt lat="37.24331" lon="-118.88542000000001"><ele>2349.3990830425173</ele></trkpt><trkpt lat="37.24337" lon="-118.88575000000003"><ele>2347.9133181160714</ele></trkpt><trkpt lat="37.24328" lon="-118.88599999999997"><ele>2346.642835021019</ele></trkpt><trkpt lat="37.24331" lon="-118.88634000000002"><ele>2345.0</ele></trkpt><trkpt lat="37.24343" lon="-118.88677999999999"><ele>2343.0</ele></trkpt><trkpt lat="37.24407" lon="-118.88733000000002"><ele>2347.9287811069867</ele></trkpt><trkpt lat="37.2442" lon="-118.88765000000001"><ele>2348.5014256369323</ele></trkpt><trkpt lat="37.24452" lon="-118.88792999999998"><ele>2350.1445284627293</ele></trkpt><trkpt lat="37.24468" lon="-118.88819999999998"><ele>2349.0</ele></trkpt><trkpt lat="37.24501" lon="-118.88841000000002"><ele>2349.0</ele></trkpt><trkpt lat="37.24518" lon="-118.88881000000003"><ele>2346.0</ele></trkpt><trkpt lat="37.24538" lon="-118.88916"><ele>2343.0</ele></trkpt><trkpt lat="37.24559" lon="-118.88940000000002"><ele>2340.769132168454</ele></trkpt><trkpt lat="37.24568" lon="-118.88976000000002"><ele>2338.0</ele></trkpt><trkpt lat="37.2457" lon="-118.89008000000001"><ele>2335.12845315756</ele></trkpt><trkpt lat="37.24569851921889" lon="-118.89009311548983"><ele>2335.0</ele></trkpt><trkpt lat="37.245694022457506" lon="-118.89013294397023"><ele>2335.0</ele></trkpt><trkpt lat="37.24563" lon="-118.89069999999998"><ele>2332.0</ele></trkpt><trkpt lat="37.24577" lon="-118.89084000000003"><ele>2332.0</ele></trkpt><trkpt lat="37.24593" lon="-118.89107999999999"><ele>2333.7807734124362</ele></trkpt><trkpt lat="37.24594" lon="-118.89138000000003"><ele>2332.0</ele></trkpt><trkpt lat="37.24589" lon="-118.89174000000003"><ele>2331.0</ele></trkpt><trkpt lat="37.24589" lon="-118.89174000000003"><ele>2331.0</ele></trkpt><trkpt lat="37.24589" lon="-118.89174000000003"><ele>2331.0</ele></trkpt><trkpt lat="37.24626" lon="-118.89233000000002"><ele>2331.0</ele></trkpt><trkpt lat="37.24635" lon="-118.89254"><ele>2331.0</ele></trkpt><trkpt lat="37.24648" lon="-118.89301"><ele>2331.0</ele></trkpt><trkpt lat="37.24648" lon="-118.89323999999999"><ele>2331.0</ele></trkpt><trkpt lat="37.24643" lon="-118.89346"><ele>2332.0</ele></trkpt><trkpt lat="37.24649" lon="-118.89366000000001"><ele>2333.0</ele></trkpt><trkpt lat="37.24649" lon="-118.89382"><ele>2334.0</ele></trkpt><trkpt lat="37.24642" lon="-118.89404000000002"><ele>2334.1689806369563</ele></trkpt><trkpt lat="37.24642" lon="-118.89404000000002"><ele>2334.1689806369563</ele></trkpt><trkpt lat="37.24635" lon="-118.89420999999999"><ele>2334.3691739067435</ele></trkpt><trkpt lat="37.24631" lon="-118.89465000000001"><ele>2334.0</ele></trkpt><trkpt lat="37.24632" lon="-118.89495"><ele>2331.5276603625457</ele></trkpt><trkpt lat="37.24637" lon="-118.89528000000001"><ele>2329.0</ele></trkpt><trkpt lat="37.24647" lon="-118.89548000000002"><ele>2328.0</ele></trkpt><trkpt lat="37.24652" lon="-118.89570000000003"><ele>2327.5093888302113</ele></trkpt><trkpt lat="37.24654" lon="-118.89591000000001"><ele>2328.0</ele></trkpt><trkpt lat="37.24651" lon="-118.89609999999999"><ele>2327.0</ele></trkpt><trkpt lat="37.24652" lon="-118.89647000000002"><ele>2327.0</ele></trkpt><trkpt lat="37.24657" lon="-118.89660000000003"><ele>2327.0</ele></trkpt><trkpt lat="37.24669" lon="-118.89677"><ele>2329.2741699200124</ele></trkpt><trkpt lat="37.24671" lon="-118.89692000000002"><ele>2330.0</ele></trkpt><trkpt lat="37.24685" lon="-118.89720999999997"><ele>2332.0</ele></trkpt><trkpt lat="37.24685" lon="-118.89801999999997"><ele>2335.0</ele></trkpt><trkpt lat="37.24688" lon="-118.89812"><ele>2335.0</ele></trkpt><trkpt lat="37.24683" lon="-118.89828999999997"><ele>2333.0</ele></trkpt><trkpt lat="37.24652" lon="-118.89873"><ele>2327.700376928816</ele></trkpt><trkpt lat="37.24645" lon="-118.89909999999998"><ele>2326.0</ele></trkpt><trkpt lat="37.24638537539288" lon="-118.8992831030535"><ele>2326.0</ele></trkpt><trkpt lat="37.24638" lon="-118.89927999999998"><ele>2326.0</ele></trkpt><trkpt lat="37.24651" lon="-118.89972999999998"><ele>2326.0</ele></trkpt><trkpt lat="37.24663" lon="-118.90004999999996"><ele>2327.0</ele></trkpt><trkpt lat="37.24664" lon="-118.90035999999998"><ele>2327.0</ele></trkpt><trkpt lat="37.24652" lon="-118.90079000000003"><ele>2327.0</ele></trkpt><trkpt lat="37.24634" lon="-118.90118999999999"><ele>2327.0</ele></trkpt><trkpt lat="37.2463" lon="-118.90139999999997"><ele>2328.0</ele></trkpt><trkpt lat="37.24633" lon="-118.90195"><ele>2329.0</ele></trkpt><trkpt lat="37.24627" lon="-118.90229"><ele>2329.575619136468</ele></trkpt><trkpt lat="37.24616" lon="-118.90258"><ele>2330.0</ele></trkpt><trkpt lat="37.24587" lon="-118.9031"><ele>2330.0</ele></trkpt><trkpt lat="37.24564" lon="-118.90377000000001"><ele>2331.6525676209408</ele></trkpt><trkpt lat="37.24564" lon="-118.90418"><ele>2333.738813610091</ele></trkpt><trkpt lat="37.2456" lon="-118.90442999999999"><ele>2335.0</ele></trkpt><trkpt lat="37.24587" lon="-118.90483"><ele>2338.0</ele></trkpt><trkpt lat="37.24588" lon="-118.90512999999999"><ele>2340.0</ele></trkpt><trkpt lat="37.24595" lon="-118.90541000000002"><ele>2342.0</ele></trkpt><trkpt lat="37.24612" lon="-118.90575999999999"><ele>2346.0</ele></trkpt><trkpt lat="37.24612" lon="-118.90575999999999"><ele>2346.0</ele></trkpt><trkpt lat="37.24689" lon="-118.90670999999998"><ele>2358.9859777931056</ele></trkpt><trkpt lat="37.24696" lon="-118.90706"><ele>2361.1376248891465</ele></trkpt><trkpt lat="37.24719" lon="-118.90748000000002"><ele>2365.0</ele></trkpt><trkpt lat="37.24782" lon="-118.90778"><ele>2372.0</ele></trkpt><trkpt lat="37.24782" lon="-118.90778"><ele>2372.0</ele></trkpt><trkpt lat="37.2479" lon="-118.90782000000002"><ele>2372.0</ele></trkpt><trkpt lat="37.2482" lon="-118.90787999999998"><ele>2376.3523946655914</ele></trkpt><trkpt lat="37.24844" lon="-118.90789000000001"><ele>2380.727776054293</ele></trkpt><trkpt lat="37.24882" lon="-118.90800000000002"><ele>2386.0</ele></trkpt><trkpt lat="37.24932" lon="-118.9083"><ele>2394.2297894588064</ele></trkpt><trkpt lat="37.24938" lon="-118.90852000000001"><ele>2399.0</ele></trkpt><trkpt lat="37.24952" lon="-118.90875"><ele>2402.9574746061116</ele></trkpt><trkpt lat="37.24951" lon="-118.90913999999998"><ele>2401.0</ele></trkpt><trkpt lat="37.24945" lon="-118.90930000000003"><ele>2398.4708088873886</ele></trkpt><trkpt lat="37.24929" lon="-118.90944999999999"><ele>2397.0</ele></trkpt><trkpt lat="37.24928" lon="-118.90963999999997"><ele>2396.906352162361</ele></trkpt><trkpt lat="37.24929467092322" lon="-118.90979221082841"><ele>2396.7652797903866</ele></trkpt><trkpt lat="37.24929863981495" lon="-118.90983338800135"><ele>2397.0</ele></trkpt><trkpt lat="37.24936" lon="-118.91047000000003"><ele>2398.032537451063</ele></trkpt><trkpt lat="37.24966" lon="-118.91086000000001"><ele>2400.0</ele></trkpt><trkpt lat="37.25001" lon="-118.91104999999999"><ele>2402.0</ele></trkpt><trkpt lat="37.25028" lon="-118.91110000000003"><ele>2403.0</ele></trkpt><trkpt lat="37.25055" lon="-118.91104999999999"><ele>2405.9370853429346</ele></trkpt><trkpt lat="37.25067" lon="-118.91116"><ele>2406.0</ele></trkpt><trkpt lat="37.25073" lon="-118.91155000000003"><ele>2404.0</ele></trkpt><trkpt lat="37.25096" lon="-118.91183999999998"><ele>2404.0</ele></trkpt><trkpt lat="37.25106" lon="-118.91209000000003"><ele>2403.0</ele></trkpt><trkpt lat="37.25108" lon="-118.91228000000001"><ele>2402.0</ele></trkpt><trkpt lat="37.25089" lon="-118.91289999999998"><ele>2396.748920930366</ele></trkpt><trkpt lat="37.25083" lon="-118.91316"><ele>2396.0</ele></trkpt><trkpt lat="37.25069" lon="-118.91338999999999"><ele>2396.0</ele></trkpt><trkpt lat="37.25032" lon="-118.91372000000001"><ele>2392.0</ele></trkpt><trkpt lat="37.2501" lon="-118.91413"><ele>2388.914538614452</ele></trkpt><trkpt lat="37.24963" lon="-118.91466000000003"><ele>2384.0</ele></trkpt><trkpt lat="37.24954" lon="-118.91498000000001"><ele>2383.0</ele></trkpt><trkpt lat="37.24932" lon="-118.91534999999999"><ele>2381.119044680101</ele></trkpt><trkpt lat="37.24932" lon="-118.91534999999999"><ele>2381.119044680101</ele></trkpt><trkpt lat="37.24932" lon="-118.91534999999999"><ele>2381.119044680101</ele></trkpt><trkpt lat="37.24919" lon="-118.91552999999999"><ele>2380.0</ele></trkpt><trkpt lat="37.24917" lon="-118.91566999999998"><ele>2380.0</ele></trkpt><trkpt lat="37.2494" lon="-118.91602"><ele>2380.0</ele></trkpt><trkpt lat="37.2494" lon="-118.91602"><ele>2380.0</ele></trkpt><trkpt lat="37.24947" lon="-118.91613999999998"><ele>2380.0</ele></trkpt><trkpt lat="37.24947" lon="-118.91691000000003"><ele>2377.0</ele></trkpt><trkpt lat="37.24958" lon="-118.91769999999997"><ele>2377.0</ele></trkpt><trkpt lat="37.24952" lon="-118.91787999999997"><ele>2376.0</ele></trkpt><trkpt lat="37.24927" lon="-118.91814"><ele>2374.0</ele></trkpt><trkpt lat="37.24925" lon="-118.91827999999998"><ele>2373.145837434953</ele></trkpt><trkpt lat="37.24931" lon="-118.91844000000003"><ele>2373.4840640020557</ele></trkpt><trkpt lat="37.24943" lon="-118.91861"><ele>2375.0</ele></trkpt><trkpt lat="37.24942" lon="-118.91892000000001"><ele>2375.897165182978</ele></trkpt><trkpt lat="37.24932" lon="-118.91913999999997"><ele>2374.221786959677</ele></trkpt><trkpt lat="37.24931" lon="-118.91934000000003"><ele>2372.0</ele></trkpt><trkpt lat="37.24905" lon="-118.91973000000002"><ele>2371.0</ele></trkpt><trkpt lat="37.24902" lon="-118.91982000000002"><ele>2371.0</ele></trkpt><trkpt lat="37.24901" lon="-118.92023"><ele>2370.0</ele></trkpt><trkpt lat="37.24892" lon="-118.92039"><ele>2370.0</ele></trkpt><trkpt lat="37.24882" lon="-118.92048"><ele>2369.0</ele></trkpt><trkpt lat="37.24856" lon="-118.92057"><ele>2368.0</ele></trkpt><trkpt lat="37.24847" lon="-118.92070000000001"><ele>2368.0</ele></trkpt><trkpt lat="37.24842" lon="-118.92090000000002"><ele>2368.071486521734</ele></trkpt><trkpt lat="37.24823" lon="-118.92108999999999"><ele>2368.4258595314445</ele></trkpt><trkpt lat="37.24819" lon="-118.92122999999998"><ele>2369.0</ele></trkpt><trkpt lat="37.24823" lon="-118.92138999999997"><ele>2369.0</ele></trkpt><trkpt lat="37.248224486231734" lon="-118.9214495486973"><ele>2369.0</ele></trkpt><trkpt lat="37.24823" lon="-118.92145"><ele>2369.0</ele></trkpt><trkpt lat="37.24832" lon="-118.92155000000002"><ele>2369.0</ele></trkpt><trkpt lat="37.24851" lon="-118.92189000000002"><ele>2371.0</ele></trkpt><trkpt lat="37.24852" lon="-118.92212"><ele>2373.405046865147</ele></trkpt><trkpt lat="37.24849" lon="-118.92239000000001"><ele>2378.0</ele></trkpt><trkpt lat="37.24852" lon="-118.92250999999999"><ele>2379.065750684814</ele></trkpt><trkpt lat="37.24864" lon="-118.92268000000001"><ele>2383.082385778893</ele></trkpt><trkpt lat="37.24885" lon="-118.92277999999999"><ele>2385.0</ele></trkpt><trkpt lat="37.24889069129865" lon="-118.92300787127243"><ele>2385.0</ele></trkpt><trkpt lat="37.2488962684416" lon="-118.9230391032666"><ele>2385.0</ele></trkpt><trkpt lat="37.2489" lon="-118.92306000000002"><ele>2384.208330665715</ele></trkpt><trkpt lat="37.24884" lon="-118.92331000000001"><ele>2381.0</ele></trkpt><trkpt lat="37.24877" lon="-118.92340999999999"><ele>2380.0</ele></trkpt><trkpt lat="37.24863" lon="-118.92349999999999"><ele>2378.851453622803</ele></trkpt><trkpt lat="37.24857" lon="-118.92363"><ele>2377.0</ele></trkpt><trkpt lat="37.24856" lon="-118.92380000000003"><ele>2376.75325336121</ele></trkpt><trkpt lat="37.24859" lon="-118.92407000000003"><ele>2377.0</ele></trkpt><trkpt lat="37.24841" lon="-118.92466999999999"><ele>2370.0</ele></trkpt><trkpt lat="37.24835" lon="-118.92471999999998"><ele>2369.07030413622</ele></trkpt><trkpt lat="37.24822" lon="-118.92476999999997"><ele>2368.0</ele></trkpt><trkpt lat="37.24815" lon="-118.92484999999999"><ele>2368.0</ele></trkpt><trkpt lat="37.24815" lon="-118.92484999999999"><ele>2368.0</ele></trkpt><trkpt lat="37.24809" lon="-118.92507"><ele>2369.0</ele></trkpt><trkpt lat="37.24804" lon="-118.92543999999998"><ele>2372.0</ele></trkpt><trkpt lat="37.24796" lon="-118.92578000000003"><ele>2373.0</ele></trkpt><trkpt lat="37.24796" lon="-118.92578000000003"><ele>2373.0</ele></trkpt><trkpt lat="37.24796" lon="-118.92578000000003"><ele>2373.0</ele></trkpt><trkpt lat="37.24782" lon="-118.92611"><ele>2373.0</ele></trkpt><trkpt lat="37.24782" lon="-118.92611"><ele>2373.0</ele></trkpt><trkpt lat="37.24769" lon="-118.92624999999998"><ele>2373.0</ele></trkpt><trkpt lat="37.24761" lon="-118.92642000000001"><ele>2373.0</ele></trkpt><trkpt lat="37.2475" lon="-118.92647999999997"><ele>2372.0</ele></trkpt><trkpt lat="37.2474" lon="-118.92662999999999"><ele>2372.0</ele></trkpt><trkpt lat="37.24725" lon="-118.92701"><ele>2372.0</ele></trkpt><trkpt lat="37.24723" lon="-118.92713000000003"><ele>2372.0</ele></trkpt><trkpt lat="37.247" lon="-118.92746999999997"><ele>2374.0</ele></trkpt><trkpt lat="37.24697" lon="-118.92758000000003"><ele>2373.707410369708</ele></trkpt><trkpt lat="37.24698" lon="-118.92777000000001"><ele>2373.0</ele></trkpt><trkpt lat="37.24695" lon="-118.92791999999997"><ele>2372.0</ele></trkpt><trkpt lat="37.24687" lon="-118.92808000000002"><ele>2371.0</ele></trkpt><trkpt lat="37.24687" lon="-118.92817000000002"><ele>2371.0</ele></trkpt><trkpt lat="37.24692" lon="-118.92831000000001"><ele>2371.7393652051687</ele></trkpt><trkpt lat="37.24689" lon="-118.92844000000002"><ele>2371.0</ele></trkpt><trkpt lat="37.24677" lon="-118.92865999999998"><ele>2370.0</ele></trkpt><trkpt lat="37.24666" lon="-118.92899999999997"><ele>2370.5178431291133</ele></trkpt><trkpt lat="37.24659" lon="-118.92912999999999"><ele>2369.0</ele></trkpt><trkpt lat="37.24646" lon="-118.92928"><ele>2366.0</ele></trkpt><trkpt lat="37.24643" lon="-118.92942"><ele>2365.0427270679443</ele></trkpt><trkpt lat="37.24641" lon="-118.92973999999998"><ele>2362.0</ele></trkpt><trkpt lat="37.24643" lon="-118.92987"><ele>2362.0</ele></trkpt><trkpt lat="37.24641" lon="-118.93002000000001"><ele>2361.748502311102</ele></trkpt><trkpt lat="37.24646" lon="-118.93009"><ele>2361.809015730396</ele></trkpt><trkpt lat="37.24653" lon="-118.93014"><ele>2362.9071017876267</ele></trkpt><trkpt lat="37.24683" lon="-118.93016999999998"><ele>2363.0</ele></trkpt><trkpt lat="37.24687" lon="-118.93025"><ele>2362.0</ele></trkpt><trkpt lat="37.24687" lon="-118.93033000000003"><ele>2361.1878546569496</ele></trkpt><trkpt lat="37.24692" lon="-118.93038999999999"><ele>2360.0</ele></trkpt><trkpt lat="37.24699" lon="-118.93040000000002"><ele>2358.162523722276</ele></trkpt><trkpt lat="37.247" lon="-118.93047999999999"><ele>2357.41126755625</ele></trkpt><trkpt lat="37.24697" lon="-118.9307"><ele>2354.0528541086715</ele></trkpt><trkpt lat="37.24701" lon="-118.93088"><ele>2353.008365854621</ele></trkpt><trkpt lat="37.24701" lon="-118.93099000000001"><ele>2352.008365854621</ele></trkpt><trkpt lat="37.24688" lon="-118.93129999999996"><ele>2351.319463774571</ele></trkpt><trkpt lat="37.24686" lon="-118.93210999999997"><ele>2351.0</ele></trkpt><trkpt lat="37.24693" lon="-118.93227999999999"><ele>2350.0</ele></trkpt><trkpt lat="37.24701" lon="-118.93236999999999"><ele>2348.9944022691016</ele></trkpt><trkpt lat="37.24707" lon="-118.93237999999997"><ele>2348.0</ele></trkpt><trkpt lat="37.24711" lon="-118.93245000000002"><ele>2346.945485860134</ele></trkpt><trkpt lat="37.24711" lon="-118.93254000000002"><ele>2345.0</ele></trkpt><trkpt lat="37.24718" lon="-118.93261999999999"><ele>2343.680039111525</ele></trkpt><trkpt lat="37.24718" lon="-118.93268"><ele>2341.9954626283125</ele></trkpt><trkpt lat="37.24681" lon="-118.93293"><ele>2336.0</ele></trkpt><trkpt lat="37.24681" lon="-118.93299999999999"><ele>2335.0</ele></trkpt><trkpt lat="37.2469" lon="-118.93318"><ele>2334.431522972882</ele></trkpt><trkpt lat="37.24693" lon="-118.93327"><ele>2333.801165825579</ele></trkpt><trkpt lat="37.24692" lon="-118.9334"><ele>2331.504184978785</ele></trkpt><trkpt lat="37.24685" lon="-118.93360999999999"><ele>2331.0</ele></trkpt><trkpt lat="37.24682" lon="-118.93392"><ele>2331.0</ele></trkpt><trkpt lat="37.24672" lon="-118.93407000000002"><ele>2329.0</ele></trkpt><trkpt lat="37.24656" lon="-118.93419"><ele>2326.8359993853546</ele></trkpt><trkpt lat="37.2466" lon="-118.93429000000003"><ele>2326.0</ele></trkpt><trkpt lat="37.24672" lon="-118.93446"><ele>2326.0</ele></trkpt><trkpt lat="37.24674" lon="-118.93470000000002"><ele>2326.0</ele></trkpt><trkpt lat="37.24661" lon="-118.93509"><ele>2326.0</ele></trkpt><trkpt lat="37.24647" lon="-118.93540999999999"><ele>2324.1354503539997</ele></trkpt><trkpt lat="37.24629" lon="-118.93552999999997"><ele>2322.8015388334466</ele></trkpt><trkpt lat="37.24627" lon="-118.93583000000001"><ele>2321.0</ele></trkpt><trkpt lat="37.24611" lon="-118.93603000000002"><ele>2320.0</ele></trkpt><trkpt lat="37.24597" lon="-118.93637999999999"><ele>2319.0</ele></trkpt><trkpt lat="37.24591" lon="-118.93648000000002"><ele>2317.1274686873267</ele></trkpt><trkpt lat="37.24585" lon="-118.93653"><ele>2316.0972840916365</ele></trkpt><trkpt lat="37.24555" lon="-118.93705"><ele>2312.0</ele></trkpt><trkpt lat="37.24553" lon="-118.93716999999998"><ele>2313.0</ele></trkpt><trkpt lat="37.24566" lon="-118.93740000000003"><ele>2314.0</ele></trkpt><trkpt lat="37.2457" lon="-118.93786"><ele>2314.164716904463</ele></trkpt><trkpt lat="37.2457" lon="-118.93786"><ele>2314.164716904463</ele></trkpt><trkpt lat="37.24586" lon="-118.93799000000001"><ele>2317.0</ele></trkpt><trkpt lat="37.24586" lon="-118.93799000000001"><ele>2317.0</ele></trkpt><trkpt lat="37.24608" lon="-118.93817000000001"><ele>2319.986304213672</ele></trkpt><trkpt lat="37.2463" lon="-118.93860999999998"><ele>2315.0</ele></trkpt><trkpt lat="37.2463" lon="-118.93894"><ele>2312.0</ele></trkpt><trkpt lat="37.24638" lon="-118.93905000000001"><ele>2310.1432634447856</ele></trkpt><trkpt lat="37.24642" lon="-118.93920000000003"><ele>2309.0298133320175</ele></trkpt><trkpt lat="37.24663" lon="-118.93950999999998"><ele>2308.0</ele></trkpt><trkpt lat="37.2467" lon="-118.93956000000003"><ele>2307.0</ele></trkpt><trkpt lat="37.24679" lon="-118.93950000000001"><ele>2306.0</ele></trkpt><trkpt lat="37.24719" lon="-118.93899999999996"><ele>2295.0</ele></trkpt><trkpt lat="37.24753" lon="-118.93883"><ele>2286.6717124494235</ele></trkpt><trkpt lat="37.24773" lon="-118.93883"><ele>2283.8832556965863</ele></trkpt><trkpt lat="37.24782" lon="-118.93887000000001"><ele>2282.0</ele></trkpt><trkpt lat="37.24782" lon="-118.93887000000001"><ele>2282.0</ele></trkpt><trkpt lat="37.24802" lon="-118.93891000000002"><ele>2280.0</ele></trkpt><trkpt lat="37.24811" lon="-118.93889000000001"><ele>2279.0</ele></trkpt><trkpt lat="37.24819" lon="-118.93880000000001"><ele>2278.0</ele></trkpt><trkpt lat="37.24854" lon="-118.93858999999998"><ele>2277.0</ele></trkpt><trkpt lat="37.24888" lon="-118.93880000000001"><ele>2270.0</ele></trkpt><trkpt lat="37.24916" lon="-118.93894"><ele>2268.0</ele></trkpt><trkpt lat="37.24945" lon="-118.93920000000003"><ele>2261.0</ele></trkpt><trkpt lat="37.24967" lon="-118.93932000000001"><ele>2260.0</ele></trkpt><trkpt lat="37.24994" lon="-118.93962999999997"><ele>2257.0</ele></trkpt><trkpt lat="37.24996" lon="-118.93977999999998"><ele>2255.0</ele></trkpt><trkpt lat="37.24987" lon="-118.93988999999999"><ele>2253.0</ele></trkpt><trkpt lat="37.24982" lon="-118.94006999999999"><ele>2249.232041330889</ele></trkpt><trkpt lat="37.2499" lon="-118.94038999999998"><ele>2245.0</ele></trkpt><trkpt lat="37.24987" lon="-118.94056999999998"><ele>2242.0</ele></trkpt><trkpt lat="37.2498" lon="-118.94067999999999"><ele>2240.6694064484886</ele></trkpt><trkpt lat="37.24978" lon="-118.94087000000002"><ele>2239.0</ele></trkpt><trkpt lat="37.24982" lon="-118.94100000000003"><ele>2237.0749483944483</ele></trkpt><trkpt lat="37.24982" lon="-118.94100000000003"><ele>2237.0749483944483</ele></trkpt><trkpt lat="37.24982" lon="-118.94100000000003"><ele>2237.0749483944483</ele></trkpt><trkpt lat="37.25" lon="-118.94121999999999"><ele>2235.993475355076</ele></trkpt><trkpt lat="37.25014493104272" lon="-118.94124173965639"><ele>2236.0</ele></trkpt></trkseg></trk></gpx>