<?xml version="1.0"?>
<gpx xmlns="http://www.topografix.com/GPX/1/1" xmlns:gpxx="http://www.garmin.com/xmlschemas/GpxExtensions/v3" creator="CALTOPO" version="1.1"><metadata><name><![CDATA[Sonora Pass-Latopie Lake]]></name></metadata><wpt lat="38.32939046758315" lon="-119.63522182279931"><name>Sonora Pass Trailhead</name></wpt><trk><name>Sonora Pass-Latopie</name><trkseg><trkpt lat="38.32939015893918" lon="-119.63521299209594"><ele>2931.0</ele></trkpt><trkpt lat="38.32954165263114" lon="-119.63531491603851"><ele>2931.0</ele></trkpt><trkpt lat="38.32954103658185" lon="-119.63531680045696"><ele>2931.0</ele></trkpt><trkpt lat="38.32966" lon="-119.63538"><ele>2930.926998634507</ele></trkpt><trkpt lat="38.32966" lon="-119.63538"><ele>2930.926998634507</ele></trkpt><trkpt lat="38.32977" lon="-119.63551000000001"><ele>2929.63183288835</ele></trkpt><trkpt lat="38.32993" lon="-119.63584000000003"><ele>2926.049368607708</ele></trkpt><trkpt lat="38.32993" lon="-119.63584000000003"><ele>2926.049368607708</ele></trkpt><trkpt lat="38.32975" lon="-119.63590999999997"><ele>2924.1100225556766</ele></trkpt><trkpt lat="38.32966" lon="-119.63603"><ele>2924.3042517850445</ele></trkpt><trkpt lat="38.32953" lon="-119.63603999999998"><ele>2922.103555333236</ele></trkpt><trkpt lat="38.3295257063716" lon="-119.63612157893965"><ele>2923.1860357587484</ele></trkpt><trkpt lat="38.32952558270295" lon="-119.63612392864724"><ele>2923.216651600281</ele></trkpt><trkpt lat="38.32952" lon="-119.63623000000001"><ele>2923.9653930804216</ele></trkpt><trkpt lat="38.32944" lon="-119.63632000000001"><ele>2924.0</ele></trkpt><trkpt lat="38.32937" lon="-119.63659999999999"><ele>2925.3871686255725</ele></trkpt><trkpt lat="38.32902" lon="-119.63695000000001"><ele>2929.257014106959</ele></trkpt><trkpt lat="38.3289" lon="-119.63715000000002"><ele>2932.0</ele></trkpt><trkpt lat="38.32875" lon="-119.63716"><ele>2932.5174746029666</ele></trkpt><trkpt lat="38.32855" lon="-119.63709"><ele>2932.0</ele></trkpt><trkpt lat="38.32822" lon="-119.63713000000001"><ele>2935.0</ele></trkpt><trkpt lat="38.32806" lon="-119.63711"><ele>2935.0</ele></trkpt><trkpt lat="38.32806" lon="-119.63711"><ele>2935.0</ele></trkpt><trkpt lat="38.32806" lon="-119.63711"><ele>2935.0</ele></trkpt><trkpt lat="38.32804" lon="-119.63722999999999"><ele>2934.0</ele></trkpt><trkpt lat="38.32804" lon="-119.63722999999999"><ele>2934.0</ele></trkpt><trkpt lat="38.32792" lon="-119.63733000000002"><ele>2936.1863146680407</ele></trkpt><trkpt lat="38.32789" lon="-119.63740000000001"><ele>2938.173852026373</ele></trkpt><trkpt lat="38.32789" lon="-119.63740000000001"><ele>2938.173852026373</ele></trkpt><trkpt lat="38.32789" lon="-119.63740000000001"><ele>2938.173852026373</ele></trkpt><trkpt lat="38.32792" lon="-119.63751000000002"><ele>2940.5749226678163</ele></trkpt><trkpt lat="38.32804" lon="-119.63761"><ele>2943.0</ele></trkpt><trkpt lat="38.32814" lon="-119.63773000000003"><ele>2945.8276657797396</ele></trkpt><trkpt lat="38.32821" lon="-119.63774999999998"><ele>2946.0</ele></trkpt><trkpt lat="38.32825" lon="-119.63782000000003"><ele>2947.0</ele></trkpt><trkpt lat="38.32826" lon="-119.63791000000003"><ele>2947.0</ele></trkpt><trkpt lat="38.32824" lon="-119.63797999999997"><ele>2947.0</ele></trkpt><trkpt lat="38.32817" lon="-119.63806"><ele>2947.5977380197796</ele></trkpt><trkpt lat="38.32809" lon="-119.63810000000001"><ele>2948.470251344207</ele></trkpt><trkpt lat="38.32787" lon="-119.63814000000002"><ele>2952.603284230932</ele></trkpt><trkpt lat="38.32777" lon="-119.63810000000001"><ele>2955.0</ele></trkpt><trkpt lat="38.32763" lon="-119.63812000000001"><ele>2957.0</ele></trkpt><trkpt lat="38.32756" lon="-119.63824999999997"><ele>2958.9918915312737</ele></trkpt><trkpt lat="38.32753" lon="-119.63845000000003"><ele>2961.8604138628334</ele></trkpt><trkpt lat="38.32755" lon="-119.63868000000002"><ele>2966.1008746675216</ele></trkpt><trkpt lat="38.32766" lon="-119.6388"><ele>2968.035497488615</ele></trkpt><trkpt lat="38.3276633334753" lon="-119.63886000255536"><ele>2969.0</ele></trkpt><trkpt lat="38.32766369172938" lon="-119.63886645112552"><ele>2969.0</ele></trkpt><trkpt lat="38.32767" lon="-119.63898"><ele>2970.0</ele></trkpt><trkpt lat="38.32748" lon="-119.63934999999998"><ele>2975.0</ele></trkpt><trkpt lat="38.32735" lon="-119.6395"><ele>2979.319807812426</ele></trkpt><trkpt lat="38.32719" lon="-119.63959999999997"><ele>2982.0</ele></trkpt><trkpt lat="38.32703" lon="-119.63965999999999"><ele>2985.108760740963</ele></trkpt><trkpt lat="38.32671" lon="-119.63968"><ele>2991.144153146433</ele></trkpt><trkpt lat="38.32648" lon="-119.63994000000002"><ele>2995.3027069962673</ele></trkpt><trkpt lat="38.32586" lon="-119.63992000000002"><ele>3006.0</ele></trkpt><trkpt lat="38.32575918314181" lon="-119.63988353432791"><ele>3007.971422947943</ele></trkpt><trkpt lat="38.32575918314181" lon="-119.63988353432791"><ele>3007.971422947943</ele></trkpt><trkpt lat="38.32539" lon="-119.63974999999999"><ele>3011.0</ele></trkpt><trkpt lat="38.32523" lon="-119.63972000000001"><ele>3008.3366947880095</ele></trkpt><trkpt lat="38.32519" lon="-119.63932"><ele>3001.9270364446566</ele></trkpt><trkpt lat="38.32513" lon="-119.63925"><ele>3000.664800000377</ele></trkpt><trkpt lat="38.32504" lon="-119.63922000000002"><ele>2999.0814615347836</ele></trkpt><trkpt lat="38.32491" lon="-119.63931000000002"><ele>2996.0</ele></trkpt><trkpt lat="38.32476" lon="-119.63914999999997"><ele>2994.0044622211717</ele></trkpt><trkpt lat="38.32464" lon="-119.63936000000001"><ele>2995.904689666848</ele></trkpt><trkpt lat="38.32459" lon="-119.63934999999998"><ele>2993.6130521199498</ele></trkpt><trkpt lat="38.32442" lon="-119.63902000000002"><ele>2997.5253660138696</ele></trkpt><trkpt lat="38.32442" lon="-119.63902000000002"><ele>2997.5253660138696</ele></trkpt><trkpt lat="38.32431" lon="-119.63891999999998"><ele>2999.0170930336308</ele></trkpt><trkpt lat="38.32427" lon="-119.63873000000001"><ele>2999.4359985515475</ele></trkpt><trkpt lat="38.32404" lon="-119.63833"><ele>2997.8104987249467</ele></trkpt><trkpt lat="38.32399" lon="-119.63797"><ele>2996.0</ele></trkpt><trkpt lat="38.32385" lon="-119.63781"><ele>2995.0</ele></trkpt><trkpt lat="38.32387" lon="-119.63755000000003"><ele>2994.0</ele></trkpt><trkpt lat="38.32384" lon="-119.63747000000001"><ele>2994.0</ele></trkpt><trkpt lat="38.3236" lon="-119.63751000000002"><ele>2994.5749226678163</ele></trkpt><trkpt lat="38.32348" lon="-119.63758999999999"><ele>2994.9381672530435</ele></trkpt><trkpt lat="38.3234" lon="-119.63767000000001"><ele>2995.886387079887</ele></trkpt><trkpt lat="38.32334" lon="-119.63788"><ele>2996.8760829331163</ele></trkpt><trkpt lat="38.32325" lon="-119.63797999999997"><ele>2996.972189189866</ele></trkpt><trkpt lat="38.32312" lon="-119.63837000000001"><ele>2999.163302960214</ele></trkpt><trkpt lat="38.32302" lon="-119.63837999999998"><ele>2999.3922179237047</ele></trkpt><trkpt lat="38.32291" lon="-119.63845000000003"><ele>2999.296167009688</ele></trkpt><trkpt lat="38.32281" lon="-119.63846999999998"><ele>3000.0</ele></trkpt><trkpt lat="38.32277" lon="-119.63845000000003"><ele>3000.2068332713256</ele></trkpt><trkpt lat="38.32275" lon="-119.63837000000001"><ele>2999.747512842237</ele></trkpt><trkpt lat="38.32279" lon="-119.63828000000001"><ele>2999.1909239032398</ele></trkpt><trkpt lat="38.32279" lon="-119.63824"><ele>2999.3532511088997</ele></trkpt><trkpt lat="38.32275" lon="-119.63821000000002"><ele>3000.1438949370813</ele></trkpt><trkpt lat="38.32244" lon="-119.63828999999998"><ele>3007.925557332579</ele></trkpt><trkpt lat="38.32239" lon="-119.63824"><ele>3007.0</ele></trkpt><trkpt lat="38.3224" lon="-119.63797999999997"><ele>3007.7704760653246</ele></trkpt><trkpt lat="38.3223" lon="-119.63776999999999"><ele>3009.460594607517</ele></trkpt><trkpt lat="38.32222" lon="-119.63769000000002"><ele>3011.2050347673535</ele></trkpt><trkpt lat="38.322" lon="-119.63761999999997"><ele>3016.4866203678757</ele></trkpt><trkpt lat="38.32199" lon="-119.63755000000003"><ele>3015.0</ele></trkpt><trkpt lat="38.32203" lon="-119.63747999999998"><ele>3015.823178667575</ele></trkpt><trkpt lat="38.32219" lon="-119.63734999999997"><ele>3017.881617778912</ele></trkpt><trkpt lat="38.32231" lon="-119.63719000000003"><ele>3019.911689892655</ele></trkpt><trkpt lat="38.32236" lon="-119.63698999999997"><ele>3021.590605393322</ele></trkpt><trkpt lat="38.3224" lon="-119.63675"><ele>3024.3639808450826</ele></trkpt><trkpt lat="38.32253" lon="-119.63629000000003"><ele>3028.2243929423485</ele></trkpt><trkpt lat="38.32253" lon="-119.63542999999999"><ele>3038.8707334605024</ele></trkpt><trkpt lat="38.32268" lon="-119.63522"><ele>3043.1468124436215</ele></trkpt><trkpt lat="38.32266" lon="-119.63511"><ele>3045.3281507113356</ele></trkpt><trkpt lat="38.32253" lon="-119.63508000000002"><ele>3047.2623105199496</ele></trkpt><trkpt lat="38.32248" lon="-119.63512000000003"><ele>3048.0</ele></trkpt><trkpt lat="38.32237" lon="-119.63508999999999"><ele>3051.2403436318546</ele></trkpt><trkpt lat="38.32223" lon="-119.63522999999998"><ele>3055.2995491418988</ele></trkpt><trkpt lat="38.32219" lon="-119.63531"><ele>3055.994869166985</ele></trkpt><trkpt lat="38.32221" lon="-119.63544000000002"><ele>3056.8068199846894</ele></trkpt><trkpt lat="38.32216" lon="-119.63563999999997"><ele>3058.8721001171543</ele></trkpt><trkpt lat="38.32216" lon="-119.63581999999997"><ele>3060.6333744327753</ele></trkpt><trkpt lat="38.32206" lon="-119.63605999999999"><ele>3064.717155976221</ele></trkpt><trkpt lat="38.32195" lon="-119.63620000000003"><ele>3066.607378683889</ele></trkpt><trkpt lat="38.32163" lon="-119.63632000000001"><ele>3070.8830968881957</ele></trkpt><trkpt lat="38.32124" lon="-119.63623000000001"><ele>3075.0774008883163</ele></trkpt><trkpt lat="38.32118" lon="-119.63626999999997"><ele>3075.990926656872</ele></trkpt><trkpt lat="38.3211" lon="-119.63641999999999"><ele>3076.9658130118623</ele></trkpt><trkpt lat="38.32101" lon="-119.63648"><ele>3078.426556444261</ele></trkpt><trkpt lat="38.32078" lon="-119.63648"><ele>3082.426556444261</ele></trkpt><trkpt lat="38.32065" lon="-119.63643000000002"><ele>3085.3584395469015</ele></trkpt><trkpt lat="38.32058" lon="-119.63665000000003"><ele>3087.6866392034863</ele></trkpt><trkpt lat="38.32052" lon="-119.63656000000003"><ele>3089.698286220897</ele></trkpt><trkpt lat="38.32046" lon="-119.63632999999999"><ele>3093.0</ele></trkpt><trkpt lat="38.32032" lon="-119.63607000000002"><ele>3094.49335127501</ele></trkpt><trkpt lat="38.3202" lon="-119.63596999999999"><ele>3096.0</ele></trkpt><trkpt lat="38.32011" lon="-119.63578000000001"><ele>3097.476721459205</ele></trkpt><trkpt lat="38.32005" lon="-119.63575000000003"><ele>3098.447022221051</ele></trkpt><trkpt lat="38.31998" lon="-119.63575000000003"><ele>3099.447022221051</ele></trkpt><trkpt lat="38.3199" lon="-119.63578000000001"><ele>3101.048920887988</ele></trkpt><trkpt lat="38.31986" lon="-119.63581999999997"><ele>3100.0</ele></trkpt><trkpt lat="38.3196" lon="-119.63563999999997"><ele>3104.573393779341</ele></trkpt><trkpt lat="38.31954" lon="-119.63562999999999"><ele>3105.0161056435336</ele></trkpt><trkpt lat="38.31934" lon="-119.63576999999998"><ele>3109.0</ele></trkpt><trkpt lat="38.31924" lon="-119.63594"><ele>3111.228533986956</ele></trkpt><trkpt lat="38.31918" lon="-119.63608999999997"><ele>3113.7925345357507</ele></trkpt><trkpt lat="38.31915" lon="-119.63629000000003"><ele>3115.1490674093366</ele></trkpt><trkpt lat="38.31917" lon="-119.63648"><ele>3115.3865343425423</ele></trkpt><trkpt lat="38.31914" lon="-119.63653"><ele>3116.264920819085</ele></trkpt><trkpt lat="38.31878485960568" lon="-119.63675765409891"><ele>3122.7507414896972</ele></trkpt><trkpt lat="38.31878844370524" lon="-119.63675535665897"><ele>3122.6449156478047</ele></trkpt><trkpt lat="38.31875" lon="-119.63677999999999"><ele>3124.3344521652907</ele></trkpt><trkpt lat="38.31873" lon="-119.63693"><ele>3125.522444644943</ele></trkpt><trkpt lat="38.31868" lon="-119.63702"><ele>3126.492424417287</ele></trkpt><trkpt lat="38.3184" lon="-119.63734"><ele>3131.428721038363</ele></trkpt><trkpt lat="38.31812" lon="-119.63743"><ele>3136.9094054736197</ele></trkpt><trkpt lat="38.318" lon="-119.63763"><ele>3137.7166179567575</ele></trkpt><trkpt lat="38.31762" lon="-119.63800000000003"><ele>3145.0449357982725</ele></trkpt><trkpt lat="38.31746" lon="-119.63810000000001"><ele>3147.959296135232</ele></trkpt><trkpt lat="38.31742" lon="-119.63846000000001"><ele>3151.3352384921163</ele></trkpt><trkpt lat="38.31741" lon="-119.63911000000002"><ele>3159.0596191839413</ele></trkpt><trkpt lat="38.3175" lon="-119.63932"><ele>3159.5833524614573</ele></trkpt><trkpt lat="38.31753" lon="-119.63954999999999"><ele>3159.8013938441873</ele></trkpt><trkpt lat="38.31759" lon="-119.63961"><ele>3159.5745229186505</ele></trkpt><trkpt lat="38.31778" lon="-119.64010000000002"><ele>3163.9517100527883</ele></trkpt><trkpt lat="38.31784" lon="-119.64040999999997"><ele>3167.387778321281</ele></trkpt><trkpt lat="38.31796" lon="-119.64060999999998"><ele>3168.293501674049</ele></trkpt><trkpt lat="38.31795" lon="-119.64076"><ele>3171.8591410274867</ele></trkpt><trkpt lat="38.31807" lon="-119.64111000000003"><ele>3175.0730953691527</ele></trkpt><trkpt lat="38.31807" lon="-119.64111000000003"><ele>3175.0730953691527</ele></trkpt><trkpt lat="38.31815" lon="-119.64141000000001"><ele>3176.974084066227</ele></trkpt><trkpt lat="38.31812" lon="-119.64148"><ele>3179.4463255191536</ele></trkpt><trkpt lat="38.31815" lon="-119.64181000000002"><ele>3184.9435311784036</ele></trkpt><trkpt lat="38.31832" lon="-119.64215000000002"><ele>3186.6908138603903</ele></trkpt><trkpt lat="38.31836" lon="-119.64243999999997"><ele>3189.1648687785337</ele></trkpt><trkpt lat="38.31841" lon="-119.64251000000002"><ele>3190.9056372629666</ele></trkpt><trkpt lat="38.31852" lon="-119.64258000000001"><ele>3190.8509272408833</ele></trkpt><trkpt lat="38.31866" lon="-119.64276000000001"><ele>3190.9230717536993</ele></trkpt><trkpt lat="38.31887" lon="-119.64287999999999"><ele>3192.0415517250076</ele></trkpt><trkpt lat="38.31902" lon="-119.64285000000001"><ele>3190.873920002021</ele></trkpt><trkpt lat="38.31917" lon="-119.64288999999997"><ele>3190.602190219797</ele></trkpt><trkpt lat="38.31936" lon="-119.64308"><ele>3194.155736888759</ele></trkpt><trkpt lat="38.31949" lon="-119.64303000000001"><ele>3193.825568000786</ele></trkpt><trkpt lat="38.31966" lon="-119.64303999999998"><ele>3194.0817790030355</ele></trkpt><trkpt lat="38.31973" lon="-119.64310999999998"><ele>3195.4314191346057</ele></trkpt><trkpt lat="38.31993" lon="-119.64309000000003"><ele>3194.8640863238834</ele></trkpt><trkpt lat="38.32004" lon="-119.64321999999999"><ele>3195.3884545741603</ele></trkpt><trkpt lat="38.32018" lon="-119.64332000000002"><ele>3196.3405475560576</ele></trkpt><trkpt lat="38.32026" lon="-119.64344"><ele>3197.975867957388</ele></trkpt><trkpt lat="38.32031" lon="-119.64357999999999"><ele>3199.457425776869</ele></trkpt><trkpt lat="38.32043" lon="-119.64363000000003"><ele>3198.3295083562844</ele></trkpt><trkpt lat="38.32052" lon="-119.64382999999998"><ele>3201.108270220924</ele></trkpt><trkpt lat="38.32067" lon="-119.64375999999999"><ele>3200.241667843463</ele></trkpt><trkpt lat="38.32076" lon="-119.6438"><ele>3198.9824757028823</ele></trkpt><trkpt lat="38.3208" lon="-119.64390000000003"><ele>3200.725216312869</ele></trkpt><trkpt lat="38.32107" lon="-119.64386999999999"><ele>3203.972405333072</ele></trkpt><trkpt lat="38.32117" lon="-119.64391999999998"><ele>3203.7105284437857</ele></trkpt><trkpt lat="38.32122" lon="-119.64404000000002"><ele>3205.894979556557</ele></trkpt><trkpt lat="38.3213" lon="-119.64413000000002"><ele>3206.0892835562117</ele></trkpt><trkpt lat="38.32163" lon="-119.64426000000003"><ele>3211.1477226680145</ele></trkpt><trkpt lat="38.32178" lon="-119.64436"><ele>3212.8752018944397</ele></trkpt><trkpt lat="38.32182" lon="-119.64445"><ele>3213.9737820568944</ele></trkpt><trkpt lat="38.32182" lon="-119.64445"><ele>3213.9737820568944</ele></trkpt><trkpt lat="38.32182" lon="-119.64445"><ele>3213.9737820568944</ele></trkpt><trkpt lat="38.3218" lon="-119.64453000000003"><ele>3215.118189444384</ele></trkpt><trkpt lat="38.32154" lon="-119.6445"><ele>3219.3325333334506</ele></trkpt><trkpt lat="38.32113" lon="-119.64462000000003"><ele>3223.997073118327</ele></trkpt><trkpt lat="38.32072" lon="-119.64459999999997"><ele>3230.9951208926896</ele></trkpt><trkpt lat="38.32061" lon="-119.64454"><ele>3231.196668444667</ele></trkpt><trkpt lat="38.32028" lon="-119.6447"><ele>3238.653208889067</ele></trkpt><trkpt lat="38.3201" lon="-119.64463"><ele>3240.53517441405</ele></trkpt><trkpt lat="38.31936" lon="-119.6449"><ele>3252.097898793418</ele></trkpt><trkpt lat="38.31914" lon="-119.64486999999997"><ele>3255.647277766799</ele></trkpt><trkpt lat="38.31911" lon="-119.64499"><ele>3256.0</ele></trkpt><trkpt lat="38.31911" lon="-119.64499"><ele>3256.0</ele></trkpt><trkpt lat="38.31911" lon="-119.64499"><ele>3256.0</ele></trkpt><trkpt lat="38.31905" lon="-119.64498000000003"><ele>3257.8554037191116</ele></trkpt><trkpt lat="38.31893" lon="-119.64483000000001"><ele>3259.6425050813705</ele></trkpt><trkpt lat="38.31886" lon="-119.64477999999997"><ele>3260.8765974474413</ele></trkpt><trkpt lat="38.31861" lon="-119.64472"><ele>3265.585276445374</ele></trkpt><trkpt lat="38.31843" lon="-119.64471000000003"><ele>3267.461535217706</ele></trkpt><trkpt lat="38.31825" lon="-119.64463"><ele>3271.4251383407973</ele></trkpt><trkpt lat="38.31789" lon="-119.64400999999998"><ele>3280.9147111810744</ele></trkpt><trkpt lat="38.31771" lon="-119.64386000000002"><ele>3284.5604864012944</ele></trkpt><trkpt lat="38.31747" lon="-119.64386000000002"><ele>3291.6913543204</ele></trkpt><trkpt lat="38.31712" lon="-119.64368000000002"><ele>3297.0182256088956</ele></trkpt><trkpt lat="38.31706" lon="-119.64368000000002"><ele>3298.8364243190736</ele></trkpt><trkpt lat="38.31698" lon="-119.64386000000002"><ele>3302.0</ele></trkpt><trkpt lat="38.31671" lon="-119.64368000000002"><ele>3308.5079972874373</ele></trkpt><trkpt lat="38.3165993371107" lon="-119.64374810023958"><ele>3310.0</ele></trkpt><trkpt lat="38.3165993371107" lon="-119.64374810023958"><ele>3310.0</ele></trkpt><trkpt lat="38.31658" lon="-119.64375999999999"><ele>3310.0</ele></trkpt><trkpt lat="38.31621" lon="-119.64378999999997"><ele>3309.7558648902923</ele></trkpt><trkpt lat="38.31559" lon="-119.64375999999999"><ele>3309.0</ele></trkpt><trkpt lat="38.31549323366386" lon="-119.64374583907278"><ele>3308.813913262915</ele></trkpt><trkpt lat="38.31549825435613" lon="-119.64374657374077"><ele>3308.7796752532013</ele></trkpt><trkpt lat="38.31477" lon="-119.64364"><ele>3309.746371555142</ele></trkpt><trkpt lat="38.31453" lon="-119.64368999999999"><ele>3308.4162026667036</ele></trkpt><trkpt lat="38.31421" lon="-119.64390000000003"><ele>3303.6294933315367</ele></trkpt><trkpt lat="38.31394" lon="-119.64395999999999"><ele>3303.0310038251787</ele></trkpt><trkpt lat="38.31348" lon="-119.64418"><ele>3300.580547554884</ele></trkpt><trkpt lat="38.31314" lon="-119.64420000000001"><ele>3299.6484799995087</ele></trkpt><trkpt lat="38.31191" lon="-119.64364"><ele>3298.8455977466697</ele></trkpt><trkpt lat="38.31135" lon="-119.64351999999997"><ele>3293.425197858296</ele></trkpt><trkpt lat="38.31079" lon="-119.64318000000003"><ele>3292.0</ele></trkpt><trkpt lat="38.31079" lon="-119.64318000000003"><ele>3292.0</ele></trkpt><trkpt lat="38.31079" lon="-119.64318000000003"><ele>3292.0</ele></trkpt><trkpt lat="38.31072" lon="-119.64315999999997"><ele>3292.0</ele></trkpt><trkpt lat="38.31072" lon="-119.64315999999997"><ele>3292.0</ele></trkpt><trkpt lat="38.31072" lon="-119.64315999999997"><ele>3292.0</ele></trkpt><trkpt lat="38.31063" lon="-119.64319999999998"><ele>3291.0</ele></trkpt><trkpt lat="38.31026" lon="-119.64351999999997"><ele>3289.2059108783033</ele></trkpt><trkpt lat="38.31012" lon="-119.64360999999997"><ele>3288.144472890068</ele></trkpt><trkpt lat="38.30997" lon="-119.64355"><ele>3289.9406755552627</ele></trkpt><trkpt lat="38.3096" lon="-119.64364999999998"><ele>3289.2261753368443</ele></trkpt><trkpt lat="38.30933" lon="-119.64377999999999"><ele>3289.0</ele></trkpt><trkpt lat="38.30802" lon="-119.64456999999999"><ele>3286.789065294871</ele></trkpt><trkpt lat="38.30718" lon="-119.64495"><ele>3286.8581196926525</ele></trkpt><trkpt lat="38.30718" lon="-119.64495"><ele>3286.8581196926525</ele></trkpt><trkpt lat="38.3065" lon="-119.64535000000001"><ele>3286.9229371341717</ele></trkpt><trkpt lat="38.30622" lon="-119.64544999999998"><ele>3287.3942577787675</ele></trkpt><trkpt lat="38.30593" lon="-119.64549"><ele>3288.0</ele></trkpt><trkpt lat="38.30566" lon="-119.64558999999997"><ele>3285.8697848902084</ele></trkpt><trkpt lat="38.30553" lon="-119.6456"><ele>3286.717385537981</ele></trkpt><trkpt lat="38.30499" lon="-119.64552000000003"><ele>3290.1320213312283</ele></trkpt><trkpt lat="38.30485" lon="-119.64557000000002"><ele>3287.8018524432555</ele></trkpt><trkpt lat="38.30469" lon="-119.64553999999998"><ele>3288.0</ele></trkpt><trkpt lat="38.30455" lon="-119.64555999999999"><ele>3286.26788622234</ele></trkpt><trkpt lat="38.3042" lon="-119.64548000000002"><ele>3286.483757779468</ele></trkpt><trkpt lat="38.30371" lon="-119.64544999999998"><ele>3284.3942577787675</ele></trkpt><trkpt lat="38.30361" lon="-119.64540999999997"><ele>3284.258392889984</ele></trkpt><trkpt lat="38.3034" lon="-119.64544000000001"><ele>3281.841099072733</ele></trkpt><trkpt lat="38.30308" lon="-119.64537999999999"><ele>3281.6564942221157</ele></trkpt><trkpt lat="38.30212" lon="-119.64508000000001"><ele>3281.6138710446457</ele></trkpt><trkpt lat="38.30184" lon="-119.64504999999997"><ele>3279.0356088904664</ele></trkpt><trkpt lat="38.30079" lon="-119.64474000000001"><ele>3280.4826559992507</ele></trkpt><trkpt lat="38.30055" lon="-119.64461"><ele>3285.0</ele></trkpt><trkpt lat="38.30049" lon="-119.64452"><ele>3286.0</ele></trkpt><trkpt lat="38.30026" lon="-119.64381000000003"><ele>3283.0</ele></trkpt><trkpt lat="38.3003" lon="-119.64366999999999"><ele>3281.0</ele></trkpt><trkpt lat="38.30042" lon="-119.64346999999998"><ele>3278.3363285172554</ele></trkpt><trkpt lat="38.30037" lon="-119.64339999999999"><ele>3276.0688177770935</ele></trkpt><trkpt lat="38.30018" lon="-119.64337999999998"><ele>3272.136750221718</ele></trkpt><trkpt lat="38.30002" lon="-119.64345000000003"><ele>3270.5517050271474</ele></trkpt><trkpt lat="38.29963" lon="-119.64348000000001"><ele>3264.891377081629</ele></trkpt><trkpt lat="38.29953" lon="-119.64345000000003"><ele>3263.398986668326</ele></trkpt><trkpt lat="38.29941" lon="-119.64341000000002"><ele>3262.05374610459</ele></trkpt><trkpt lat="38.2985" lon="-119.64282000000003"><ele>3249.0</ele></trkpt><trkpt lat="38.2983" lon="-119.64243999999997"><ele>3243.9233525280233</ele></trkpt><trkpt lat="38.298030913352925" lon="-119.64153725770012"><ele>3239.0</ele></trkpt><trkpt lat="38.29803711378669" lon="-119.64155805886907"><ele>3239.113291078407</ele></trkpt><trkpt lat="38.29799" lon="-119.64139999999998"><ele>3238.253729603675</ele></trkpt><trkpt lat="38.29795" lon="-119.64123000000001"><ele>3235.980008849188</ele></trkpt><trkpt lat="38.29795" lon="-119.64111000000003"><ele>3234.2324181049153</ele></trkpt><trkpt lat="38.29795" lon="-119.64111000000003"><ele>3234.2324181049153</ele></trkpt><trkpt lat="38.29795" lon="-119.64098999999999"><ele>3233.0</ele></trkpt><trkpt lat="38.29787" lon="-119.64076999999997"><ele>3231.0</ele></trkpt><trkpt lat="38.29789" lon="-119.6404"><ele>3231.0</ele></trkpt><trkpt lat="38.29787" lon="-119.64031999999997"><ele>3231.4202386289835</ele></trkpt><trkpt lat="38.29775" lon="-119.64021000000002"><ele>3233.0</ele></trkpt><trkpt lat="38.29769" lon="-119.63992000000002"><ele>3229.8890631124377</ele></trkpt><trkpt lat="38.29749" lon="-119.63963000000001"><ele>3225.0</ele></trkpt><trkpt lat="38.29715" lon="-119.63943"><ele>3221.0534080001526</ele></trkpt><trkpt lat="38.29691" lon="-119.63922000000002"><ele>3221.0</ele></trkpt><trkpt lat="38.29664" lon="-119.63869999999997"><ele>3218.0151579179574</ele></trkpt><trkpt lat="38.29659" lon="-119.63855000000001"><ele>3219.0</ele></trkpt><trkpt lat="38.2965" lon="-119.63842999999997"><ele>3219.0</ele></trkpt><trkpt lat="38.29635" lon="-119.63836000000003"><ele>3220.0</ele></trkpt><trkpt lat="38.29635" lon="-119.63830999999999"><ele>3221.0</ele></trkpt><trkpt lat="38.29641" lon="-119.63810000000001"><ele>3223.929084443953</ele></trkpt><trkpt lat="38.29633" lon="-119.63756000000001"><ele>3230.868370678276</ele></trkpt><trkpt lat="38.29629" lon="-119.63755000000003"><ele>3231.2436209730804</ele></trkpt><trkpt lat="38.29619" lon="-119.63772"><ele>3233.0</ele></trkpt><trkpt lat="38.29601" lon="-119.63776999999999"><ele>3234.3081991113722</ele></trkpt><trkpt lat="38.29592" lon="-119.63772"><ele>3236.6383679998107</ele></trkpt><trkpt lat="38.29576" lon="-119.63755000000003"><ele>3239.7155637703836</ele></trkpt><trkpt lat="38.29571" lon="-119.63755000000003"><ele>3240.8230805690573</ele></trkpt><trkpt lat="38.29565" lon="-119.63758000000001"><ele>3242.0</ele></trkpt><trkpt lat="38.29559" lon="-119.63767000000001"><ele>3242.784794962315</ele></trkpt><trkpt lat="38.29548" lon="-119.63770999999997"><ele>3245.0</ele></trkpt><trkpt lat="38.2954" lon="-119.63769000000002"><ele>3246.0</ele></trkpt><trkpt lat="38.29528" lon="-119.63781"><ele>3250.0</ele></trkpt><trkpt lat="38.29417" lon="-119.63716999999997"><ele>3281.7649070599646</ele></trkpt><trkpt lat="38.29384469698308" lon="-119.63711085399694"><ele>3284.553697904572</ele></trkpt><trkpt lat="38.29385949803973" lon="-119.63711354509053"><ele>3285.042731663422</ele></trkpt><trkpt lat="38.29417" lon="-119.63716999999997"><ele>3281.7649070599646</ele></trkpt><trkpt lat="38.29528" lon="-119.63781"><ele>3250.0</ele></trkpt><trkpt lat="38.2954" lon="-119.63769000000002"><ele>3246.0</ele></trkpt><trkpt lat="38.29548" lon="-119.63770999999997"><ele>3245.0</ele></trkpt><trkpt lat="38.29559" lon="-119.63767000000001"><ele>3242.784794962315</ele></trkpt><trkpt lat="38.29565" lon="-119.63758000000001"><ele>3242.0</ele></trkpt><trkpt lat="38.29571" lon="-119.63755000000003"><ele>3240.8230805690573</ele></trkpt><trkpt lat="38.29576" lon="-119.63755000000003"><ele>3239.7155637703836</ele></trkpt><trkpt lat="38.29592" lon="-119.63772"><ele>3236.6383679998107</ele></trkpt><trkpt lat="38.29601" lon="-119.63776999999999"><ele>3234.3081991113722</ele></trkpt><trkpt lat="38.29619" lon="-119.63772"><ele>3233.0</ele></trkpt><trkpt lat="38.29629" lon="-119.63755000000003"><ele>3231.2436209730804</ele></trkpt><trkpt lat="38.29633" lon="-119.63756000000001"><ele>3230.868370678276</ele></trkpt><trkpt lat="38.29641" lon="-119.63810000000001"><ele>3223.929084443953</ele></trkpt><trkpt lat="38.29635" lon="-119.63830999999999"><ele>3221.0</ele></trkpt><trkpt lat="38.29635" lon="-119.63836000000003"><ele>3220.0</ele></trkpt><trkpt lat="38.2965" lon="-119.63842999999997"><ele>3219.0</ele></trkpt><trkpt lat="38.29659" lon="-119.63855000000001"><ele>3219.0</ele></trkpt><trkpt lat="38.29664" lon="-119.63869999999997"><ele>3218.0151579179574</ele></trkpt><trkpt lat="38.29691" lon="-119.63922000000002"><ele>3221.0</ele></trkpt><trkpt lat="38.29715" lon="-119.63943"><ele>3221.0534080001526</ele></trkpt><trkpt lat="38.29749" lon="-119.63963000000001"><ele>3225.0</ele></trkpt><trkpt lat="38.29769" lon="-119.63992000000002"><ele>3229.8890631124377</ele></trkpt><trkpt lat="38.29775" lon="-119.64021000000002"><ele>3233.0</ele></trkpt><trkpt lat="38.29787" lon="-119.64031999999997"><ele>3231.4202386289835</ele></trkpt><trkpt lat="38.29789" lon="-119.6404"><ele>3231.0</ele></trkpt><trkpt lat="38.29787" lon="-119.64076999999997"><ele>3231.0</ele></trkpt><trkpt lat="38.29795" lon="-119.64098999999999"><ele>3233.0</ele></trkpt><trkpt lat="38.29795" lon="-119.64111000000003"><ele>3234.2324181049153</ele></trkpt><trkpt lat="38.29795" lon="-119.64111000000003"><ele>3234.2324181049153</ele></trkpt><trkpt lat="38.29795" lon="-119.64123000000001"><ele>3235.980008849188</ele></trkpt><trkpt lat="38.29799" lon="-119.64139999999998"><ele>3238.253729603675</ele></trkpt><trkpt lat="38.2983" lon="-119.64243999999997"><ele>3243.9233525280233</ele></trkpt><trkpt lat="38.2985" lon="-119.64282000000003"><ele>3249.0</ele></trkpt><trkpt lat="38.29941" lon="-119.64341000000002"><ele>3262.05374610459</ele></trkpt><trkpt lat="38.29953" lon="-119.64345000000003"><ele>3263.398986668326</ele></trkpt><trkpt lat="38.29963" lon="-119.64348000000001"><ele>3264.891377081629</ele></trkpt><trkpt lat="38.30002" lon="-119.64345000000003"><ele>3270.5517050271474</ele></trkpt><trkpt lat="38.30018" lon="-119.64337999999998"><ele>3272.136750221718</ele></trkpt><trkpt lat="38.30037" lon="-119.64339999999999"><ele>3276.0688177770935</ele></trkpt><trkpt lat="38.30042" lon="-119.64346999999998"><ele>3278.3363285172554</ele></trkpt><trkpt lat="38.3003" lon="-119.64366999999999"><ele>3281.0</ele></trkpt><trkpt lat="38.30026" lon="-119.64381000000003"><ele>3283.0</ele></trkpt><trkpt lat="38.30049" lon="-119.64452"><ele>3286.0</ele></trkpt><trkpt lat="38.30055" lon="-119.64461"><ele>3285.0</ele></trkpt><trkpt lat="38.30079" lon="-119.64474000000001"><ele>3280.4826559992507</ele></trkpt><trkpt lat="38.30184" lon="-119.64504999999997"><ele>3279.0356088904664</ele></trkpt><trkpt lat="38.30212" lon="-119.64508000000001"><ele>3281.6138710446457</ele></trkpt><trkpt lat="38.30308" lon="-119.64537999999999"><ele>3281.6564942221157</ele></trkpt><trkpt lat="38.3034" lon="-119.64544000000001"><ele>3281.841099072733</ele></trkpt><trkpt lat="38.30361" lon="-119.64540999999997"><ele>3284.258392889984</ele></trkpt><trkpt lat="38.30371" lon="-119.64544999999998"><ele>3284.3942577787675</ele></trkpt><trkpt lat="38.3042" lon="-119.64548000000002"><ele>3286.483757779468</ele></trkpt><trkpt lat="38.30455" lon="-119.64555999999999"><ele>3286.26788622234</ele></trkpt><trkpt lat="38.30469" lon="-119.64553999999998"><ele>3288.0</ele></trkpt><trkpt lat="38.30485" lon="-119.64557000000002"><ele>3287.8018524432555</ele></trkpt><trkpt lat="38.30499" lon="-119.64552000000003"><ele>3290.1320213312283</ele></trkpt><trkpt lat="38.30553" lon="-119.6456"><ele>3286.717385537981</ele></trkpt><trkpt lat="38.30566" lon="-119.64558999999997"><ele>3285.8697848902084</ele></trkpt><trkpt lat="38.30593" lon="-119.64549"><ele>3288.0</ele></trkpt><trkpt lat="38.30622" lon="-119.64544999999998"><ele>3287.3942577787675</ele></trkpt><trkpt lat="38.3065" lon="-119.64535000000001"><ele>3286.9229371341717</ele></trkpt><trkpt lat="38.30718" lon="-119.64495"><ele>3286.8581196926525</ele></trkpt><trkpt lat="38.30718" lon="-119.64495"><ele>3286.8581196926525</ele></trkpt><trkpt lat="38.3076565442902" lon="-119.64473442044016"><ele>3286.742682334967</ele></trkpt><trkpt lat="38.30767301680353" lon="-119.64472696912242"><ele>3286.320117111108</ele></trkpt><trkpt lat="38.30802" lon="-119.64456999999999"><ele>3286.789065294871</ele></trkpt><trkpt lat="38.30933" lon="-119.64377999999999"><ele>3289.0</ele></trkpt><trkpt lat="38.3096" lon="-119.64364999999998"><ele>3289.2261753368443</ele></trkpt><trkpt lat="38.30997" lon="-119.64355"><ele>3289.9406755552627</ele></trkpt><trkpt lat="38.31012" lon="-119.64360999999997"><ele>3288.144472890068</ele></trkpt><trkpt lat="38.31026" lon="-119.64351999999997"><ele>3289.2059108783033</ele></trkpt><trkpt lat="38.31063" lon="-119.64319999999998"><ele>3291.0</ele></trkpt><trkpt lat="38.31072" lon="-119.64315999999997"><ele>3292.0</ele></trkpt><trkpt lat="38.31072" lon="-119.64315999999997"><ele>3292.0</ele></trkpt><trkpt lat="38.31072" lon="-119.64315999999997"><ele>3292.0</ele></trkpt><trkpt lat="38.31079" lon="-119.64318000000003"><ele>3292.0</ele></trkpt><trkpt lat="38.31079" lon="-119.64318000000003"><ele>3292.0</ele></trkpt><trkpt lat="38.31079" lon="-119.64318000000003"><ele>3292.0</ele></trkpt><trkpt lat="38.31135" lon="-119.64351999999997"><ele>3293.425197858296</ele></trkpt><trkpt lat="38.31191" lon="-119.64364"><ele>3298.8455977466697</ele></trkpt><trkpt lat="38.31314" lon="-119.64420000000001"><ele>3299.6484799995087</ele></trkpt><trkpt lat="38.31348" lon="-119.64418"><ele>3300.580547554884</ele></trkpt><trkpt lat="38.31394" lon="-119.64395999999999"><ele>3303.0310038251787</ele></trkpt><trkpt lat="38.31421" lon="-119.64390000000003"><ele>3303.6294933315367</ele></trkpt><trkpt lat="38.31453" lon="-119.64368999999999"><ele>3308.4162026667036</ele></trkpt><trkpt lat="38.31477" lon="-119.64364"><ele>3309.746371555142</ele></trkpt><trkpt lat="38.31559" lon="-119.64375999999999"><ele>3309.0</ele></trkpt><trkpt lat="38.31621" lon="-119.64378999999997"><ele>3309.7558648902923</ele></trkpt><trkpt lat="38.31658" lon="-119.64375999999999"><ele>3310.0</ele></trkpt><trkpt lat="38.3165993371107" lon="-119.64374810023958"><ele>3310.0</ele></trkpt><trkpt lat="38.3165993371107" lon="-119.64374810023958"><ele>3310.0</ele></trkpt><trkpt lat="38.31671" lon="-119.64368000000002"><ele>3308.5079972874373</ele></trkpt><trkpt lat="38.31698" lon="-119.64386000000002"><ele>3302.0</ele></trkpt><trkpt lat="38.31706" lon="-119.64368000000002"><ele>3298.8364243190736</ele></trkpt><trkpt lat="38.31712" lon="-119.64368000000002"><ele>3297.0182256088956</ele></trkpt><trkpt lat="38.31747" lon="-119.64386000000002"><ele>3291.6913543204</ele></trkpt><trkpt lat="38.31771" lon="-119.64386000000002"><ele>3284.5604864012944</ele></trkpt><trkpt lat="38.31789" lon="-119.64400999999998"><ele>3280.9147111810744</ele></trkpt><trkpt lat="38.31825" lon="-119.64463"><ele>3271.4251383407973</ele></trkpt><trkpt lat="38.31843" lon="-119.64471000000003"><ele>3267.461535217706</ele></trkpt><trkpt lat="38.31861" lon="-119.64472"><ele>3265.585276445374</ele></trkpt><trkpt lat="38.31886" lon="-119.64477999999997"><ele>3260.8765974474413</ele></trkpt><trkpt lat="38.31893" lon="-119.64483000000001"><ele>3259.6425050813705</ele></trkpt><trkpt lat="38.31905" lon="-119.64498000000003"><ele>3257.8554037191116</ele></trkpt><trkpt lat="38.31911" lon="-119.64499"><ele>3256.0</ele></trkpt><trkpt lat="38.31911" lon="-119.64499"><ele>3256.0</ele></trkpt><trkpt lat="38.31911" lon="-119.64499"><ele>3256.0</ele></trkpt><trkpt lat="38.31914" lon="-119.64486999999997"><ele>3255.647277766799</ele></trkpt><trkpt lat="38.31936" lon="-119.6449"><ele>3252.097898793418</ele></trkpt><trkpt lat="38.3201" lon="-119.64463"><ele>3240.53517441405</ele></trkpt><trkpt lat="38.32028" lon="-119.6447"><ele>3238.653208889067</ele></trkpt><trkpt lat="38.32061" lon="-119.64454"><ele>3231.196668444667</ele></trkpt><trkpt lat="38.32072" lon="-119.64459999999997"><ele>3230.9951208926896</ele></trkpt><trkpt lat="38.32113" lon="-119.64462000000003"><ele>3223.997073118327</ele></trkpt><trkpt lat="38.32154" lon="-119.6445"><ele>3219.3325333334506</ele></trkpt><trkpt lat="38.3218" lon="-119.64453000000003"><ele>3215.118189444384</ele></trkpt><trkpt lat="38.32182" lon="-119.64445"><ele>3213.9737820568944</ele></trkpt><trkpt lat="38.32182" lon="-119.64445"><ele>3213.9737820568944</ele></trkpt><trkpt lat="38.322" lon="-119.64432999999997"><ele>3206.575949445062</ele></trkpt><trkpt lat="38.32214" lon="-119.64414999999997"><ele>3199.0</ele></trkpt><trkpt lat="38.32218" lon="-119.64400999999998"><ele>3194.5888936351985</ele></trkpt><trkpt lat="38.32217" lon="-119.64384000000001"><ele>3189.0435574492444</ele></trkpt><trkpt lat="38.32221" lon="-119.64366999999999"><ele>3180.4585497621447</ele></trkpt><trkpt lat="38.32232" lon="-119.64345000000003"><ele>3168.272543622181</ele></trkpt><trkpt lat="38.3224" lon="-119.64332999999999"><ele>3164.419693627602</ele></trkpt><trkpt lat="38.32281" lon="-119.64327000000003"><ele>3161.9896213319153</ele></trkpt><trkpt lat="38.322842763372144" lon="-119.6432878709303"><ele>3160.1567756170407</ele></trkpt><trkpt lat="38.32287549924348" lon="-119.64330572684912"><ele>3159.3246294865385</ele></trkpt><trkpt lat="38.32292" lon="-119.64332999999999"><ele>3157.8242803127505</ele></trkpt><trkpt lat="38.32308" lon="-119.64333999999997"><ele>3153.7618334332155</ele></trkpt><trkpt lat="38.32336" lon="-119.64323999999999"><ele>3150.6898452233704</ele></trkpt><trkpt lat="38.32346" lon="-119.64323999999999"><ele>3148.7263705863047</ele></trkpt><trkpt lat="38.32355" lon="-119.64319999999998"><ele>3148.0520786639395</ele></trkpt><trkpt lat="38.32398" lon="-119.64288999999997"><ele>3136.463492179642</ele></trkpt><trkpt lat="38.32406" lon="-119.64278000000002"><ele>3135.0</ele></trkpt><trkpt lat="38.32415" lon="-119.64272"><ele>3132.7293404449574</ele></trkpt><trkpt lat="38.32436" lon="-119.64270999999997"><ele>3126.0896212439984</ele></trkpt><trkpt lat="38.32442" lon="-119.64278999999999"><ele>3123.829491221205</ele></trkpt><trkpt lat="38.32442" lon="-119.64278999999999"><ele>3123.829491221205</ele></trkpt><trkpt lat="38.32459" lon="-119.64305000000002"><ele>3117.0</ele></trkpt><trkpt lat="38.32472" lon="-119.64312000000001"><ele>3115.704045617953</ele></trkpt><trkpt lat="38.32498" lon="-119.64310999999998"><ele>3107.553838221822</ele></trkpt><trkpt lat="38.32516" lon="-119.64292999999998"><ele>3096.165230221115</ele></trkpt><trkpt lat="38.32521" lon="-119.64269000000002"><ele>3084.396353871571</ele></trkpt><trkpt lat="38.32507" lon="-119.64242999999999"><ele>3071.0</ele></trkpt><trkpt lat="38.32513" lon="-119.64224000000002"><ele>3061.008899556473</ele></trkpt><trkpt lat="38.32526" lon="-119.64216999999996"><ele>3055.0263011122624</ele></trkpt><trkpt lat="38.32529" lon="-119.64204000000001"><ele>3049.737068805057</ele></trkpt><trkpt lat="38.32538" lon="-119.64190000000002"><ele>3045.163751112297</ele></trkpt><trkpt lat="38.32554" lon="-119.64175"><ele>3034.99206019938</ele></trkpt><trkpt lat="38.32556" lon="-119.64159999999998"><ele>3030.1827377770096</ele></trkpt><trkpt lat="38.32551" lon="-119.64139"><ele>3027.3960284451023</ele></trkpt><trkpt lat="38.3255" lon="-119.64111000000003"><ele>3022.5875308327363</ele></trkpt><trkpt lat="38.3255" lon="-119.64111000000003"><ele>3022.5875308327363</ele></trkpt><trkpt lat="38.32545" lon="-119.64085"><ele>3018.490799137465</ele></trkpt><trkpt lat="38.32546192784043" lon="-119.64081660204681"><ele>3017.879269974619</ele></trkpt><trkpt lat="38.32545773928623" lon="-119.64082833000481"><ele>3018.0</ele></trkpt><trkpt lat="38.3255" lon="-119.64071000000001"><ele>3014.8141010293657</ele></trkpt><trkpt lat="38.32549" lon="-119.64064000000002"><ele>3014.0</ele></trkpt><trkpt lat="38.32552" lon="-119.64035999999999"><ele>3011.1801639627665</ele></trkpt><trkpt lat="38.32563" lon="-119.64006"><ele>3009.0</ele></trkpt><trkpt lat="38.32576" lon="-119.63988"><ele>3007.922897182405</ele></trkpt><trkpt lat="38.32575918314181" lon="-119.63988353432791"><ele>3007.971422947943</ele></trkpt><trkpt lat="38.32586" lon="-119.63992000000002"><ele>3006.0</ele></trkpt><trkpt lat="38.32648" lon="-119.63994000000002"><ele>2995.3027069962673</ele></trkpt><trkpt lat="38.32671" lon="-119.63968"><ele>2991.144153146433</ele></trkpt><trkpt lat="38.32703" lon="-119.63965999999999"><ele>2985.108760740963</ele></trkpt><trkpt lat="38.32719" lon="-119.63959999999997"><ele>2982.0</ele></trkpt><trkpt lat="38.32735" lon="-119.6395"><ele>2979.319807812426</ele></trkpt><trkpt lat="38.32748" lon="-119.63934999999998"><ele>2975.0</ele></trkpt><trkpt lat="38.32767" lon="-119.63898"><ele>2970.0</ele></trkpt><trkpt lat="38.32766" lon="-119.6388"><ele>2968.035497488615</ele></trkpt><trkpt lat="38.32761796751968" lon="-119.63875414638511"><ele>2967.7995673149617</ele></trkpt><trkpt lat="38.32761454004901" lon="-119.63875040730409"><ele>2967.846658740461</ele></trkpt><trkpt lat="38.32755" lon="-119.63868000000002"><ele>2966.1008746675216</ele></trkpt><trkpt lat="38.32753" lon="-119.63845000000003"><ele>2961.8604138628334</ele></trkpt><trkpt lat="38.32756" lon="-119.63824999999997"><ele>2958.9918915312737</ele></trkpt><trkpt lat="38.32763" lon="-119.63812000000001"><ele>2957.0</ele></trkpt><trkpt lat="38.32777" lon="-119.63810000000001"><ele>2955.0</ele></trkpt><trkpt lat="38.32787" lon="-119.63814000000002"><ele>2952.603284230932</ele></trkpt><trkpt lat="38.32809" lon="-119.63810000000001"><ele>2948.470251344207</ele></trkpt><trkpt lat="38.32817" lon="-119.63806"><ele>2947.5977380197796</ele></trkpt><trkpt lat="38.32824" lon="-119.63797999999997"><ele>2947.0</ele></trkpt><trkpt lat="38.32826" lon="-119.63791000000003"><ele>2947.0</ele></trkpt><trkpt lat="38.32825" lon="-119.63782000000003"><ele>2947.0</ele></trkpt><trkpt lat="38.32821" lon="-119.63774999999998"><ele>2946.0</ele></trkpt><trkpt lat="38.32814" lon="-119.63773000000003"><ele>2945.8276657797396</ele></trkpt><trkpt lat="38.32804" lon="-119.63761"><ele>2943.0</ele></trkpt><trkpt lat="38.32792" lon="-119.63751000000002"><ele>2940.5749226678163</ele></trkpt><trkpt lat="38.32789" lon="-119.63740000000001"><ele>2938.173852026373</ele></trkpt><trkpt lat="38.32789" lon="-119.63740000000001"><ele>2938.173852026373</ele></trkpt><trkpt lat="38.32789" lon="-119.63740000000001"><ele>2938.173852026373</ele></trkpt><trkpt lat="38.32792" lon="-119.63733000000002"><ele>2936.1863146680407</ele></trkpt><trkpt lat="38.32804" lon="-119.63722999999999"><ele>2934.0</ele></trkpt><trkpt lat="38.32804" lon="-119.63722999999999"><ele>2934.0</ele></trkpt><trkpt lat="38.32806" lon="-119.63711"><ele>2935.0</ele></trkpt><trkpt lat="38.32806" lon="-119.63711"><ele>2935.0</ele></trkpt><trkpt lat="38.32806" lon="-119.63711"><ele>2935.0</ele></trkpt><trkpt lat="38.32822" lon="-119.63713000000001"><ele>2935.0</ele></trkpt><trkpt lat="38.32855" lon="-119.63709"><ele>2932.0</ele></trkpt><trkpt lat="38.32875" lon="-119.63716"><ele>2932.5174746029666</ele></trkpt><trkpt lat="38.3289" lon="-119.63715000000002"><ele>2932.0</ele></trkpt><trkpt lat="38.32902" lon="-119.63695000000001"><ele>2929.257014106959</ele></trkpt><trkpt lat="38.32937" lon="-119.63659999999999"><ele>2925.3871686255725</ele></trkpt><trkpt lat="38.32944" lon="-119.63632000000001"><ele>2924.0</ele></trkpt><trkpt lat="38.329515190235696" lon="-119.63623541098485"><ele>2923.9717971279783</ele></trkpt><trkpt lat="38.329516057819994" lon="-119.63623443495482"><ele>2923.9724738601653</ele></trkpt><trkpt lat="38.32952" lon="-119.63623000000001"><ele>2923.9653930804216</ele></trkpt><trkpt lat="38.32953" lon="-119.63603999999998"><ele>2922.103555333236</ele></trkpt><trkpt lat="38.32966" lon="-119.63603"><ele>2924.3042517850445</ele></trkpt><trkpt lat="38.32975" lon="-119.63590999999997"><ele>2924.1100225556766</ele></trkpt><trkpt lat="38.32993" lon="-119.63584000000003"><ele>2926.049368607708</ele></trkpt><trkpt lat="38.32993" lon="-119.63584000000003"><ele>2926.049368607708</ele></trkpt><trkpt lat="38.32977" lon="-119.63551000000001"><ele>2929.63183288835</ele></trkpt><trkpt lat="38.32966" lon="-119.63538"><ele>2930.926998634507</ele></trkpt><trkpt lat="38.32966" lon="-119.63538"><ele>2930.926998634507</ele></trkpt><trkpt lat="38.32955374871409" lon="-119.63532355400434"><ele>2931.0</ele></trkpt><trkpt lat="38.329558497117354" lon="-119.63532607639326"><ele>2931.0</ele></trkpt><trkpt lat="38.3294231649851" lon="-119.6352541813983"><ele>2931.0</ele></trkpt></trkseg></trk></gpx>