<?xml version="1.0"?>
<gpx xmlns="http://www.topografix.com/GPX/1/1" xmlns:gpxx="http://www.garmin.com/xmlschemas/GpxExtensions/v3" creator="CALTOPO" version="1.1"><metadata><name><![CDATA[Tuolumne Meadows Connector]]></name></metadata><trk><name>Tuolumne Meadows Connector</name><trkseg><trkpt lat="37.877969943010335" lon="-119.33874751123864"><ele>2646.504738677293</ele></trkpt><trkpt lat="37.87793183480805" lon="-119.33881724867302"><ele>2646.6152909569237</ele></trkpt><trkpt lat="37.87793999999998" lon="-119.33881724867302"><ele>2646.8641504307925</ele></trkpt><trkpt lat="37.87794" lon="-119.33888000000002"><ele>2647.0</ele></trkpt><trkpt lat="37.87794" lon="-119.33888000000002"><ele>2647.0</ele></trkpt><trkpt lat="37.87794" lon="-119.33888000000002"><ele>2647.0</ele></trkpt><trkpt lat="37.8777" lon="-119.33911999999998"><ele>2645.0</ele></trkpt><trkpt lat="37.8777" lon="-119.33911999999998"><ele>2645.0</ele></trkpt><trkpt lat="37.877658966036776" lon="-119.33950982265065"><ele>2645.0</ele></trkpt><trkpt lat="37.87766" lon="-119.33951000000002"><ele>2645.0</ele></trkpt><trkpt lat="37.87754" lon="-119.33965"><ele>2644.0</ele></trkpt><trkpt lat="37.87755" lon="-119.33965009064184"><ele>2644.0</ele></trkpt><trkpt lat="37.87755" lon="-119.33967590332031"><ele>2644.0</ele></trkpt><trkpt lat="37.87754999999999" lon="-119.33968628439385"><ele>2644.0</ele></trkpt><trkpt lat="37.87755" lon="-119.34037999999998"><ele>2643.0</ele></trkpt><trkpt lat="37.87738" lon="-119.34093999999999"><ele>2643.6732136830688</ele></trkpt><trkpt lat="37.87706" lon="-119.34183000000002"><ele>2641.0</ele></trkpt><trkpt lat="37.87695" lon="-119.34233999999998"><ele>2642.0</ele></trkpt><trkpt lat="37.87687" lon="-119.34334999999999"><ele>2643.0</ele></trkpt><trkpt lat="37.87673" lon="-119.34455000000003"><ele>2642.0</ele></trkpt><trkpt lat="37.87672" lon="-119.34505000000001"><ele>2642.0</ele></trkpt><trkpt lat="37.87660985485198" lon="-119.34566268238586"><ele>2640.0</ele></trkpt><trkpt lat="37.87660559520554" lon="-119.34568637666916"><ele>2640.0</ele></trkpt><trkpt lat="37.87656" lon="-119.34593999999998"><ele>2637.259084450081</ele></trkpt><trkpt lat="37.87648" lon="-119.34625"><ele>2636.0</ele></trkpt><trkpt lat="37.87648" lon="-119.34625"><ele>2636.0</ele></trkpt><trkpt lat="37.87648" lon="-119.34625"><ele>2636.0</ele></trkpt><trkpt lat="37.87648" lon="-119.34649999999999"><ele>2634.474044444505</ele></trkpt><trkpt lat="37.87648" lon="-119.34649999999999"><ele>2634.474044444505</ele></trkpt><trkpt lat="37.87662" lon="-119.34719999999999"><ele>2630.0</ele></trkpt><trkpt lat="37.87663" lon="-119.34746000000001"><ele>2628.0</ele></trkpt><trkpt lat="37.87647" lon="-119.34899000000001"><ele>2624.0</ele></trkpt><trkpt lat="37.87678" lon="-119.35205000000002"><ele>2620.0</ele></trkpt><trkpt lat="37.87697" lon="-119.35287"><ele>2620.0</ele></trkpt><trkpt lat="37.87696" lon="-119.35309999999998"><ele>2619.0</ele></trkpt><trkpt lat="37.87703" lon="-119.35311999999999"><ele>2620.0</ele></trkpt><trkpt lat="37.87703" lon="-119.35311999999999"><ele>2620.0</ele></trkpt><trkpt lat="37.8771" lon="-119.35312999999996"><ele>2619.4936497793533</ele></trkpt><trkpt lat="37.87714" lon="-119.35321999999996"><ele>2619.0</ele></trkpt><trkpt lat="37.87714" lon="-119.35330999999996"><ele>2619.0</ele></trkpt><trkpt lat="37.87714" lon="-119.35330999999996"><ele>2619.0</ele></trkpt><trkpt lat="37.87721546432472" lon="-119.35347979466474"><ele>2619.0</ele></trkpt><trkpt lat="37.87721546432472" lon="-119.35347979466474"><ele>2619.0</ele></trkpt><trkpt lat="37.87730227018831" lon="-119.35367510790377"><ele>2619.0</ele></trkpt><trkpt lat="37.87730227018831" lon="-119.35367510790377"><ele>2619.0</ele></trkpt><trkpt lat="37.87730227018831" lon="-119.35367510790377"><ele>2619.0</ele></trkpt><trkpt lat="37.87730378225186" lon="-119.35367851004668"><ele>2619.0</ele></trkpt><trkpt lat="37.87730227018831" lon="-119.35367510790377"><ele>2619.0</ele></trkpt><trkpt lat="37.87730227018831" lon="-119.35367510790377"><ele>2619.0</ele></trkpt><trkpt lat="37.87721546432472" lon="-119.35347979466474"><ele>2619.0</ele></trkpt><trkpt lat="37.87721546432472" lon="-119.35347979466474"><ele>2619.0</ele></trkpt><trkpt lat="37.87714" lon="-119.35330999999996"><ele>2619.0</ele></trkpt><trkpt lat="37.87714" lon="-119.35330999999996"><ele>2619.0</ele></trkpt><trkpt lat="37.87714" lon="-119.35321999999996"><ele>2619.0</ele></trkpt><trkpt lat="37.8771" lon="-119.35312999999996"><ele>2619.4936497793533</ele></trkpt><trkpt lat="37.87703" lon="-119.35311999999999"><ele>2620.0</ele></trkpt><trkpt lat="37.87703" lon="-119.35311999999999"><ele>2620.0</ele></trkpt><trkpt lat="37.87696" lon="-119.35309999999998"><ele>2619.0</ele></trkpt><trkpt lat="37.87697" lon="-119.35287"><ele>2620.0</ele></trkpt><trkpt lat="37.87678" lon="-119.35205000000002"><ele>2620.0</ele></trkpt><trkpt lat="37.87667205125957" lon="-119.35098444146547"><ele>2620.9353567484786</ele></trkpt><trkpt lat="37.8766723812448" lon="-119.35098769727955"><ele>2620.9293616516147</ele></trkpt><trkpt lat="37.87647" lon="-119.34899000000001"><ele>2624.0</ele></trkpt><trkpt lat="37.87663" lon="-119.34746000000001"><ele>2628.0</ele></trkpt><trkpt lat="37.87662" lon="-119.34719999999999"><ele>2630.0</ele></trkpt><trkpt lat="37.87648" lon="-119.34649999999999"><ele>2634.474044444505</ele></trkpt><trkpt lat="37.87648" lon="-119.34649999999999"><ele>2634.474044444505</ele></trkpt><trkpt lat="37.87648" lon="-119.34625"><ele>2636.0</ele></trkpt><trkpt lat="37.87648" lon="-119.34625"><ele>2636.0</ele></trkpt><trkpt lat="37.87648" lon="-119.34625"><ele>2636.0</ele></trkpt><trkpt lat="37.87656" lon="-119.34593999999998"><ele>2637.259084450081</ele></trkpt><trkpt lat="37.87660559520554" lon="-119.34568637666916"><ele>2640.0</ele></trkpt><trkpt lat="37.87660985485198" lon="-119.34566268238586"><ele>2640.0</ele></trkpt><trkpt lat="37.87672" lon="-119.34505000000001"><ele>2642.0</ele></trkpt><trkpt lat="37.87673" lon="-119.34455000000003"><ele>2642.0</ele></trkpt><trkpt lat="37.87687" lon="-119.34334999999999"><ele>2643.0</ele></trkpt><trkpt lat="37.87695" lon="-119.34233999999998"><ele>2642.0</ele></trkpt><trkpt lat="37.877010904062786" lon="-119.34200907740075"><ele>2641.0</ele></trkpt><trkpt lat="37.877020647937954" lon="-119.34201245055692"><ele>2641.4564190823585</ele></trkpt><trkpt lat="37.87706" lon="-119.34183000000002"><ele>2641.0</ele></trkpt><trkpt lat="37.87738" lon="-119.34093999999999"><ele>2643.6732136830688</ele></trkpt><trkpt lat="37.87755" lon="-119.34037999999998"><ele>2643.0</ele></trkpt><trkpt lat="37.87755" lon="-119.33965009064184"><ele>2644.0</ele></trkpt><trkpt lat="37.87754" lon="-119.33965"><ele>2644.0</ele></trkpt><trkpt lat="37.87766" lon="-119.33951000000002"><ele>2645.0</ele></trkpt><trkpt lat="37.877658966036776" lon="-119.33950982265065"><ele>2645.0</ele></trkpt><trkpt lat="37.8777" lon="-119.33911999999998"><ele>2645.0</ele></trkpt><trkpt lat="37.8777" lon="-119.33911999999998"><ele>2645.0</ele></trkpt><trkpt lat="37.87794" lon="-119.33888000000002"><ele>2647.0</ele></trkpt><trkpt lat="37.87794" lon="-119.33888000000002"><ele>2647.0</ele></trkpt><trkpt lat="37.87794" lon="-119.33888000000002"><ele>2647.0</ele></trkpt><trkpt lat="37.87794" lon="-119.33879999999999"><ele>2646.501005896321</ele></trkpt><trkpt lat="37.87796105500691" lon="-119.33874736248276"><ele>2646.0</ele></trkpt><trkpt lat="37.87795" lon="-119.33874000000003"><ele>2646.0</ele></trkpt></trkseg></trk></gpx>